SA	19/08/2025 00:00->	
METAR SBFL 190000Z 10004KT CAVOK 16/14 Q1023=
SA	18/08/2025 23:54->	
METAR SBFL 190000Z 10004KT CAVOK 16/14 Q1023=
SA	18/08/2025 23:00->	
METAR SBFL 182300Z VRB02KT 8000 FEW003 17/15 Q1023=
SA	18/08/2025 22:00->	
METAR SBFL 182200Z VRB02KT 8000 FEW003 16/15 Q1023=
SA	18/08/2025 21:00->	
METAR SBFL 182100Z 12003KT 5000 BR FEW002 15/15 Q1022=
SA	18/08/2025 20:00->	
METAR SBFL 182000Z 12009KT 5000 BR VCFG FEW002 16/15 Q1022=
SA	18/08/2025 19:00->	
METAR SBFL 181900Z 13008KT 8000 VCFG FEW027 18/15 Q1021=
SA	18/08/2025 18:00->	
METAR SBFL 181800Z 12010KT 8000 VCFG FEW028 19/15 Q1021=
SA	18/08/2025 17:00->	
METAR SBFL 181700Z 11010KT 9999 FEW028 19/16 Q1021=
SA	18/08/2025 16:00->	
METAR SBFL 181600Z 11010KT 9999 FEW020 20/16 Q1022=
SA	18/08/2025 15:00->	
METAR SBFL 181500Z 12012KT 9999 FEW020 21/17 Q1023=
SA	18/08/2025 14:00->	
METAR SBFL 181400Z 30002KT 9999 FEW020 21/16 Q1024=
SA	18/08/2025 13:00->	
METAR SBFL 181300Z 23001KT 9999 FEW020 18/16 Q1024=
SA	18/08/2025 12:00->	
METAR SBFL 181200Z 27005KT 9999 BKN008 17/15 Q1024=
SP	18/08/2025 11:12->	
SPECI SBFL 181112Z 30002KT 7000 BKN008 16/15 Q1024=
SA	18/08/2025 11:00->	
METAR SBFL 181100Z 06002KT 7000 SCT008 BKN015 16/15 Q1023=
SA	18/08/2025 10:00->	
METAR SBFL 181000Z 21001KT 9999 FEW008 BKN015 15/15 Q1023=
SP	18/08/2025 09:29->	
SPECI SBFL 180929Z 10003KT 9000 FEW008 BKN015 15/14 Q1022=
SA	18/08/2025 09:00->	
METAR SBFL 180900Z 08004KT 8000 BCFG BKN008 BKN018 15/15 Q1022=
SA	18/08/2025 08:00->	
METAR SBFL 180800Z 06004KT 9999 BCFG BKN013 BKN060 15/14 Q1022=
SA	18/08/2025 07:00->	
METAR SBFL 180700Z 10004KT 8000 BCFG BKN008 BKN050 14/14 Q1021=
SA	18/08/2025 06:00->	
METAR SBFL 180600Z 12004KT 9000 3000SW BCFG FEW008 BKN050 15/14 Q1022=
SA	18/08/2025 05:00->	
METAR SBFL 180500Z 16001KT 9999 FEW009 OVC050 16/15 Q1022=
SA	18/08/2025 04:00->	
METAR SBFL 180400Z 10001KT 9999 OVC048 16/15 Q1022=
SA	18/08/2025 03:00->	
METAR SBFL 180300Z 13002KT 9999 FEW010 BKN050 15/14 Q1022=
SA	18/08/2025 02:00->	
METAR SBFL 180200Z 00000KT 9000 FEW010 15/15 Q1021=
SA	18/08/2025 01:00->	
METAR SBFL 180100Z 07002KT CAVOK 16/15 Q1021=
SA	18/08/2025 00:00->	
METAR SBFL 180000Z 25004KT 210V280 CAVOK 17/16 Q1021=
SA	17/08/2025 23:00->	
METAR SBFL 172300Z 25002KT CAVOK 17/15 Q1020=
SA	17/08/2025 22:00->	
METAR SBFL 172200Z 31003KT 9999 SCT040 BKN090 18/16 Q1019=
SA	17/08/2025 21:00->	
METAR SBFL 172100Z 12002KT 9999 SCT040 FEW045TCU BKN080 18/16 Q1018=
SA	17/08/2025 20:00->	
METAR SBFL 172000Z 34009KT 9999 4000W -SHRA SCT040 FEW045TCU BKN080 20/15 Q1018=
SA	17/08/2025 19:00->	
METAR SBFL 171900Z 35011KT 9999 FEW040 BKN100 21/15 Q1017=
SA	17/08/2025 18:00->	
METAR SBFL 171800Z 36011KT 9999 FEW040 22/15 Q1017=
SA	17/08/2025 17:00->	
METAR SBFL 171700Z 01011KT 9999 FEW030 23/15 Q1017=
SA	17/08/2025 16:00->	
METAR SBFL 171600Z 01011KT 9999 FEW030 23/15 Q1018=
SA	17/08/2025 15:00->	
METAR SBFL 171500Z 36011KT CAVOK 23/15 Q1019=
SA	17/08/2025 14:00->	
METAR SBFL 171400Z 35014KT 9999 FEW040 21/14 Q1019=
SA	17/08/2025 13:00->	
METAR SBFL 171300Z 34017KT 9999 FEW040 20/14 Q1020=
SA	17/08/2025 12:00->	
METAR SBFL 171200Z 34011KT 9999 FEW040 SCT090 19/15 Q1020=
SA	17/08/2025 11:00->	
METAR SBFL 171100Z 35011KT 9999 FEW040 SCT090 17/14 Q1021=
SA	17/08/2025 10:00->	
METAR SBFL 171000Z 33008KT 9999 FEW040 BKN090 17/14 Q1021=
SA	17/08/2025 09:00->	
METAR SBFL 170900Z 34009KT CAVOK 17/14 Q1020=
SA	17/08/2025 08:00->	
METAR SBFL 170800Z 34008KT CAVOK 17/14 Q1020=
SA	17/08/2025 07:00->	
METAR SBFL 170700Z 33007KT CAVOK 17/15 Q1021=
SA	17/08/2025 06:00->	
METAR SBFL 170600Z 36007KT CAVOK 17/15 Q1021=
SA	17/08/2025 05:00->	
METAR SBFL 170500Z 33006KT CAVOK 17/14 Q1021=
SA	17/08/2025 04:00->	
METAR SBFL 170400Z 32006KT CAVOK 17/15 Q1022=
SA	17/08/2025 03:00->	
METAR SBFL 170300Z 33005KT CAVOK 16/15 Q1022=
SA	17/08/2025 02:00->	
METAR SBFL 170200Z 35005KT 9999 FEW040 16/15 Q1022=
SA	17/08/2025 01:00->	
METAR SBFL 170100Z 36003KT 9999 BKN040 17/15 Q1023=
SA	17/08/2025 00:00->	
METAR SBFL 170000Z 34005KT 9999 SCT040 OVC060 17/15 Q1023=
SA	16/08/2025 23:52->	
METAR SBFL 170000Z 34005KT 9999 SCT040 OVC060 17/15 Q1023=
SA	16/08/2025 23:00->	
METAR SBFL 162300Z 34006KT 9999 SCT020 OVC040 17/15 Q1023=
SA	16/08/2025 22:00->	
METAR SBFL 162200Z 33004KT 9999 SCT025 OVC040 18/15 Q1023=
SA	16/08/2025 21:00->	
METAR SBFL 162100Z 34006KT 9999 SCT025 OVC040 18/15 Q1022=
SA	16/08/2025 20:00->	
METAR SBFL 162000Z 34007KT 9999 SCT025 OVC050 19/14 Q1022=
SA	16/08/2025 19:00->	
METAR SBFL 161900Z 33009KT 9999 FEW020 OVC050 19/14 Q1022=
SA	16/08/2025 18:00->	
METAR SBFL 161800Z 33008KT 9999 FEW020 SCT040 BKN060 19/14 Q1022=
SA	16/08/2025 17:00->	
METAR SBFL 161700Z 33008KT 9999 FEW010 SCT026 BKN043 19/14 Q1023=
SA	16/08/2025 16:00->	
METAR SBFL 161600Z 33005KT 290V360 9999 FEW010 SCT026 BKN043 19/15 Q1024=
SA	16/08/2025 15:00->	
METAR SBFL 161500Z 35005KT 310V040 9999 FEW023 BKN060 18/14 Q1024=
SA	16/08/2025 14:00->	
METAR SBFL 161400Z 34003KT 300V010 9999 FEW023 BKN060 18/14 Q1025=
SA	16/08/2025 13:00->	
METAR SBFL 161300Z VRB02KT 9999 FEW013 BKN017 BKN070 17/14 Q1026=
SA	16/08/2025 12:00->	
METAR SBFL 161200Z 26003KT 9999 SCT013 BKN035 BKN070 16/15 Q1025=
SA	16/08/2025 11:00->	
METAR SBFL 161100Z 24002KT 9999 FEW008 SCT012 BKN070 15/14 Q1025=
SA	16/08/2025 10:00->	
METAR SBFL 161000Z 00000KT 9999 FEW008 BKN015 OVC030 15/14 Q1025=
SA	16/08/2025 09:00->	
METAR SBFL 160900Z VRB01KT 9999 FEW008 BKN013 OVC020 15/14 Q1024=
SA	16/08/2025 08:00->	
METAR SBFL 160800Z 13003KT 9999 BKN012 OVC064 15/14 Q1024=
SA	16/08/2025 07:00->	
METAR SBFL 160700Z 12003KT 9999 BKN012 BKN017 OVC025 15/14 Q1024=
SA	16/08/2025 06:00->	
METAR SBFL 160600Z 13003KT 080V160 9999 OVC014 15/14 Q1024=
SA	16/08/2025 05:00->	
METAR SBFL 160500Z 15002KT 9999 FEW008 BKN014 OVC025 14/14 Q1025=
SA	16/08/2025 04:00->	
METAR SBFL 160400Z 11003KT 8000 -RA BKN014 BKN020 OVC030 14/13 Q1026=
SA	16/08/2025 03:00->	
METAR SBFL 160300Z 08005KT 9999 BKN014 OVC030 15/13 Q1026=
SA	16/08/2025 02:00->	
METAR SBFL 160200Z 11004KT 9999 OVC014 15/13 Q1026=
SA	16/08/2025 01:00->	
METAR SBFL 160100Z 10005KT 9999 OVC013 15/13 Q1026=
SA	16/08/2025 00:00->	
METAR SBFL 160000Z 12005KT 9999 FEW012 BKN018 OVC035 15/13 Q1026=
SA	15/08/2025 23:00->	
METAR SBFL 152300Z 13004KT 9999 BKN020 BKN070 15/13 Q1027=
SA	15/08/2025 22:00->	
METAR SBFL 152200Z 12004KT 9999 FEW020 SCT040 BKN070 15/13 Q1026=
SA	15/08/2025 21:00->	
METAR SBFL 152100Z 13007KT 9999 FEW013 SCT040 BKN070 15/12 Q1026=
SA	15/08/2025 20:00->	
METAR SBFL 152000Z 12009KT 9999 FEW010 BKN060 16/12 Q1026=
SA	15/08/2025 19:00->	
METAR SBFL 151900Z 12009KT 9999 BKN040 17/11 Q1026=
SA	15/08/2025 18:00->	
METAR SBFL 151800Z 12009KT 9999 OVC040 17/11 Q1026=
SA	15/08/2025 17:00->	
METAR SBFL 151700Z 11008KT 9999 SCT033 BKN046 18/11 Q1027=
SA	15/08/2025 16:00->	
METAR SBFL 151600Z 13006KT 100V160 9999 SCT033 BKN046 18/11 Q1027=
SA	15/08/2025 15:00->	
METAR SBFL 151500Z 14006KT 100V180 9999 FEW033 SCT056 BKN066 19/11 Q1028=
SA	15/08/2025 14:00->	
METAR SBFL 151400Z 15007KT 120V180 9999 FEW033 SCT066 19/10 Q1028=
SA	15/08/2025 13:00->	
METAR SBFL 151300Z 19009KT 9999 FEW033 17/12 Q1029=
SA	15/08/2025 12:00->	
METAR SBFL 151200Z 19010KT 9999 FEW026 16/11 Q1028=
SA	15/08/2025 11:00->	
METAR SBFL 151100Z VRB01KT 9999 SCT026 15/11 Q1028=
SA	15/08/2025 10:00->	
METAR SBFL 151000Z 17005KT 9999 FEW013 14/10 Q1027=
SA	15/08/2025 09:00->	
METAR SBFL 150900Z 18003KT CAVOK 14/10 Q1027=
SA	15/08/2025 08:00->	
METAR SBFL 150800Z 19005KT CAVOK 14/10 Q1027=
SA	15/08/2025 07:00->	
METAR SBFL 150700Z 18003KT CAVOK 15/10 Q1027=
SA	15/08/2025 06:00->	
METAR SBFL 150600Z 15003KT CAVOK 15/10 Q1027=
SA	15/08/2025 05:00->	
METAR SBFL 150500Z 18002KT 9999 FEW025 BKN070 15/10 Q1028=
SA	15/08/2025 04:00->	
METAR SBFL 150400Z 19006KT 9999 FEW025 BKN060 15/11 Q1028=
SA	15/08/2025 03:00->	
METAR SBFL 150300Z 20009KT 9999 FEW023 BKN060 15/11 Q1028=
SA	15/08/2025 02:00->	
METAR SBFL 150200Z 19007KT 9999 FEW023 BKN050 15/11 Q1028=
SA	15/08/2025 01:00->	
METAR SBFL 150100Z 19008KT 9999 FEW023 BKN050 16/11 Q1028=
SA	15/08/2025 00:00->	
METAR SBFL 150000Z 15008KT CAVOK 16/10 Q1028=
SA	14/08/2025 23:57->	
METAR SBFL 150000Z 15008KT CAVOK 16/10 Q1028=
SA	14/08/2025 23:00->	
METAR SBFL 142300Z 14009KT CAVOK 16/11 Q1027=
SA	14/08/2025 22:00->	
METAR SBFL 142200Z 15009KT 9999 FEW014 OVC050 16/11 Q1027=
SA	14/08/2025 21:00->	
METAR SBFL 142100Z 18004KT 100V270 CAVOK 16/11 Q1026=
SA	14/08/2025 20:00->	
METAR SBFL 142000Z 16007KT 130V210 9999 BKN046 17/11 Q1025=
SA	14/08/2025 19:00->	
METAR SBFL 141900Z 14011KT 9999 FEW040 BKN066 17/11 Q1025=
SA	14/08/2025 18:00->	
METAR SBFL 141800Z 15011KT 120V180 9999 FEW040 SCT066 19/11 Q1024=
SA	14/08/2025 17:00->	
METAR SBFL 141700Z 15011KT 9999 FEW040 SCT066 19/11 Q1024=
SA	14/08/2025 16:00->	
METAR SBFL 141600Z 14012KT 9999 FEW040 20/10 Q1025=
SA	14/08/2025 15:00->	
METAR SBFL 141500Z 14012KT 110V180 9999 FEW035 20/11 Q1025=
SA	14/08/2025 14:00->	
METAR SBFL 141400Z 15010KT 9999 FEW035 19/11 Q1025=
SA	14/08/2025 13:00->	
METAR SBFL 141300Z 19011KT CAVOK 19/11 Q1025=
SA	14/08/2025 12:00->	
METAR SBFL 141200Z 18009KT CAVOK 17/11 Q1025=
SA	14/08/2025 11:00->	
METAR SBFL 141100Z 15004KT 080V230 CAVOK 16/11 Q1024=
SA	14/08/2025 10:00->	
METAR SBFL 141000Z 18006KT 130V210 CAVOK 15/11 Q1023=
SA	14/08/2025 09:00->	
METAR SBFL 140900Z 19005KT 140V230 9999 FEW020 BKN060 16/11 Q1023=
SA	14/08/2025 08:00->	
METAR SBFL 140800Z 12003KT 9999 FEW020 SCT060 16/11 Q1022=
SA	14/08/2025 07:00->	
METAR SBFL 140700Z 19009KT 160V230 9999 SCT045 16/11 Q1022=
SA	14/08/2025 06:00->	
METAR SBFL 140600Z 17007KT CAVOK 16/11 Q1022=
SA	14/08/2025 05:00->	
METAR SBFL 140500Z 18007KT CAVOK 16/10 Q1021=
SA	14/08/2025 04:00->	
METAR SBFL 140400Z 17006KT CAVOK 17/09 Q1022=
SA	14/08/2025 03:00->	
METAR SBFL 140300Z 16003KT CAVOK 17/09 Q1021=
SA	14/08/2025 02:00->	
METAR SBFL 140200Z 16004KT 120V200 CAVOK 17/09 Q1021=
SA	14/08/2025 01:00->	
METAR SBFL 140100Z 16006KT CAVOK 18/09 Q1021=
SA	14/08/2025 00:00->	
METAR SBFL 140000Z 17010KT 140V200 CAVOK 18/08 Q1020=
SA	13/08/2025 23:58->	
METAR SBFL 140000Z 17010KT 140V200 CAVOK 18/08 Q1020=
SA	13/08/2025 23:00->	
METAR SBFL 132300Z 12007KT CAVOK 18/08 Q1020=
SA	13/08/2025 22:00->	
METAR SBFL 132200Z 15008KT CAVOK 18/09 Q1019=
SA	13/08/2025 21:00->	
METAR SBFL 132100Z 13007KT CAVOK 18/10 Q1018=
SA	13/08/2025 20:00->	
METAR SBFL 132000Z 11008KT CAVOK 20/11 Q1017=
SA	13/08/2025 19:00->	
METAR SBFL 131900Z 12008KT CAVOK 21/11 Q1017=
SA	13/08/2025 18:00->	
METAR SBFL 131800Z 10007KT CAVOK 22/12 Q1016=
SA	13/08/2025 17:00->	
METAR SBFL 131700Z 10006KT CAVOK 22/12 Q1017=
SA	13/08/2025 16:00->	
METAR SBFL 131600Z 28004KT 240V340 CAVOK 22/11 Q1017=
SA	13/08/2025 15:00->	
METAR SBFL 131500Z VRB03KT CAVOK 21/12 Q1018=
SA	13/08/2025 14:00->	
METAR SBFL 131400Z 32004KT 280V020 CAVOK 19/13 Q1018=
SA	13/08/2025 13:00->	
METAR SBFL 131300Z 31006KT CAVOK 17/12 Q1019=
SA	13/08/2025 12:00->	
METAR SBFL 131200Z 32007KT 290V360 CAVOK 16/13 Q1018=
SA	13/08/2025 11:00->	
METAR SBFL 131100Z 31004KT CAVOK 14/12 Q1018=
SA	13/08/2025 10:00->	
METAR SBFL 131000Z 33006KT CAVOK 13/11 Q1017=
SA	13/08/2025 09:00->	
METAR SBFL 130900Z 32007KT CAVOK 13/12 Q1017=
SA	13/08/2025 08:00->	
METAR SBFL 130800Z 32007KT CAVOK 13/12 Q1017=
SA	13/08/2025 07:00->	
METAR SBFL 130700Z 31010KT CAVOK 14/12 Q1017=
SA	13/08/2025 06:00->	
METAR SBFL 130600Z 32009KT CAVOK 14/12 Q1017=
SA	13/08/2025 05:00->	
METAR SBFL 130500Z 34012KT CAVOK 14/12 Q1018=
SA	13/08/2025 04:00->	
METAR SBFL 130400Z 32011KT CAVOK 15/12 Q1019=
SA	13/08/2025 03:00->	
METAR SBFL 130300Z 33011KT CAVOK 15/12 Q1018=
SA	13/08/2025 02:00->	
METAR SBFL 130200Z 34008KT CAVOK 15/13 Q1018=
SA	13/08/2025 01:00->	
METAR SBFL 130100Z 33010KT CAVOK 15/12 Q1019=
SA	13/08/2025 00:00->	
METAR SBFL 130000Z 34008KT CAVOK 16/13 Q1019=
SA	12/08/2025 23:57->	
METAR SBFL 130000Z 34008KT CAVOK 16/13 Q1019=
SA	12/08/2025 23:00->	
METAR SBFL 122300Z 35007KT CAVOK 16/12 Q1018=
SA	12/08/2025 22:00->	
METAR SBFL 122200Z 01010KT CAVOK 17/11 Q1018=
SA	12/08/2025 21:00->	
METAR SBFL 122100Z 36010KT CAVOK 17/11 Q1017=
SP	12/08/2025 20:00->	
SPECI SBFL 122000Z 01007KT CAVOK 19/12 Q1017=
SA	12/08/2025 20:00->	
METAR SBFL 122000Z 01007KT CAVOK 19/12 Q1017=
SA	12/08/2025 19:00->	
METAR SBFL 121900Z 36009KT CAVOK 21/11 Q1017=
SA	12/08/2025 18:00->	
METAR SBFL 121800Z 36009KT 9999 FEW030 21/12 Q1018=
SA	12/08/2025 17:00->	
METAR SBFL 121700Z 35010KT 9999 FEW030 21/11 Q1018=
SA	12/08/2025 16:00->	
METAR SBFL 121600Z 34010KT 9999 FEW030 20/10 Q1019=
SA	12/08/2025 15:00->	
METAR SBFL 121500Z 34006KT CAVOK 19/10 Q1021=
SA	12/08/2025 14:00->	
METAR SBFL 121400Z 17006KT CAVOK 18/10 Q1021=
SA	12/08/2025 13:00->	
METAR SBFL 121300Z 31006KT CAVOK 16/10 Q1022=
SA	12/08/2025 12:00->	
METAR SBFL 121200Z 29007KT CAVOK 15/11 Q1022=
SA	12/08/2025 11:00->	
METAR SBFL 121100Z 28006KT 9999 FEW020 13/12 Q1021=
SA	12/08/2025 10:00->	
METAR SBFL 121000Z 28002KT 9999 FEW025 11/10 Q1021=
SA	12/08/2025 09:00->	
METAR SBFL 120900Z VRB02KT 9999 SCT033 10/10 Q1020=
SA	12/08/2025 08:00->	
METAR SBFL 120800Z 18002KT CAVOK 11/10 Q1020=
SA	12/08/2025 07:00->	
METAR SBFL 120700Z 23002KT CAVOK 12/11 Q1020=
SA	12/08/2025 06:00->	
METAR SBFL 120600Z VRB02KT 9999 BKN036 13/11 Q1021=
SA	12/08/2025 05:00->	
METAR SBFL 120500Z 04002KT CAVOK 13/11 Q1021=
SA	12/08/2025 04:00->	
METAR SBFL 120400Z VRB01KT CAVOK 13/11 Q1022=
SA	12/08/2025 03:00->	
METAR SBFL 120300Z 15004KT 120V210 CAVOK 13/10 Q1022=
SA	12/08/2025 02:00->	
METAR SBFL 120200Z 13005KT CAVOK 14/10 Q1022=
SA	12/08/2025 01:00->	
METAR SBFL 120100Z 21002KT CAVOK 14/11 Q1023=
SA	12/08/2025 00:00->	
METAR SBFL 120000Z 12003KT CAVOK 15/10 Q1022=
SA	11/08/2025 23:59->	
METAR SBFL 120000Z 12003KT CAVOK 15/10 Q1022=
SA	11/08/2025 23:00->	
METAR SBFL 112300Z 33002KT 9999 FEW030 BKN060 15/11 Q1022=
SA	11/08/2025 22:00->	
METAR SBFL 112200Z 12009KT 9999 SCT030 SCT060 14/11 Q1022=
SA	11/08/2025 21:00->	
METAR SBFL 112100Z 12007KT 9999 SCT030 14/10 Q1022=
SA	11/08/2025 20:00->	
METAR SBFL 112000Z 14007KT 110V170 9999 FEW030 16/11 Q1021=
SA	11/08/2025 19:00->	
METAR SBFL 111900Z 13011KT 9999 FEW030 17/10 Q1021=
SA	11/08/2025 18:00->	
METAR SBFL 111800Z 11010KT 090V150 9999 FEW030 19/11 Q1021=
SA	11/08/2025 17:00->	
METAR SBFL 111700Z 10010KT 9999 FEW020 19/10 Q1021=
SA	11/08/2025 16:00->	
METAR SBFL 111600Z 01003KT 9999 FEW020 19/08 Q1022=
SA	11/08/2025 15:00->	
METAR SBFL 111500Z VRB04KT 9999 FEW020 18/09 Q1023=
SA	11/08/2025 14:00->	
METAR SBFL 111400Z 28003KT 210V360 CAVOK 17/08 Q1024=
SA	11/08/2025 13:00->	
METAR SBFL 111300Z 29004KT CAVOK 15/09 Q1024=
SA	11/08/2025 12:00->	
METAR SBFL 111200Z 31004KT 240V340 CAVOK 14/10 Q1024=
SA	11/08/2025 11:00->	
METAR SBFL 111100Z 29005KT 250V320 CAVOK 11/10 Q1023=
SA	11/08/2025 10:00->	
METAR SBFL 111000Z 24005KT 220V280 CAVOK 09/08 Q1022=
SA	11/08/2025 09:00->	
METAR SBFL 110900Z 26003KT 240V300 CAVOK 09/08 Q1022=
SA	11/08/2025 08:00->	
METAR SBFL 110800Z 26004KT CAVOK 10/09 Q1021=
SA	11/08/2025 07:00->	
METAR SBFL 110700Z 20002KT CAVOK 11/09 Q1021=
SA	11/08/2025 06:00->	
METAR SBFL 110600Z 23004KT CAVOK 12/08 Q1022=
SA	11/08/2025 05:00->	
METAR SBFL 110500Z 20008KT CAVOK 13/08 Q1022=
SA	11/08/2025 04:00->	
METAR SBFL 110400Z 18006KT 140V210 CAVOK 14/08 Q1023=
SA	11/08/2025 03:00->	
METAR SBFL 110300Z 16007KT 100V200 CAVOK 14/06 Q1023=
SA	11/08/2025 02:00->	
METAR SBFL 110200Z 13008KT CAVOK 14/06 Q1023=
SA	11/08/2025 01:00->	
METAR SBFL 110100Z 12007KT 090V150 CAVOK 14/06 Q1024=
SA	11/08/2025 00:00->	
METAR SBFL 110000Z 13005KT 060V210 9999 FEW049 14/07 Q1024=
SA	10/08/2025 23:54->	
METAR SBFL 110000Z 13005KT 060V210 9999 FEW049 14/07 Q1024=
SA	10/08/2025 23:00->	
METAR SBFL 102300Z 13003G13KT CAVOK 14/08 Q1023=
SA	10/08/2025 22:00->	
METAR SBFL 102200Z 18009KT 9999 SCT046 16/08 Q1023=
SA	10/08/2025 21:00->	
METAR SBFL 102100Z 18007KT 160V230 9999 FEW046 16/10 Q1022=
SA	10/08/2025 20:00->	
METAR SBFL 102000Z 13006KT 090V170 9999 FEW049 17/11 Q1022=
SA	10/08/2025 19:00->	
METAR SBFL 101900Z 13012KT 9999 FEW049 18/11 Q1021=
SA	10/08/2025 18:00->	
METAR SBFL 101800Z 13011KT 9999 SCT049 18/11 Q1021=
SA	10/08/2025 17:00->	
METAR SBFL 101700Z 14011KT 9999 SCT049 20/10 Q1021=
SA	10/08/2025 16:00->	
METAR SBFL 101600Z 14006KT 090V230 9999 FEW046 19/09 Q1022=
SA	10/08/2025 15:00->	
METAR SBFL 101500Z 20010KT 9999 FEW040 19/09 Q1023=
SA	10/08/2025 14:00->	
METAR SBFL 101400Z VRB05KT 9999 FEW033 18/08 Q1023=
SA	10/08/2025 13:00->	
METAR SBFL 101300Z 18010KT 150V210 9999 FEW033 17/09 Q1023=
SA	10/08/2025 12:00->	
METAR SBFL 101200Z 19005KT 140V240 9999 FEW033 16/08 Q1022=
SA	10/08/2025 11:00->	
METAR SBFL 101100Z VRB02KT 9999 FEW025 15/07 Q1022=
SA	10/08/2025 10:00->	
METAR SBFL 101000Z 19007KT CAVOK 13/07 Q1021=
SA	10/08/2025 09:00->	
METAR SBFL 100900Z 03002KT CAVOK 11/07 Q1020=
SA	10/08/2025 08:00->	
METAR SBFL 100800Z 21005KT CAVOK 12/07 Q1020=
SA	10/08/2025 07:00->	
METAR SBFL 100700Z 19004KT CAVOK 13/07 Q1020=
SA	10/08/2025 06:00->	
METAR SBFL 100600Z 17003KT 9999 FEW040 14/07 Q1020=
SA	10/08/2025 05:00->	
METAR SBFL 100500Z 18004KT CAVOK 14/07 Q1020=
SA	10/08/2025 04:00->	
METAR SBFL 100400Z 22004KT CAVOK 14/08 Q1021=
SA	10/08/2025 03:00->	
METAR SBFL 100300Z 20011KT CAVOK 14/07 Q1021=
SA	10/08/2025 02:00->	
METAR SBFL 100200Z 20004KT CAVOK 14/07 Q1020=
SA	10/08/2025 01:00->	
METAR SBFL 100100Z 22006KT CAVOK 14/08 Q1020=
SA	10/08/2025 00:00->	
METAR SBFL 100000Z 20008KT CAVOK 14/08 Q1020=
SA	09/08/2025 23:57->	
METAR SBFL 100000Z 20008KT CAVOK 14/08 Q1020=
SA	09/08/2025 23:00->	
METAR SBFL 092300Z 21005KT CAVOK 14/09 Q1019=
SA	09/08/2025 22:00->	
METAR SBFL 092200Z 20005KT CAVOK 14/09 Q1019=
SA	09/08/2025 21:00->	
METAR SBFL 092100Z 19005KT 160V220 CAVOK 15/10 Q1018=
SA	09/08/2025 20:00->	
METAR SBFL 092000Z VRB01KT 9999 FEW020 BKN066 17/10 Q1018=
SA	09/08/2025 19:00->	
METAR SBFL 091900Z 29003KT 250V360 9999 FEW020 BKN066 16/10 Q1017=
SA	09/08/2025 18:00->	
METAR SBFL 091800Z VRB02KT 9999 FEW020 OVC050 15/11 Q1017 RERA=
SA	09/08/2025 17:00->	
METAR SBFL 091700Z 27005KT 9999 -RA NSC 15/11 Q1017=
SA	09/08/2025 16:00->	
METAR SBFL 091600Z 30004KT 240V320 9999 -RA BKN045 BKN075 15/10 Q1018=
SA	09/08/2025 15:00->	
METAR SBFL 091500Z 26004KT 240V300 9999 -RA BKN045 BKN070 15/10 Q1018=
SA	09/08/2025 14:00->	
METAR SBFL 091400Z 30005KT 270V330 9999 BKN048 BKN090 15/07 Q1018=
SA	09/08/2025 13:00->	
METAR SBFL 091300Z VRB02KT 9999 SCT045 BKN085 14/06 Q1018=
SA	09/08/2025 12:00->	
METAR SBFL 091200Z 30004KT 270V330 9999 FEW040 BKN080 13/11 Q1018=
SA	09/08/2025 11:00->	
METAR SBFL 091100Z 32003KT 9999 FEW040 12/09 Q1017=
SA	09/08/2025 10:00->	
METAR SBFL 091000Z 30006KT 9999 FEW040 09/08 Q1016=
SA	09/08/2025 09:00->	
METAR SBFL 090900Z 00000KT CAVOK 08/08 Q1016=
SA	09/08/2025 08:00->	
METAR SBFL 090800Z 09003KT CAVOK 07/07 Q1015=
SA	09/08/2025 07:00->	
METAR SBFL 090700Z 33001KT CAVOK 09/09 Q1016=
SA	09/08/2025 06:00->	
METAR SBFL 090600Z 28002KT 9999 FEW030 10/09 Q1016=
SA	09/08/2025 05:00->	
METAR SBFL 090500Z 23005KT 9999 FEW030 11/09 Q1017=
SA	09/08/2025 04:00->	
METAR SBFL 090400Z 21006KT 9999 FEW025 12/09 Q1017=
SA	09/08/2025 03:00->	
METAR SBFL 090300Z 00000KT 9999 FEW030 BKN090 12/10 Q1017=
SA	09/08/2025 02:00->	
METAR SBFL 090200Z VRB02KT 9999 FEW030 BKN090 13/10 Q1017=
SA	09/08/2025 01:00->	
METAR SBFL 090100Z 17002KT 9999 FEW030 BKN080 13/10 Q1016=
SA	09/08/2025 00:00->	
METAR SBFL 090000Z 19004KT 9999 FEW030 13/11 Q1016=
SA	08/08/2025 23:57->	
METAR SBFL 090000Z 19004KT 9999 FEW030 13/11 Q1016=
SA	08/08/2025 23:00->	
METAR SBFL 082300Z 16006KT 130V200 9999 SCT030 SCT100 14/11 Q1016=
SA	08/08/2025 22:00->	
METAR SBFL 082200Z 16008KT 9999 FEW008 SCT025 BKN087 14/11 Q1016=
SA	08/08/2025 21:00->	
METAR SBFL 082100Z 17007KT 130V200 9999 VCSH FEW010 BKN030 BKN086 14/11 Q1015=
SA	08/08/2025 20:00->	
METAR SBFL 082000Z 17008KT 150V220 9999 -RA FEW011 BKN028 OVC090 14/12 Q1015=
SA	08/08/2025 19:00->	
METAR SBFL 081900Z 17012KT 9999 -RA FEW011 BKN028 OVC080 14/12 Q1014=
SP	08/08/2025 19:00->	
SPECI SBFL 081900Z 17012KT 9999 -RA FEW011 BKN028 OVC080 14/12 Q1014=
SA	08/08/2025 18:00->	
METAR SBFL 081800Z 17010KT 140V210 4500 -RA BR FEW010 BKN030 OVC070 14/12 Q1014=
SA	08/08/2025 17:00->	
METAR SBFL 081700Z 18013KT 4500 -RA SCT010 BKN045 BKN100 14/12 Q1014=
SA	08/08/2025 16:07->	
METAR SBFL 081607Z 18010KT 4500 -RA SCT013 BKN040 BKN100 14/12 Q1015=
SP	08/08/2025 16:07->	
SPECI SBFL 081607Z 18010KT 4500 -RA SCT013 BKN040 BKN100 14/12 Q1015=
SA	08/08/2025 16:00->	
METAR SBFL 081600Z 19012KT 5000 -RA SCT013 BKN040 BKN100 14/12 Q1015=
SA	08/08/2025 15:00->	
METAR SBFL 081500Z 17009KT 9999 FEW012 BKN035 BKN100 15/12 Q1016=
SA	08/08/2025 14:00->	
METAR SBFL 081400Z 18013KT 7000 -RA FEW012 BKN035 BKN100 14/12 Q1017=
SA	08/08/2025 13:00->	
METAR SBFL 081300Z 19010KT 8000 -RA FEW012 BKN033 BKN100 15/12 Q1017=
SA	08/08/2025 12:00->	
METAR SBFL 081200Z 18011KT 7000 -RA FEW010 BKN030 BKN100 15/12 Q1016=
SA	08/08/2025 11:00->	
METAR SBFL 081100Z 15008KT 090V210 9999 FEW010 BKN030 BKN100 15/12 Q1016=
SA	08/08/2025 10:00->	
METAR SBFL 081000Z 17004KT 9999 BKN023 BKN100 16/12 Q1016=
SA	08/08/2025 09:00->	
METAR SBFL 080900Z 14004KT 110V190 9999 BKN030 BKN100 15/13 Q1015=
SA	08/08/2025 08:00->	
METAR SBFL 080800Z 12008KT 9999 FEW012 SCT023 BKN070 15/13 Q1014=
SA	08/08/2025 07:00->	
METAR SBFL 080700Z 13009KT 9999 -SHRA SCT010 SCT030 BKN080 15/14 Q1015=
SA	08/08/2025 06:00->	
METAR SBFL 080600Z 21007KT 9999 VCSH SCT020 OVC040 17/14 Q1016=
SA	08/08/2025 05:00->	
METAR SBFL 080500Z 12006KT 080V210 9999 FEW008 SCT040 BKN090 18/14 Q1016=
SA	08/08/2025 04:00->	
METAR SBFL 080400Z 14007G18KT 100V170 9999 FEW008 BKN090 17/14 Q1016=
SA	08/08/2025 03:00->	
METAR SBFL 080300Z 14007KT 9999 FEW008 BKN100 18/14 Q1016=
SA	08/08/2025 02:00->	
METAR SBFL 080200Z 10004KT 9999 FEW010 BKN100 16/15 Q1016=
SA	08/08/2025 01:00->	
METAR SBFL 080100Z 20002KT CAVOK 16/15 Q1016=
SA	08/08/2025 00:00->	
METAR SBFL 080000Z 20004KT CAVOK 16/15 Q1016=
SA	07/08/2025 23:58->	
METAR SBFL 080000Z 20004KT CAVOK 16/15 Q1016=
SA	07/08/2025 23:00->	
METAR SBFL 072300Z 24002KT CAVOK 17/15 Q1015=
SA	07/08/2025 22:00->	
METAR SBFL 072200Z 33005KT CAVOK 19/15 Q1015=
SA	07/08/2025 21:00->	
METAR SBFL 072100Z 33008KT CAVOK 19/15 Q1015=
SA	07/08/2025 20:00->	
METAR SBFL 072000Z 35007KT CAVOK 20/15 Q1015=
SA	07/08/2025 19:00->	
METAR SBFL 071900Z 34011KT 9999 FEW030 SCT100 22/15 Q1015=
SA	07/08/2025 18:00->	
METAR SBFL 071800Z 34010KT 9999 FEW020 SCT100 22/15 Q1015=
SA	07/08/2025 17:00->	
METAR SBFL 071700Z 34010KT 9999 FEW020 22/14 Q1016=
SA	07/08/2025 16:00->	
METAR SBFL 071600Z 35010KT 9999 FEW020 21/14 Q1017=
SA	07/08/2025 15:00->	
METAR SBFL 071500Z 35008KT 9999 FEW020 20/14 Q1018=
SA	07/08/2025 14:00->	
METAR SBFL 071400Z 35009KT CAVOK 19/14 Q1019=
SA	07/08/2025 13:00->	
METAR SBFL 071300Z 34009KT 9999 FEW033 18/14 Q1019=
SA	07/08/2025 12:00->	
METAR SBFL 071200Z 33008KT 9999 SCT033 17/15 Q1020=
SA	07/08/2025 11:00->	
METAR SBFL 071100Z 33008KT 9999 FEW025 17/14 Q1019=
SA	07/08/2025 10:00->	
METAR SBFL 071000Z 34004KT 9999 FEW025 15/14 Q1019=
SA	07/08/2025 09:00->	
METAR SBFL 070900Z 30007KT 9999 FEW025 16/14 Q1019=
SA	07/08/2025 08:00->	
METAR SBFL 070800Z 36005KT CAVOK 16/14 Q1018=
SA	07/08/2025 07:00->	
METAR SBFL 070700Z 34005KT 9999 VCSH FEW038 BKN100 15/14 Q1020=
SA	07/08/2025 06:00->	
METAR SBFL 070600Z 32005KT 9999 VCSH SCT038 15/14 Q1020=
SA	07/08/2025 05:00->	
METAR SBFL 070500Z 30003KT 9999 FEW040 15/14 Q1021=
SA	07/08/2025 04:00->	
METAR SBFL 070400Z 02004KT 9999 SCT040 15/13 Q1021=
SA	07/08/2025 03:00->	
METAR SBFL 070300Z 36004KT 9999 SCT038 15/13 Q1022=
SA	07/08/2025 02:00->	
METAR SBFL 070200Z 33005KT 310V020 9999 FEW030 BKN037 16/13 Q1023=
SA	07/08/2025 01:00->	
METAR SBFL 070100Z 29005KT 9999 FEW032 OVC040 17/14 Q1023=
SA	07/08/2025 00:00->	
METAR SBFL 070000Z 30004KT 9999 FEW049 OVC057 16/14 Q1023=
SA	06/08/2025 23:59->	
METAR SBFL 070000Z 30004KT 9999 FEW049 OVC057 16/14 Q1023=
SA	06/08/2025 23:00->	
METAR SBFL 062300Z 29004KT CAVOK 17/14 Q1023=
SA	06/08/2025 22:00->	
METAR SBFL 062200Z 35004KT 220V020 CAVOK 18/13 Q1023=
SA	06/08/2025 21:00->	
METAR SBFL 062100Z 34004KT 300V010 9999 OVC040 18/13 Q1023=
SA	06/08/2025 20:00->	
METAR SBFL 062000Z 35003KT 9999 OVC040 19/13 Q1023=
SA	06/08/2025 19:00->	
METAR SBFL 061900Z 33004KT 300V010 9999 OVC040 19/12 Q1023=
SA	06/08/2025 18:00->	
METAR SBFL 061800Z 02005KT 340V060 9999 FEW036 OVC045 19/12 Q1023=
SA	06/08/2025 17:00->	
METAR SBFL 061700Z 05004KT 9999 FEW030 BKN045 20/11 Q1024=
SA	06/08/2025 16:00->	
METAR SBFL 061600Z 20003KT 9999 FEW030 BKN045 19/12 Q1025=
SA	06/08/2025 15:00->	
METAR SBFL 061500Z VRB05KT 9999 FEW030 BKN050 20/12 Q1026=
SA	06/08/2025 14:00->	
METAR SBFL 061400Z 27004KT 9999 FEW025 BKN050 18/12 Q1027=
SA	06/08/2025 13:00->	
METAR SBFL 061300Z 29004KT 9999 FEW020 BKN050 17/14 Q1027=
SA	06/08/2025 12:00->	
METAR SBFL 061200Z 29003KT 9999 FEW020 BKN060 17/13 Q1027=
SA	06/08/2025 11:00->	
METAR SBFL 061100Z 27004KT 9999 FEW015 BKN060 15/14 Q1027=
SA	06/08/2025 10:00->	
METAR SBFL 061000Z 27004KT 9999 FEW015 BKN050 15/13 Q1026=
SA	06/08/2025 09:00->	
METAR SBFL 060900Z 23003KT 200V270 9999 OVC048 15/13 Q1026=
SA	06/08/2025 08:00->	
METAR SBFL 060800Z 20005KT 9999 SCT033 OVC046 14/13 Q1026=
SP	06/08/2025 08:00->	
SPECI SBFL 060800Z 20005KT 9999 SCT033 OVC046 14/13 Q1026=
SA	06/08/2025 07:00->	
METAR SBFL 060700Z 20007KT 9999 FEW020 OVC043 15/13 Q1026=
SA	06/08/2025 06:00->	
METAR SBFL 060600Z 19005KT 9999 FEW020 OVC043 15/13 Q1027=
SA	06/08/2025 05:00->	
METAR SBFL 060500Z 20006KT 9999 FEW020 OVC043 15/13 Q1027=
SA	06/08/2025 04:00->	
METAR SBFL 060400Z 21007KT 9999 FEW020 OVC043 15/13 Q1028=
SA	06/08/2025 03:00->	
METAR SBFL 060300Z 20008KT 9999 FEW020 OVC043 15/13 Q1028=
SA	06/08/2025 02:00->	
METAR SBFL 060200Z 20007KT 9999 FEW020 OVC043 15/13 Q1028=
SA	06/08/2025 01:00->	
METAR SBFL 060100Z 19007KT 9999 FEW020 OVC043 16/13 Q1028=
SA	06/08/2025 00:00->	
METAR SBFL 060000Z 19005KT 9999 OVC043 16/13 Q1028=
SA	05/08/2025 23:59->	
METAR SBFL 060000Z 19005KT 9999 OVC043 16/13 Q1028=
SA	05/08/2025 23:00->	
METAR SBFL 052300Z 19006KT 9999 OVC043 16/13 Q1028=
SA	05/08/2025 22:00->	
METAR SBFL 052200Z 19007KT 9999 FEW030 OVC080 16/12 Q1028=
SA	05/08/2025 21:00->	
METAR SBFL 052100Z 17007KT 9999 SCT030 OVC080 17/12 Q1027=
SA	05/08/2025 20:00->	
METAR SBFL 052000Z 16006KT 9999 FEW020 BKN080 17/12 Q1026=
SA	05/08/2025 19:00->	
METAR SBFL 051900Z 18006KT 9999 FEW020 SCT060 BKN100 18/12 Q1026=
SA	05/08/2025 18:00->	
METAR SBFL 051800Z 15007KT 9999 FEW020 SCT050 BKN100 18/12 Q1026=
SA	05/08/2025 17:00->	
METAR SBFL 051700Z 19008KT 9999 FEW008 SCT028 BKN060 17/13 Q1026=
SA	05/08/2025 16:00->	
METAR SBFL 051600Z 18007KT 9000 VCSH FEW008 SCT028 OVC060 16/13 Q1027=
SA	05/08/2025 15:00->	
METAR SBFL 051500Z 19006KT 170V230 4000 -RA BR BKN008 BKN035 OVC051 14/13 Q1028=
SA	05/08/2025 14:00->	
METAR SBFL 051400Z 19011KT 3000 -RA BR BKN007 BKN019 OVC050 14/13 Q1029=
SA	05/08/2025 13:00->	
METAR SBFL 051300Z 19011KT 9999 4000W -RA BKN012 BKN025 OVC063 14/13 Q1029=
SA	05/08/2025 12:00->	
METAR SBFL 051200Z 19014KT 9999 VCSH FEW012 SCT035 OVC068 15/13 Q1028=
SA	05/08/2025 11:00->	
METAR SBFL 051100Z 19012KT 9999 VCSH FEW012 SCT050 OVC070 15/13 Q1027=
SA	05/08/2025 10:00->	
METAR SBFL 051000Z 20011KT 9999 SCT010 BKN025 OVC070 15/14 Q1026=
SA	05/08/2025 09:00->	
METAR SBFL 050900Z 17008KT 9999 -RA SCT006 BKN025 OVC070 15/13 Q1026=
SA	05/08/2025 08:00->	
METAR SBFL 050800Z 19008KT 9999 SCT006 BKN070 15/14 Q1025=
SA	05/08/2025 07:00->	
METAR SBFL 050700Z 19010KT 8000 BKN006 BKN013 BKN070 15/14 Q1025=
SA	05/08/2025 06:00->	
METAR SBFL 050600Z 19011KT 9999 FEW006 BKN013 BKN070 15/14 Q1025=
SA	05/08/2025 05:00->	
METAR SBFL 050500Z 19012KT 9999 FEW007 BKN030 BKN070 15/14 Q1025=
SA	05/08/2025 04:00->	
METAR SBFL 050400Z 19011KT 9999 FEW007 BKN030 BKN070 16/15 Q1025=
SP	05/08/2025 03:13->	
SPECI SBFL 050313Z 18011KT 6000 -RA FEW007 BKN014 16/15 Q1025=
SA	05/08/2025 03:00->	
METAR SBFL 050300Z 20010KT 9999 FEW007 SCT014 16/15 Q1025=
SA	05/08/2025 02:00->	
METAR SBFL 050200Z 19004KT 9999 FEW007 SCT014 16/15 Q1025=
SA	05/08/2025 01:00->	
METAR SBFL 050100Z 18008KT 9999 FEW005 BKN020 17/16 Q1025=
SA	05/08/2025 00:00->	
METAR SBFL 050000Z 19007KT 9999 FEW005 BKN012 17/16 Q1024=
SA	04/08/2025 23:53->	
METAR SBFL 050000Z 19007KT 9999 FEW005 BKN012 17/16 Q1024=
SP	04/08/2025 23:29->	
SPECI SBFL 042329Z 19005KT 9999 -RA FEW005 BKN011 OVC013 17/16 Q1024=
SP	04/08/2025 23:17->	
SPECI SBFL 042317Z 19005KT 160V250 9999 FEW005 SCT011 OVC021 17/16 Q1024=
SA	04/08/2025 23:00->	
METAR SBFL 042300Z 15006KT 9999 FEW012 SCT018 OVC022 17/16 Q1024=
SA	04/08/2025 22:00->	
METAR SBFL 042200Z 14008KT 9999 VCSH SCT013 OVC025 18/16 Q1023=
SA	04/08/2025 21:00->	
METAR SBFL 042100Z 14007KT 9999 OVC023 18/16 Q1023=
SA	04/08/2025 20:00->	
METAR SBFL 042000Z 19005KT 140V220 9000 VCSH FEW016 SCT023 OVC100 18/16 Q1022=
SA	04/08/2025 19:00->	
METAR SBFL 041900Z 14009KT 9999 VCSH FEW012 SCT035 OVC080 19/16 Q1021=
SA	04/08/2025 18:00->	
METAR SBFL 041800Z 14006KT 9000 -RA FEW014 SCT032 OVC061 18/17 Q1022=
SA	04/08/2025 17:00->	
METAR SBFL 041700Z 17007KT 140V230 8000 -RA SCT030 OVC067 19/16 Q1022=
SA	04/08/2025 16:00->	
METAR SBFL 041600Z 19005KT 140V220 9999 SCT036 19/16 Q1022=
SA	04/08/2025 15:00->	
METAR SBFL 041500Z 23006KT 9999 -RA NSC 18/17 Q1024=
SA	04/08/2025 14:00->	
METAR SBFL 041400Z 18005KT 140V220 CAVOK 18/17 Q1024=
SA	04/08/2025 13:00->	
METAR SBFL 041300Z 24004KT 9999 -RA NSC 18/16 Q1024=
SA	04/08/2025 12:00->	
METAR SBFL 041200Z 24007KT CAVOK 18/16 Q1023=
SA	04/08/2025 11:00->	
METAR SBFL 041100Z 22006KT CAVOK 19/15 Q1022=
SA	04/08/2025 10:00->	
METAR SBFL 041000Z 30003KT 210V350 9999 FEW040 BKN100 18/16 Q1021=
SA	04/08/2025 09:00->	
METAR SBFL 040900Z 15001KT 9999 FEW030 OVC100 17/15 Q1019=
SA	04/08/2025 08:00->	
METAR SBFL 040800Z 11005KT 9999 FEW030 OVC100 16/16 Q1018=
SA	04/08/2025 07:00->	
METAR SBFL 040700Z 35003KT 9999 FEW025 OVC100 18/17 Q1018=
SA	04/08/2025 06:00->	
METAR SBFL 040600Z 36003KT 9999 FEW025 OVC100 17/16 Q1018=
SA	04/08/2025 05:00->	
METAR SBFL 040500Z 29002KT 9999 FEW025 OVC100 17/16 Q1019=
SA	04/08/2025 04:00->	
METAR SBFL 040400Z 22003KT 190V270 9999 FEW025 OVC100 18/17 Q1018=
SA	04/08/2025 03:00->	
METAR SBFL 040300Z 25005KT 9999 FEW025 OVC090 18/16 Q1017=
SA	04/08/2025 02:00->	
METAR SBFL 040200Z 31003KT 9999 FEW020 OVC100 19/16 Q1018=
SA	04/08/2025 01:00->	
METAR SBFL 040100Z 35010KT 300V360 9999 FEW020 OVC100 20/16 Q1018=
SP	04/08/2025 00:37->	
SPECI SBFL 040037Z 36009KT CAVOK 20/16 Q1017=
SA	04/08/2025 00:00->	
METAR SBFL 040000Z 33016G26KT CAVOK 20/16 Q1017=
SA	03/08/2025 23:53->	
METAR SBFL 040000Z 33016G26KT CAVOK 20/16 Q1017=
SP	03/08/2025 23:46->	
SPECI SBFL 032346Z 34017G27KT CAVOK 20/16 Q1017=
SA	03/08/2025 23:00->	
METAR SBFL 032300Z 35017KT CAVOK 20/16 Q1017=
SA	03/08/2025 22:00->	
METAR SBFL 032200Z VRB05KT CAVOK 18/16 Q1019=
SA	03/08/2025 21:00->	
METAR SBFL 032100Z 07006KT CAVOK 18/16 Q1020=
SA	03/08/2025 20:00->	
METAR SBFL 032000Z 17004KT 080V240 CAVOK 20/16 Q1020=
SA	03/08/2025 19:00->	
METAR SBFL 031900Z 17013G23KT 9999 FEW030 BKN100 20/16 Q1020=
SA	03/08/2025 18:00->	
METAR SBFL 031800Z 17011KT 140V200 9999 SCT046 BKN100 22/16 Q1019=
SA	03/08/2025 17:00->	
METAR SBFL 031700Z 15017G27KT 9999 SCT026 BKN031 OVC100 22/17 Q1019=
SA	03/08/2025 16:00->	
METAR SBFL 031600Z 22004KT 9999 FEW012 BKN070 21/17 Q1018=
SA	03/08/2025 15:00->	
METAR SBFL 031500Z 33007KT 9999 SCT007 BKN015 20/17 Q1017=
SA	03/08/2025 14:00->	
METAR SBFL 031400Z 33008KT 9999 SCT007 BKN015 20/17 Q1018=
SA	03/08/2025 13:00->	
METAR SBFL 031300Z 33009KT 9999 BKN006 18/17 Q1017=
SA	03/08/2025 12:00->	
METAR SBFL 031200Z 33010KT 9999 BKN003 18/17 Q1017=
SA	03/08/2025 11:00->	
METAR SBFL 031100Z 32004KT 8000 BCFG SCT004 BKN008 18/17 Q1017=
SA	03/08/2025 10:00->	
METAR SBFL 031000Z 35008KT 8000 BCFG SCT004 BKN010 17/16 Q1016=
SP	03/08/2025 09:35->	
SPECI SBFL 030935Z 34003KT 8000 BCFG SCT004 BKN010 17/16 Q1016=
SA	03/08/2025 09:00->	
METAR SBFL 030900Z 35010KT 9000 BCFG SCT004 17/16 Q1015=
SA	03/08/2025 08:00->	
METAR SBFL 030800Z 32012KT 7000 BCFG SCT008 17/16 Q1015=
SA	03/08/2025 07:00->	
METAR SBFL 030700Z 34013KT CAVOK 17/16 Q1016=
SA	03/08/2025 06:00->	
METAR SBFL 030600Z 33010KT CAVOK 18/16 Q1016=
SA	03/08/2025 05:00->	
METAR SBFL 030500Z 33014KT CAVOK 18/16 Q1016=
SA	03/08/2025 04:00->	
METAR SBFL 030400Z 34014KT CAVOK 18/16 Q1016=
SA	03/08/2025 03:00->	
METAR SBFL 030300Z 35009KT CAVOK 18/16 Q1017=
SA	03/08/2025 02:00->	
METAR SBFL 030200Z 36008KT CAVOK 18/16 Q1017=
SA	03/08/2025 01:00->	
METAR SBFL 030100Z 35010KT CAVOK 18/16 Q1018=
SA	03/08/2025 00:00->	
METAR SBFL 030000Z 35013KT CAVOK 19/16 Q1018=
SA	02/08/2025 23:56->	
METAR SBFL 030000Z 35013KT CAVOK 19/16 Q1018=
SA	02/08/2025 23:00->	
METAR SBFL 022300Z 35013KT CAVOK 19/16 Q1018=
SA	02/08/2025 22:00->	
METAR SBFL 022200Z 35010KT CAVOK 19/16 Q1018=
SA	02/08/2025 21:00->	
METAR SBFL 022100Z 35013KT CAVOK 19/16 Q1018=
SA	02/08/2025 20:00->	
METAR SBFL 022000Z 34015KT CAVOK 20/16 Q1018=
SA	02/08/2025 19:00->	
METAR SBFL 021900Z 35016KT CAVOK 21/16 Q1017=
SA	02/08/2025 18:00->	
METAR COR SBFL 021800Z 36016KT CAVOK 22/16 Q1018=
SA	02/08/2025 17:00->	
METAR SBFL 021700Z 36012KT CAVOK 23/16 Q1019=
SA	02/08/2025 16:00->	
METAR SBFL 021600Z 35014KT CAVOK 22/16 Q1020=
SA	02/08/2025 15:00->	
METAR SBFL 021500Z 36015KT 9999 FEW030 21/16 Q1021=
SA	02/08/2025 14:00->	
METAR SBFL 021400Z 35014KT 9999 FEW030 21/16 Q1022=
SA	02/08/2025 13:00->	
METAR SBFL 021300Z 35012KT 9999 SCT025 19/15 Q1023=
SA	02/08/2025 12:00->	
METAR SBFL 021200Z 35012KT 9999 FEW015 BKN025 19/16 Q1022=
SA	02/08/2025 11:00->	
METAR SBFL 021100Z 35010KT 9999 FEW015 BKN030 19/16 Q1022=
SA	02/08/2025 10:00->	
METAR SBFL 021000Z 34013KT 9999 FEW015 BKN025 18/16 Q1021=
SP	02/08/2025 09:15->	
SPECI SBFL 020915Z 34013KT 9999 FEW011 BKN030 18/16 Q1021=
SA	02/08/2025 09:00->	
METAR SBFL 020900Z 34013KT 9999 BKN013 BKN030 18/16 Q1021=
SA	02/08/2025 08:00->	
METAR SBFL 020800Z 33011KT 9999 OVC011 18/16 Q1021=
SA	02/08/2025 07:00->	
METAR SBFL 020700Z 33010KT 9999 SCT013 OVC020 18/16 Q1022=
SA	02/08/2025 06:00->	
METAR SBFL 020600Z 34012KT 9999 OVC020 18/16 Q1022=
SA	02/08/2025 05:00->	
METAR SBFL 020500Z 34010KT 9999 OVC020 18/16 Q1022=
SA	02/08/2025 04:00->	
METAR SBFL 020400Z 33009KT 9999 BKN035 17/15 Q1023=
SA	02/08/2025 03:00->	
METAR SBFL 020300Z 33010KT 9999 BKN020 18/15 Q1023=
SA	02/08/2025 02:00->	
METAR SBFL 020200Z 34009KT 9999 SCT023 17/15 Q1023=
SA	02/08/2025 01:00->	
METAR SBFL 020100Z 34010KT 9999 BKN030 18/15 Q1023=
SA	02/08/2025 00:00->	
METAR SBFL 020000Z 34009KT 9999 BKN033 18/14 Q1023=
SA	01/08/2025 23:54->	
METAR SBFL 020000Z 34009KT 9999 BKN033 18/14 Q1023=
SA	01/08/2025 23:00->	
METAR SBFL 012300Z 36010KT 9999 SCT035 18/13 Q1023=
SA	01/08/2025 22:00->	
METAR SBFL 012200Z 36013KT 9999 BKN030 18/14 Q1023=
SA	01/08/2025 21:00->	
METAR SBFL 012100Z 35015KT 9999 BKN035 19/13 Q1022=
SA	01/08/2025 20:00->	
METAR SBFL 012000Z 36014G24KT 9999 BKN035 19/14 Q1022=
SA	01/08/2025 19:00->	
METAR SBFL 011900Z 35015G25KT 9999 BKN035 20/14 Q1022=
SA	01/08/2025 18:00->	
METAR SBFL 011800Z 35015G25KT 9999 BKN035 20/13 Q1022=
SA	01/08/2025 17:00->	
METAR SBFL 011700Z 35017G27KT 9999 BKN040 21/13 Q1022=
SA	01/08/2025 16:00->	
METAR SBFL 011600Z 35017G27KT 9999 SCT040 21/13 Q1023=
SA	01/08/2025 15:00->	
METAR SBFL 011500Z 34016KT 9999 BKN040 21/13 Q1025=
SA	01/08/2025 14:00->	
METAR SBFL 011400Z 33014KT 9999 BKN040 20/13 Q1026=
SA	01/08/2025 13:00->	
METAR SBFL 011300Z 32011KT 9999 BKN040 19/13 Q1027=
SA	01/08/2025 12:00->	
METAR SBFL 011200Z 31009KT 9999 BKN040 17/14 Q1027=
SA	01/08/2025 11:00->	
METAR SBFL 011100Z 34009KT 9999 BKN040 16/12 Q1026=
SA	01/08/2025 10:00->	
METAR SBFL 011000Z 33005KT 9999 BKN040 14/12 Q1026=
SA	01/08/2025 09:00->	
METAR SBFL 010900Z 33005KT 9999 BKN041 14/12 Q1026=
SA	01/08/2025 08:00->	
METAR SBFL 010800Z 31007KT 9999 SCT042 13/12 Q1026=
SA	01/08/2025 07:00->	
METAR SBFL 010700Z 34007KT 9999 SCT042 14/12 Q1026=
SA	01/08/2025 06:00->	
METAR SBFL 010600Z 01004KT CAVOK 14/12 Q1027=
SA	01/08/2025 05:00->	
METAR SBFL 010500Z 36005KT 290V010 CAVOK 14/12 Q1027=
SA	01/08/2025 04:00->	
METAR SBFL 010400Z 35004KT CAVOK 13/11 Q1028=
SA	01/08/2025 03:00->	
METAR SBFL 010300Z 34006KT CAVOK 15/13 Q1028=
SA	01/08/2025 02:00->	
METAR SBFL 010200Z 36005KT CAVOK 14/12 Q1028=
SA	01/08/2025 01:00->	
METAR SBFL 010100Z 36005KT CAVOK 15/12 Q1027=
SA	01/08/2025 00:00->	
METAR SBFL 010000Z 01006KT 9999 FEW039 15/12 Q1027=
SA	31/07/2025 23:58->	
METAR SBFL 010000Z 01006KT 9999 FEW039 15/12 Q1027=
SA	31/07/2025 23:00->	
METAR SBFL 312300Z 01006KT CAVOK 16/12 Q1027=
SA	31/07/2025 22:00->	
METAR SBFL 312200Z 01007KT CAVOK 17/12 Q1026=
SA	31/07/2025 21:00->	
METAR SBFL 312100Z 36009KT 9999 FEW035 18/11 Q1025=
SA	31/07/2025 20:00->	
METAR SBFL 312000Z 35011KT 9999 FEW035 19/11 Q1024=
SA	31/07/2025 19:00->	
METAR SBFL 311900Z 36013KT 9999 FEW035 20/11 Q1024=
SA	31/07/2025 18:00->	
METAR SBFL 311800Z 36013KT 9999 FEW035 20/10 Q1025=
SA	31/07/2025 17:00->	
METAR SBFL 311700Z 34011KT 9999 FEW035 20/12 Q1025=
SA	31/07/2025 16:00->	
METAR SBFL 311600Z 34010KT 9999 FEW035 19/10 Q1026=
SA	31/07/2025 15:00->	
METAR SBFL 311500Z 35010KT 9999 FEW035 19/11 Q1027=
SA	31/07/2025 14:00->	
METAR SBFL 311400Z 34008KT CAVOK 18/10 Q1028=
SA	31/07/2025 13:00->	
METAR SBFL 311300Z 35005KT CAVOK 16/11 Q1028=
SA	31/07/2025 12:00->	
METAR SBFL 311200Z 32006KT CAVOK 14/12 Q1027=
SA	31/07/2025 11:00->	
METAR SBFL 311100Z 22002KT CAVOK 10/09 Q1027=
SA	31/07/2025 10:00->	
METAR SBFL 311000Z 26002KT CAVOK 08/07 Q1026=
SA	31/07/2025 09:00->	
METAR SBFL 310900Z 30003KT CAVOK 10/08 Q1026=
SA	31/07/2025 08:00->	
METAR SBFL 310800Z 30003KT CAVOK 08/08 Q1025=
SA	31/07/2025 07:00->	
METAR SBFL 310700Z 27003KT CAVOK 09/08 Q1025=
SA	31/07/2025 06:00->	
METAR SBFL 310600Z 26004KT CAVOK 09/08 Q1026=
SA	31/07/2025 05:00->	
METAR SBFL 310500Z 22002KT CAVOK 09/07 Q1026=
SA	31/07/2025 04:00->	
METAR SBFL 310400Z 26003KT CAVOK 09/07 Q1026=
SA	31/07/2025 03:00->	
METAR SBFL 310300Z 27004KT CAVOK 10/09 Q1026=
SA	31/07/2025 02:00->	
METAR SBFL 310200Z 33002KT CAVOK 10/08 Q1026=
SA	31/07/2025 01:00->	
METAR SBFL 310100Z 12001KT CAVOK 11/09 Q1026=
SA	31/07/2025 00:00->	
METAR SBFL 310000Z 00000KT CAVOK 11/09 Q1026=
SA	30/07/2025 23:53->	
METAR SBFL 310000Z 00000KT CAVOK 11/09 Q1026=
SA	30/07/2025 23:00->	
METAR SBFL 302300Z VRB01KT CAVOK 12/09 Q1025=
SA	30/07/2025 22:00->	
METAR SBFL 302200Z 10002KT CAVOK 13/09 Q1025=
SA	30/07/2025 21:00->	
METAR SBFL 302100Z 10003KT CAVOK 15/08 Q1024=
SA	30/07/2025 20:00->	
METAR SBFL 302000Z 12007KT CAVOK 17/08 Q1023=
SA	30/07/2025 19:00->	
METAR SBFL 301900Z 14009KT CAVOK 18/08 Q1023=
SA	30/07/2025 18:00->	
METAR SBFL 301800Z 15009KT 120V180 9999 FEW046 19/07 Q1023=
SA	30/07/2025 17:00->	
METAR SBFL 301700Z 18007KT 130V230 9999 FEW043 19/09 Q1023=
SA	30/07/2025 16:00->	
METAR SBFL 301600Z 20010KT 170V230 CAVOK 19/08 Q1024=
SA	30/07/2025 15:00->	
METAR SBFL 301500Z 20007KT CAVOK 18/07 Q1024=
SA	30/07/2025 14:00->	
METAR SBFL 301400Z 29004KT 240V340 CAVOK 16/03 Q1025=
SA	30/07/2025 13:00->	
METAR SBFL 301300Z 31005KT 290V360 CAVOK 15/05 Q1025=
SA	30/07/2025 12:00->	
METAR SBFL 301200Z 32004KT 290V010 CAVOK 13/05 Q1025=
SA	30/07/2025 11:00->	
METAR SBFL 301100Z VRB02KT CAVOK 11/07 Q1024=
SA	30/07/2025 10:00->	
METAR SBFL 301000Z VRB01KT CAVOK 07/05 Q1023=
SA	30/07/2025 09:00->	
METAR SBFL 300900Z 33001KT CAVOK 06/04 Q1023=
SA	30/07/2025 08:00->	
METAR SBFL 300800Z 12001KT CAVOK 07/05 Q1022=
SA	30/07/2025 07:00->	
METAR SBFL 300700Z 00000KT CAVOK 07/05 Q1022=
SA	30/07/2025 06:00->	
METAR SBFL 300600Z 00000KT CAVOK 08/05 Q1023=
SA	30/07/2025 05:00->	
METAR SBFL 300500Z VRB02KT CAVOK 10/05 Q1023=
SA	30/07/2025 04:00->	
METAR SBFL 300400Z 28006KT CAVOK 12/05 Q1023=
SA	30/07/2025 03:00->	
METAR SBFL 300300Z 22005KT CAVOK 10/06 Q1023=
SA	30/07/2025 02:00->	
METAR SBFL 300200Z 26003KT 210V300 CAVOK 12/06 Q1023=
SA	30/07/2025 01:00->	
METAR SBFL 300100Z 19007KT CAVOK 12/05 Q1023=
SA	30/07/2025 00:00->	
METAR SBFL 300000Z 18010KT CAVOK 14/04 Q1022=
SA	29/07/2025 23:50->	
METAR SBFL 300000Z 18010KT CAVOK 14/04 Q1022=
SA	29/07/2025 23:00->	
METAR SBFL 292300Z 18007KT 150V210 CAVOK 15/05 Q1022=
SA	29/07/2025 22:00->	
METAR SBFL 292200Z 17011KT CAVOK 16/05 Q1021=
SA	29/07/2025 21:00->	
METAR SBFL 292100Z 18012KT CAVOK 16/05 Q1020=
SA	29/07/2025 20:00->	
METAR SBFL 292000Z 17010KT CAVOK 17/05 Q1019=
SA	29/07/2025 19:00->	
METAR SBFL 291900Z 18014KT 150V210 CAVOK 19/03 Q1018=
SA	29/07/2025 18:00->	
METAR SBFL 291800Z 19014KT 9999 FEW035 20/04 Q1018=
SA	29/07/2025 17:00->	
METAR SBFL 291700Z 19013KT 9999 FEW035 20/04 Q1018=
SA	29/07/2025 16:00->	
METAR SBFL 291600Z 18015KT CAVOK 19/02 Q1019=
SA	29/07/2025 15:00->	
METAR SBFL 291500Z 21012KT CAVOK 19/03 Q1019=
SA	29/07/2025 14:00->	
METAR SBFL 291400Z 19012KT CAVOK 18/02 Q1020=
SA	29/07/2025 13:00->	
METAR SBFL 291300Z 18005KT CAVOK 17/04 Q1019=
SA	29/07/2025 12:00->	
METAR SBFL 291200Z 20009KT CAVOK 15/06 Q1019=
SA	29/07/2025 11:00->	
METAR SBFL 291100Z 16005KT CAVOK 14/06 Q1018=
SA	29/07/2025 10:00->	
METAR SBFL 291000Z 11001KT CAVOK 12/05 Q1018=
SA	29/07/2025 09:00->	
METAR SBFL 290900Z VRB01KT CAVOK 11/07 Q1017=
SA	29/07/2025 08:00->	
METAR SBFL 290800Z 20005KT CAVOK 13/06 Q1017=
SA	29/07/2025 07:00->	
METAR SBFL 290700Z 21005KT CAVOK 14/06 Q1016=
SA	29/07/2025 06:00->	
METAR SBFL 290600Z 07001KT CAVOK 14/06 Q1017=
SA	29/07/2025 05:00->	
METAR SBFL 290500Z 24003KT CAVOK 14/07 Q1017=
SA	29/07/2025 04:00->	
METAR SBFL 290400Z 26009KT CAVOK 16/05 Q1016=
SA	29/07/2025 03:00->	
METAR SBFL 290300Z 26007KT CAVOK 16/06 Q1016 WS R32=
SA	29/07/2025 02:00->	
METAR SBFL 290200Z 23010KT 190V260 CAVOK 17/05 Q1016=
SA	29/07/2025 01:00->	
METAR SBFL 290100Z 25008KT CAVOK 16/06 Q1016=
SA	29/07/2025 00:00->	
METAR SBFL 290000Z 24012KT CAVOK 18/05 Q1015=
SA	28/07/2025 23:57->	
METAR SBFL 290000Z 24012KT CAVOK 18/05 Q1015=
SA	28/07/2025 23:00->	
METAR SBFL 282300Z 23011KT CAVOK 18/05 Q1014=
SA	28/07/2025 22:00->	
METAR SBFL 282200Z 22012KT 9999 FEW040 19/06 Q1013=
SA	28/07/2025 21:00->	
METAR SBFL 282100Z 22012KT 9999 FEW040 19/07 Q1011=
SA	28/07/2025 20:00->	
METAR SBFL 282000Z 22011G22KT 9999 SCT040 21/07 Q1009=
SA	28/07/2025 19:00->	
METAR SBFL 281900Z 23016KT 9999 SCT040 23/07 Q1008=
SA	28/07/2025 18:00->	
METAR SBFL 281800Z 23012G23KT 9999 SCT040 22/09 Q1007=
SA	28/07/2025 17:00->	
METAR SBFL 281700Z 28019KT 9999 SCT040 23/12 Q1005=
SA	28/07/2025 16:00->	
METAR SBFL 281600Z 29019G29KT 9999 SCT040 24/11 Q1005=
SP	28/07/2025 15:22->	
SPECI SBFL 281522Z 29025G35KT 9999 SCT040 24/12 Q1005=
SA	28/07/2025 15:00->	
METAR SBFL 281500Z 28015G25KT 9999 SCT040 24/14 Q1005 WS R32=
SP	28/07/2025 14:26->	
SPECI SBFL 281426Z 29019G29KT 9999 SCT030 25/13 Q1005=
SA	28/07/2025 14:00->	
METAR SBFL 281400Z 30019KT 9999 FEW030 25/15 Q1005=
SA	28/07/2025 13:00->	
METAR SBFL 281300Z 29015G25KT 9999 FEW020 23/14 Q1005=
SP	28/07/2025 12:40->	
SPECI SBFL 281240Z 29015G25KT 9999 SCT020 23/14 Q1005=
SA	28/07/2025 12:00->	
METAR SBFL 281200Z 32010KT 9999 FEW020 22/14 Q1005=
SA	28/07/2025 11:00->	
METAR SBFL 281100Z 32012KT 9999 FEW020 21/13 Q1005=
SA	28/07/2025 10:00->	
METAR SBFL 281000Z 35009KT 9999 FEW016 20/14 Q1004=
SA	28/07/2025 09:00->	
METAR SBFL 280900Z 33010KT CAVOK 19/14 Q1005=
SA	28/07/2025 08:00->	
METAR SBFL 280800Z 34009KT CAVOK 19/16 Q1004=
SA	28/07/2025 07:00->	
METAR SBFL 280700Z 34012KT CAVOK 19/17 Q1005=
SA	28/07/2025 06:00->	
METAR SBFL 280600Z 33009KT 9999 FEW007 18/17 Q1006=
SA	28/07/2025 05:00->	
METAR SBFL 280500Z 33006KT 9999 SCT008 18/17 Q1006=
SA	28/07/2025 04:00->	
METAR SBFL 280400Z 34014KT 9999 FEW009 18/17 Q1007=
SA	28/07/2025 03:00->	
METAR SBFL 280300Z 36009KT CAVOK 18/17 Q1007=
SA	28/07/2025 02:00->	
METAR SBFL 280200Z 03004KT 8000 -RA NSC 18/17 Q1009 RETSRA=
SP	28/07/2025 01:10->	
SPECI SBFL 280110Z 35006KT 3000 TSRA FEW018 OVC035 //////CB 18/17 Q1010 RERA=
SA	28/07/2025 01:00->	
METAR SBFL 280100Z 31008KT 280V350 1500 +TSRA OVC020 //////CB 18/17 Q1010=
SP	28/07/2025 00:45->	
SPECI SBFL 280045Z 28008KT 3000 +RA VCTS OVC010 //////CB 18/17 Q1011 RERA=
SP	28/07/2025 00:33->	
SPECI SBFL 280033Z 27007KT 6000 RA VCTS OVC010 //////CB 18/17 Q1010=
SP	28/07/2025 00:25->	
SPECI SBFL 280025Z 27007KT 6000 RA OVC010 18/17 Q1010=
SA	28/07/2025 00:00->	
METAR SBFL 280000Z 27007KT 240V310 9999 OVC010 18/17 Q1009=
SA	27/07/2025 23:51->	
METAR SBFL 280000Z 27007KT 240V310 9999 OVC010 18/17 Q1009=
SA	27/07/2025 23:00->	
METAR SBFL 272300Z 32004KT 9999 BKN014 BKN030 18/17 Q1009=
SA	27/07/2025 22:00->	
METAR SBFL 272200Z 34004KT 9999 SCT014 BKN030 19/17 Q1009=
SA	27/07/2025 21:00->	
METAR SBFL 272100Z 33003KT 9999 FEW015 SCT020 BKN030 19/17 Q1010=
SA	27/07/2025 20:00->	
METAR SBFL 272000Z 03003KT 9999 FEW015 SCT020 BKN030 20/17 Q1010=
SP	27/07/2025 19:14->	
SPECI SBFL 271914Z VRB02KT 9999 SCT020 BKN030 20/17 Q1011=
SA	27/07/2025 19:00->	
METAR SBFL 271900Z 10005KT 9999 BKN014 BKN030 19/17 Q1011=
SA	27/07/2025 18:00->	
METAR SBFL 271800Z 03004KT 360V080 9999 BKN014 BKN025 19/17 Q1012=
SA	27/07/2025 17:00->	
METAR SBFL 271700Z 33006KT 9999 VCSH SCT014 BKN025 FEW025TCU 19/17 Q1012=
SA	27/07/2025 16:00->	
METAR SBFL 271600Z 34006KT 9999 VCSH SCT012 FEW025TCU BKN026 20/17 Q1014=
SA	27/07/2025 15:00->	
METAR SBFL 271500Z 34005KT 300V010 9999 SCT015 OVC030 20/16 Q1015=
SA	27/07/2025 14:00->	
METAR SBFL 271400Z 34003KT 270V040 9999 FEW012 BKN021 19/16 Q1016=
SA	27/07/2025 13:00->	
METAR SBFL 271300Z 35004KT 310V030 8000 FEW010 OVC026 18/16 Q1017=
SA	27/07/2025 12:00->	
METAR SBFL 271200Z VRB02KT 6000 FEW010 OVC020 18/16 Q1017=
SA	27/07/2025 11:00->	
METAR SBFL 271100Z 28003KT 250V320 8000 OVC023 17/16 Q1017=
SA	27/07/2025 10:00->	
METAR SBFL 271000Z 35004KT 8000 FEW010 OVC023 17/15 Q1017=
SP	27/07/2025 09:30->	
SPECI SBFL 270930Z 01003KT 330V070 9999 FEW010 OVC025 17/16 Q1017=
SA	27/07/2025 09:00->	
METAR SBFL 270900Z 34002KT 9999 FEW009 BKN014 OVC025 17/15 Q1017=
SA	27/07/2025 08:00->	
METAR SBFL 270800Z VRB02KT 9999 FEW009 BKN014 OVC020 17/15 Q1017=
SA	27/07/2025 07:00->	
METAR SBFL 270700Z 06006KT 9999 SCT009 BKN012 OVC019 17/15 Q1017=
SA	27/07/2025 06:00->	
METAR SBFL 270600Z 14008KT 110V170 9999 SCT006 BKN010 OVC022 17/15 Q1018=
SA	27/07/2025 05:00->	
METAR SBFL 270500Z 13009KT 9999 OVC006 17/15 Q1019=
SA	27/07/2025 04:00->	
METAR SBFL 270400Z 16005KT 9999 BKN008 18/17 Q1019=
SA	27/07/2025 03:00->	
METAR SBFL 270300Z 34005KT 280V030 9999 BKN007 18/16 Q1018=
SP	27/07/2025 02:15->	
SPECI SBFL 270215Z 34007KT 250V010 9999 BKN007 18/17 Q1018=
SA	27/07/2025 02:00->	
METAR SBFL 270200Z 36007KT 9999 FEW007 18/17 Q1017=
SA	27/07/2025 01:00->	
METAR SBFL 270100Z 35007KT CAVOK 18/16 Q1017=
SA	27/07/2025 00:00->	
METAR SBFL 270000Z 33008KT CAVOK 18/16 Q1017=
SA	26/07/2025 23:55->	
METAR SBFL 270000Z 33008KT CAVOK 18/16 Q1017=
SA	26/07/2025 23:00->	
METAR SBFL 262300Z 35007KT CAVOK 19/16 Q1016=
SA	26/07/2025 22:00->	
METAR SBFL 262200Z 32005KT CAVOK 18/17 Q1017=
SA	26/07/2025 21:00->	
METAR SBFL 262100Z 32004KT 9999 FEW040 20/17 Q1016=
SA	26/07/2025 20:00->	
METAR SBFL 262000Z 33008KT 9999 FEW035 SCT040 21/17 Q1016=
SA	26/07/2025 19:00->	
METAR SBFL 261900Z 35009KT 9999 FEW035 23/17 Q1016=
SA	26/07/2025 18:00->	
METAR SBFL 261800Z 35010KT 9999 FEW030 24/17 Q1016=
SA	26/07/2025 17:00->	
METAR SBFL 261700Z 36011KT 9999 FEW030 24/17 Q1017=
SA	26/07/2025 16:00->	
METAR SBFL 261600Z 34013KT CAVOK 22/16 Q1017=
SA	26/07/2025 15:00->	
METAR SBFL 261500Z 34013KT CAVOK 22/17 Q1018=
SA	26/07/2025 14:00->	
METAR SBFL 261400Z 33011KT CAVOK 21/16 Q1019=
SA	26/07/2025 13:00->	
METAR SBFL 261300Z 33012KT CAVOK 20/16 Q1019=
SA	26/07/2025 12:00->	
METAR SBFL 261200Z 33010KT 9999 FEW018 19/16 Q1019=
SA	26/07/2025 11:00->	
METAR SBFL 261100Z 33010KT 9999 FEW018 17/16 Q1019=
SA	26/07/2025 10:00->	
METAR SBFL 261000Z 34011KT 9999 FEW014 17/16 Q1018=
SA	26/07/2025 09:00->	
METAR SBFL 260900Z 34014KT 9999 FEW012 17/16 Q1018=
SA	26/07/2025 08:00->	
METAR SBFL 260800Z 33011KT 9999 SCT002 17/16 Q1017=
SA	26/07/2025 07:00->	
METAR SBFL 260700Z 35009KT 4000 BR BKN002 17/17 Q1018=
SP	26/07/2025 06:16->	
SPECI SBFL 260616Z 34009KT 2500 BR BKN002 17/17 Q1018=
SA	26/07/2025 06:00->	
METAR SBFL 260600Z 35009KT 7000 BKN002 17/17 Q1018=
SA	26/07/2025 05:00->	
METAR SBFL 260500Z 35008KT 9999 BKN025 17/17 Q1018=
SA	26/07/2025 04:00->	
METAR SBFL 260400Z 33005KT 9999 FEW008 BKN020 17/17 Q1019=
SP	26/07/2025 03:39->	
SPECI SBFL 260339Z 36006KT 9999 FEW014 BKN020 17/17 Q1019=
SA	26/07/2025 03:00->	
METAR SBFL 260300Z 35006KT 2500 -DZ OVC014 17/17 Q1019=
SA	26/07/2025 02:00->	
METAR SBFL 260200Z 32004KT 3500 -DZ OVC012 17/17 Q1019=
SA	26/07/2025 01:00->	
METAR SBFL 260100Z 34003KT 4000 BR FEW002 OVC007 17/17 Q1019=
SP	26/07/2025 00:16->	
SPECI SBFL 260016Z 34003KT 2500 -DZ OVC005 17/17 Q1019=
SA	26/07/2025 00:00->	
METAR SBFL 260000Z 33004KT 9999 OVC005 17/17 Q1019=
SA	25/07/2025 23:55->	
METAR SBFL 260000Z 33004KT 9999 OVC005 17/17 Q1019=
SA	25/07/2025 23:00->	
METAR SBFL 252300Z 34005KT 5000 BR OVC003 17/17 Q1019=
SA	25/07/2025 22:00->	
METAR SBFL 252200Z 01004KT 5000 -DZ BKN008 OVC014 17/17 Q1019=
SP	25/07/2025 21:23->	
SPECI SBFL 252123Z 01004KT 2000 -DZ BKN008 OVC014 17/17 Q1018=
SA	25/07/2025 21:00->	
METAR SBFL 252100Z 34004KT 1600 -DZ OVC003 17/16 Q1019=
SP	25/07/2025 20:14->	
SPECI SBFL 252014Z 30003KT 280V340 1600 R32/P2000 R14/P2000 -DZ OVC003 17/16 Q1018=
SA	25/07/2025 20:00->	
METAR SBFL 252000Z 29003KT 2000 -DZ OVC005 17/16 Q1018=
SA	25/07/2025 19:00->	
METAR SBFL 251900Z 28003KT 2000 -DZ BKN003 BKN009 OVC022 17/16 Q1019=
SP	25/07/2025 18:42->	
SPECI SBFL 251842Z 28004KT 2000 -DZ SCT003 OVC010 17/16 Q1019=
SA	25/07/2025 18:00->	
METAR SBFL 251800Z 27002KT 2000 -DZ BKN003 OVC010 17/16 Q1019=
SP	25/07/2025 17:19->	
SPECI SBFL 251719Z 26003KT 240V300 2000 -DZ BKN003 OVC010 17/16 Q1019=
SA	25/07/2025 17:00->	
METAR SBFL 251700Z 26004KT 240V300 2000 -DZ -RA BKN005 OVC014 17/16 Q1020=
SA	25/07/2025 16:00->	
METAR SBFL 251600Z 28004KT 2000 -RA BR BKN003 OVC010 17/16 Q1020=
SA	25/07/2025 15:00->	
METAR SBFL 251500Z 27004KT 240V300 2000 -DZ BR BKN003 OVC010 16/16 Q1021=
SA	25/07/2025 14:00->	
METAR SBFL 251400Z 22003KT 190V260 2000 -DZ BR OVC003 16/15 Q1022=
SA	25/07/2025 13:00->	
METAR SBFL 251300Z 26004KT 2500 -DZ BR OVC003 16/15 Q1023=
SA	25/07/2025 12:00->	
METAR SBFL 251200Z 27004KT 2000 -DZ BR BKN002 BKN008 OVC010 15/15 Q1022=
SP	25/07/2025 11:20->	
SPECI SBFL 251120Z 23004KT 2000 -DZ BR BKN003 BKN011 OVC015 15/15 Q1022=
SA	25/07/2025 11:00->	
METAR SBFL 251100Z 23003KT 3000 -DZ VCFG FEW002 BKN013 OVC020 15/15 Q1022=
SP	25/07/2025 10:35->	
SPECI SBFL 251035Z 21003KT 3000 -DZ VCFG FEW002 BKN012 OVC018 15/14 Q1022 REDZ=
SA	25/07/2025 10:00->	
METAR SBFL 251000Z 20002KT 1800 R14/P2000 R32/P2000 DZ SCT002 BKN011 OVC014 14/14 Q1022=
SA	25/07/2025 09:00->	
METAR SBFL 250900Z 08002KT 2000 -DZ BR SCT003 BKN010 OVC015 14/14 Q1021=
SA	25/07/2025 08:00->	
METAR SBFL 250800Z 19001KT 2000 -RA BR SCT003 BKN010 OVC040 14/14 Q1021=
SA	25/07/2025 07:00->	
METAR SBFL 250700Z 27004KT 6000 FEW003 BKN010 OVC040 14/14 Q1012=
SA	25/07/2025 06:00->	
METAR SBFL 250600Z 31003KT 3000 -RA BR FEW003 BKN010 OVC025 14/14 Q1022=
SA	25/07/2025 05:00->	
METAR SBFL 250500Z 23001KT 4000 -RA BR FEW003 BKN010 OVC025 14/13 Q1022=
SA	25/07/2025 04:00->	
METAR SBFL 250400Z 23002KT 2000 -RA BR FEW003 BKN010 OVC030 14/14 Q1022=
SA	25/07/2025 03:00->	
METAR SBFL 250300Z 21003KT 170V240 3000 -RA BR FEW006 BKN012 OVC030 14/13 Q1023=
SA	25/07/2025 02:00->	
METAR SBFL 250200Z 20003KT 2000 -RA BR FEW006 BKN012 OVC030 14/13 Q1023=
SA	25/07/2025 01:00->	
METAR SBFL 250100Z 00000KT 3500 -RA BR FEW004 BKN012 OVC025 14/13 Q1023=
SA	25/07/2025 00:00->	
METAR SBFL 250000Z VRB02KT 4000 BR FEW005 OVC012 14/13 Q1023=
SA	24/07/2025 23:55->	
METAR COR SBFL 250000Z VRB02KT 4000 -RA BR FEW005 OVC012 14/13 Q1023=
SA	24/07/2025 23:54->	
METAR SBFL 250000Z VRB02KT 4000 BR FEW005 OVC012 14/13 Q1023=
SA	24/07/2025 23:00->	
METAR SBFL 242300Z VRB02KT 4500 -RA BR FEW004 OVC013 14/13 Q1023=
SP	24/07/2025 22:30->	
SPECI SBFL 242230Z VRB01KT 4000 -RA BR SCT005 BKN013 OVC020 14/13 Q1023=
SA	24/07/2025 22:00->	
METAR SBFL 242200Z 27001KT 3500 -RA BR BKN005 OVC016 14/13 Q1023=
SA	24/07/2025 21:00->	
METAR SBFL 242100Z 25004KT 3000 -RA BR SCT005 BKN007 OVC015 13/13 Q1023=
SP	24/07/2025 20:22->	
SPECI SBFL 242022Z 29002KT 3000 -RA BR BKN006 BKN017 OVC045 14/13 Q1023=
SA	24/07/2025 20:00->	
METAR SBFL 242000Z 28003KT 4000 -RA BR FEW011 OVC045 14/13 Q1023=
SA	24/07/2025 19:00->	
METAR SBFL 241900Z 27004KT 5000 -RA BR FEW012 OVC048 14/12 Q1023=
SA	24/07/2025 18:00->	
METAR SBFL 241800Z 26006KT 4000 -DZ BR FEW012 OVC040 14/13 Q1023=
SA	24/07/2025 17:00->	
METAR SBFL 241700Z 27003KT 230V300 9999 VCSH OVC045 15/11 Q1023=
SA	24/07/2025 16:00->	
METAR SBFL 241600Z 21003KT 9999 BKN047 BKN070 16/11 Q1024=
SA	24/07/2025 15:00->	
METAR SBFL 241500Z 19006KT 9999 BKN047 BKN070 15/11 Q1025=
SA	24/07/2025 14:00->	
METAR SBFL 241400Z 20002KT 9999 BKN047 BKN070 15/10 Q1026=
SA	24/07/2025 13:00->	
METAR SBFL 241300Z 07003KT 9999 VCSH BKN047 16/10 Q1026=
SA	24/07/2025 12:00->	
METAR SBFL 241200Z 18005KT 9999 BKN047 16/08 Q1025=
SA	24/07/2025 11:00->	
METAR SBFL 241100Z 17005KT 9999 BKN047 16/08 Q1025=
SA	24/07/2025 10:00->	
METAR SBFL 241000Z 16005KT 9999 BKN047 16/07 Q1025=
SA	24/07/2025 09:00->	
METAR SBFL 240900Z 18005KT 140V200 CAVOK 16/07 Q1024=
SA	24/07/2025 08:00->	
METAR SBFL 240800Z 20005KT 9999 OVC046 15/08 Q1024=
SA	24/07/2025 07:00->	
METAR SBFL 240700Z 20008KT CAVOK 15/08 Q1025=
SA	24/07/2025 06:00->	
METAR SBFL 240600Z 19008KT CAVOK 15/08 Q1025=
SA	24/07/2025 05:00->	
METAR SBFL 240500Z 18010KT CAVOK 15/08 Q1025=
SA	24/07/2025 04:00->	
METAR SBFL 240400Z 19010KT CAVOK 15/08 Q1025=
SA	24/07/2025 03:00->	
METAR SBFL 240300Z 18009KT CAVOK 15/09 Q1025=
SA	24/07/2025 02:00->	
METAR SBFL 240200Z 18009KT CAVOK 15/09 Q1025=
SA	24/07/2025 01:00->	
METAR SBFL 240100Z 15009KT CAVOK 15/09 Q1025=
SA	24/07/2025 00:00->	
METAR SBFL 240000Z 17009KT 120V200 CAVOK 15/10 Q1025=
SA	23/07/2025 23:58->	
METAR SBFL 240000Z 17009KT 120V200 CAVOK 15/10 Q1025=
SA	23/07/2025 23:00->	
METAR SBFL 232300Z 16007KT 9999 BKN045 16/11 Q1024=
SA	23/07/2025 22:00->	
METAR SBFL 232200Z 16007KT 9999 BKN045 16/11 Q1024=
SA	23/07/2025 21:00->	
METAR SBFL 232100Z 14008KT 9999 BKN040 16/11 Q1023=
SA	23/07/2025 20:00->	
METAR SBFL 232000Z 17007KT 9999 BKN040 16/11 Q1023=
SA	23/07/2025 19:00->	
METAR SBFL 231900Z 14008KT 9999 BKN040 17/11 Q1022=
SA	23/07/2025 18:00->	
METAR SBFL 231800Z 13010KT 9999 FEW040 18/13 Q1022=
SA	23/07/2025 17:00->	
METAR SBFL 231700Z 14010KT 9999 FEW040 18/13 Q1022=
SA	23/07/2025 16:00->	
METAR SBFL 231600Z 11009KT 060V140 9999 FEW030 19/13 Q1022=
SA	23/07/2025 15:00->	
METAR SBFL 231500Z 18012KT 150V230 9999 FEW020 SCT100 17/12 Q1023=
SA	23/07/2025 14:00->	
METAR SBFL 231400Z 18013KT 160V220 9999 FEW020 BKN100 16/11 Q1024=
SA	23/07/2025 13:00->	
METAR SBFL 231300Z 19012G22KT 140V270 9999 FEW020 BKN100 16/12 Q1024=
SA	23/07/2025 12:00->	
METAR SBFL 231200Z 15011KT 090V210 9999 FEW015 BKN100 15/12 Q1024=
SA	23/07/2025 11:00->	
METAR SBFL 231100Z 17007KT 120V220 9999 FEW015 BKN100 16/12 Q1023=
SA	23/07/2025 10:00->	
METAR SBFL 231000Z VRB08KT 9999 FEW015 BKN100 16/13 Q1022=
SA	23/07/2025 09:00->	
METAR SBFL 230900Z VRB04KT 9999 FEW018 BKN100 17/13 Q1021=
SA	23/07/2025 08:00->	
METAR SBFL 230800Z 10012KT CAVOK 16/13 Q1021=
SA	23/07/2025 07:00->	
METAR SBFL 230700Z 11007KT 070V180 CAVOK 17/13 Q1020=
SA	23/07/2025 06:00->	
METAR SBFL 230600Z 11005KT 010V180 CAVOK 18/12 Q1020=
SA	23/07/2025 05:00->	
METAR SBFL 230500Z 03003KT CAVOK 15/12 Q1020=
SA	23/07/2025 04:00->	
METAR SBFL 230400Z 04003KT 340V130 CAVOK 16/13 Q1020=
SA	23/07/2025 03:00->	
METAR SBFL 230300Z 07002KT CAVOK 14/11 Q1020=
SA	23/07/2025 02:00->	
METAR SBFL 230200Z VRB02KT CAVOK 14/14 Q1019=
SA	23/07/2025 01:00->	
METAR SBFL 230100Z 00000KT CAVOK 16/14 Q1019=
SA	23/07/2025 00:00->	
METAR SBFL 230000Z 00000KT CAVOK 16/14 Q1019=
SA	22/07/2025 23:57->	
METAR SBFL 230000Z 00000KT CAVOK 16/14 Q1019=
SA	22/07/2025 23:00->	
METAR SBFL 222300Z 00000KT 9999 FEW040 17/13 Q1018=
SA	22/07/2025 22:00->	
METAR SBFL 222200Z 18002KT 9999 FEW040 17/13 Q1018=
SA	22/07/2025 21:00->	
METAR SBFL 222100Z 11004KT 9999 FEW030 18/13 Q1017=
SA	22/07/2025 20:00->	
METAR SBFL 222000Z 13005KT 9999 FEW030 SCT100 21/13 Q1017=
SA	22/07/2025 19:00->	
METAR SBFL 221900Z 12006KT 9999 FEW030 22/13 Q1016=
SA	22/07/2025 18:00->	
METAR SBFL 221800Z 11005KT 9999 FEW030 22/13 Q1016=
SA	22/07/2025 17:00->	
METAR SBFL 221700Z 11006KT 9999 FEW030 23/15 Q1016=
SA	22/07/2025 16:00->	
METAR SBFL 221600Z 31003KT 260V360 9999 FEW020 22/14 Q1016=
SA	22/07/2025 15:00->	
METAR SBFL 221500Z 29005KT CAVOK 20/13 Q1017=
SA	22/07/2025 14:00->	
METAR SBFL 221400Z 32005KT 280V010 CAVOK 19/14 Q1018=
SA	22/07/2025 13:00->	
METAR SBFL 221300Z 30003KT 210V350 CAVOK 17/13 Q1018=
SA	22/07/2025 12:00->	
METAR SBFL 221200Z 26005KT CAVOK 15/13 Q1017=
SA	22/07/2025 11:00->	
METAR SBFL 221100Z 25003KT CAVOK 13/12 Q1017=
SA	22/07/2025 10:00->	
METAR SBFL 221000Z 24002KT CAVOK 11/10 Q1016=
SA	22/07/2025 09:00->	
METAR SBFL 220900Z 23002KT CAVOK 12/11 Q1016=
SA	22/07/2025 08:00->	
METAR SBFL 220800Z 29004KT 250V320 CAVOK 14/13 Q1015=
SA	22/07/2025 07:00->	
METAR SBFL 220700Z 30007KT CAVOK 14/13 Q1016=
SA	22/07/2025 06:00->	
METAR SBFL 220600Z 31006KT CAVOK 15/14 Q1016=
SA	22/07/2025 05:00->	
METAR SBFL 220500Z 33007KT 250V350 CAVOK 15/14 Q1016=
SA	22/07/2025 04:00->	
METAR SBFL 220400Z 34007KT CAVOK 15/13 Q1017=
SA	22/07/2025 03:00->	
METAR SBFL 220300Z 33008KT CAVOK 16/13 Q1017=
SA	22/07/2025 02:00->	
METAR SBFL 220200Z 33009KT CAVOK 16/14 Q1017=
SA	22/07/2025 01:00->	
METAR SBFL 220100Z 34008KT CAVOK 17/14 Q1017=
SA	22/07/2025 00:00->	
METAR SBFL 220000Z 34008KT CAVOK 17/14 Q1017=
SA	21/07/2025 23:57->	
METAR SBFL 220000Z 34008KT CAVOK 17/14 Q1017=
SA	21/07/2025 23:00->	
METAR SBFL 212300Z 36008KT CAVOK 17/13 Q1017=
SA	21/07/2025 22:00->	
METAR SBFL 212200Z 36009KT CAVOK 18/13 Q1017=
SA	21/07/2025 21:00->	
METAR SBFL 212100Z 36009KT CAVOK 19/13 Q1016=
SA	21/07/2025 20:00->	
METAR SBFL 212000Z 01010KT CAVOK 20/13 Q1016=
SA	21/07/2025 19:00->	
METAR SBFL 211900Z 36010KT CAVOK 21/12 Q1016=
SA	21/07/2025 18:00->	
METAR SBFL 211800Z 01011KT CAVOK 22/12 Q1016=
SA	21/07/2025 17:00->	
METAR SBFL 211700Z 35013KT CAVOK 22/13 Q1017=
SA	21/07/2025 16:00->	
METAR SBFL 211600Z 34015KT CAVOK 21/13 Q1018=
SA	21/07/2025 15:00->	
METAR SBFL 211500Z 35014KT CAVOK 20/12 Q1019=
SA	21/07/2025 14:00->	
METAR SBFL 211400Z 33010KT CAVOK 19/13 Q1020=
SA	21/07/2025 13:00->	
METAR SBFL 211300Z 30008KT CAVOK 18/12 Q1020=
SA	21/07/2025 12:00->	
METAR SBFL 211200Z 28008KT CAVOK 15/12 Q1020=
SA	21/07/2025 11:00->	
METAR SBFL 211100Z 29008KT CAVOK 15/12 Q1020=
SA	21/07/2025 10:00->	
METAR SBFL 211000Z 32006KT CAVOK 14/12 Q1019=
SA	21/07/2025 09:00->	
METAR SBFL 210900Z 28006KT CAVOK 13/12 Q1019=
SA	21/07/2025 08:00->	
METAR SBFL 210800Z 31007KT CAVOK 14/13 Q1019=
SA	21/07/2025 07:00->	
METAR SBFL 210700Z 33010KT CAVOK 15/13 Q1019=
SA	21/07/2025 06:00->	
METAR SBFL 210600Z 33011KT CAVOK 16/14 Q1019=
SA	21/07/2025 05:00->	
METAR SBFL 210500Z 34011KT 9999 SCT010 16/14 Q1020=
SA	21/07/2025 04:00->	
METAR SBFL 210400Z 36008KT 9999 FEW008 16/14 Q1020=
SA	21/07/2025 03:00->	
METAR SBFL 210300Z 33009KT CAVOK 16/14 Q1021=
SA	21/07/2025 02:00->	
METAR SBFL 210200Z 33011KT CAVOK 16/14 Q1021=
SA	21/07/2025 01:00->	
METAR SBFL 210100Z 33009KT CAVOK 16/14 Q1021=
SA	21/07/2025 00:00->	
METAR SBFL 210000Z 34009KT CAVOK 16/15 Q1021=
SA	20/07/2025 23:53->	
METAR SBFL 210000Z 34009KT CAVOK 16/15 Q1021=
SA	20/07/2025 23:00->	
METAR SBFL 202300Z 35006KT CAVOK 16/14 Q1021=
SA	20/07/2025 22:00->	
METAR SBFL 202200Z VRB01KT CAVOK 15/13 Q1021=
SA	20/07/2025 21:00->	
METAR SBFL 202100Z VRB02KT CAVOK 18/14 Q1021=
SA	20/07/2025 20:00->	
METAR SBFL 202000Z 33008KT CAVOK 19/14 Q1020=
SA	20/07/2025 19:00->	
METAR SBFL 201900Z 33008KT CAVOK 21/14 Q1020=
SA	20/07/2025 18:00->	
METAR SBFL 201800Z 34006KT CAVOK 22/13 Q1020=
SA	20/07/2025 17:00->	
METAR SBFL 201700Z 33008KT CAVOK 21/13 Q1021=
SA	20/07/2025 16:00->	
METAR SBFL 201600Z 33005KT 280V010 CAVOK 21/12 Q1022=
SA	20/07/2025 15:00->	
METAR SBFL 201500Z 33007KT CAVOK 20/12 Q1023=
SA	20/07/2025 14:00->	
METAR SBFL 201400Z 31006KT CAVOK 18/13 Q1023=
SA	20/07/2025 13:00->	
METAR SBFL 201300Z 30006KT 270V360 CAVOK 16/13 Q1024=
SA	20/07/2025 12:00->	
METAR SBFL 201200Z 28005KT CAVOK 15/12 Q1024=
SA	20/07/2025 11:00->	
METAR SBFL 201100Z 28004KT 9999 FEW014 14/12 Q1023=
SA	20/07/2025 10:00->	
METAR SBFL 201000Z 25003KT 9999 VCFG BKN016 11/11 Q1023=
SA	20/07/2025 09:00->	
METAR SBFL 200900Z 24001KT 9999 BKN017 11/10 Q1023=
SA	20/07/2025 08:00->	
METAR SBFL 200800Z 12001KT 9999 BKN019 11/10 Q1022=
SA	20/07/2025 07:00->	
METAR SBFL 200700Z 00000KT 9999 BKN020 11/10 Q1023=
SA	20/07/2025 06:00->	
METAR SBFL 200600Z 00000KT 9999 BKN021 11/11 Q1023=
SA	20/07/2025 05:00->	
METAR SBFL 200500Z 11002KT 9999 FEW012 BKN030 11/10 Q1023=
SA	20/07/2025 04:00->	
METAR SBFL 200400Z 13002KT 9000 SCT015 11/10 Q1024=
SA	20/07/2025 03:00->	
METAR SBFL 200300Z 00000KT 8000 SCT015 11/10 Q1024=
SA	20/07/2025 02:00->	
METAR SBFL 200200Z 17001KT 9999 BKN015 12/11 Q1024=
SA	20/07/2025 01:00->	
METAR SBFL 200100Z VRB02KT 9999 BKN017 14/12 Q1024=
SA	20/07/2025 00:00->	
METAR SBFL 200000Z 09004KT 9999 FEW019 BKN030 15/12 Q1024=