SA	30/04/2025 23:56->	
METAR SBFL 010000Z 17004KT 140V210 9999 SCT040 19/14 Q1019=
SA	30/04/2025 23:00->	
METAR SBFL 302300Z 19003KT 9999 FEW048 18/14 Q1019=
SA	30/04/2025 22:00->	
METAR SBFL 302200Z 17004KT 9999 FEW048 18/13 Q1018=
SA	30/04/2025 21:00->	
METAR SBFL 302100Z 15006KT 9999 FEW040 20/13 Q1018=
SA	30/04/2025 20:00->	
METAR SBFL 302000Z 12008KT 9999 FEW040 21/13 Q1017=
SA	30/04/2025 19:00->	
METAR SBFL 301900Z 11010KT 9999 FEW040 22/13 Q1017=
SA	30/04/2025 18:00->	
METAR SBFL 301800Z 11010KT 9999 FEW040 22/13 Q1017=
SA	30/04/2025 17:00->	
METAR SBFL 301700Z 11010KT 090V160 9999 FEW040 23/14 Q1017=
SA	30/04/2025 16:00->	
METAR SBFL 301600Z 11009KT 090V170 9999 SCT045 23/14 Q1018=
SA	30/04/2025 15:00->	
METAR SBFL 301500Z 27004KT 190V310 9999 SCT045 22/12 Q1018=
SA	30/04/2025 14:00->	
METAR SBFL 301400Z 29004KT 230V360 9999 FEW045 22/13 Q1019=
SA	30/04/2025 13:00->	
METAR SBFL 301300Z 18003KT 210V320 9999 FEW045 20/12 Q1019=
SA	30/04/2025 12:00->	
METAR SBFL 301200Z /////KT 9999 FEW045 18/13 Q1019=
SA	30/04/2025 11:00->	
METAR SBFL 301100Z 28002KT 9999 FEW045 17/13 Q1018=
SA	30/04/2025 10:00->	
METAR SBFL 301000Z 26008KT 9999 FEW045 16/12 Q1018=
SA	30/04/2025 09:00->	
METAR SBFL 300900Z 27007KT 9999 FEW045 15/12 Q1017=
SA	30/04/2025 08:00->	
METAR SBFL 300800Z 28004KT 9999 FEW045 15/13 Q1017=
SA	30/04/2025 07:00->	
METAR SBFL 300700Z 00000KT 9999 FEW040 15/13 Q1017=
SA	30/04/2025 06:00->	
METAR SBFL 300600Z 32002KT 9999 SCT040 17/12 Q1017=
SA	30/04/2025 05:00->	
METAR SBFL 300500Z VRB02KT 9999 SCT040 16/13 Q1017=
SA	30/04/2025 04:00->	
METAR SBFL 300400Z 20004KT 9999 SCT040 17/12 Q1017=
SA	30/04/2025 03:00->	
METAR SBFL 300300Z VRB02KT 9999 SCT045 19/12 Q1017=
SA	30/04/2025 02:00->	
METAR SBFL 300200Z 17002KT 9999 SCT045 19/13 Q1017=
SA	30/04/2025 01:00->	
METAR SBFL 300100Z 12003KT 060V180 9999 SCT045 19/12 Q1017=
SA	30/04/2025 00:00->	
METAR SBFL 300000Z 19007KT 9999 BKN040 19/13 Q1017=
SA	29/04/2025 23:59->	
METAR SBFL 300000Z 19007KT 9999 BKN040 19/13 Q1017=
SA	29/04/2025 23:00->	
METAR SBFL 292300Z 18009KT 9999 FEW040 19/13 Q1016=
SA	29/04/2025 22:00->	
METAR SBFL 292200Z 15008KT 9999 FEW040 20/12 Q1016=
SA	29/04/2025 21:00->	
METAR SBFL 292100Z 14009KT 9999 FEW040 20/12 Q1015=
SA	29/04/2025 20:00->	
METAR SBFL 292000Z 14010KT 9999 FEW040 21/13 Q1015=
SA	29/04/2025 19:00->	
METAR SBFL 291900Z 14009KT 9999 FEW040 22/13 Q1014=
SA	29/04/2025 18:00->	
METAR SBFL 291800Z 15012KT 9999 FEW040 23/11 Q1014=
SA	29/04/2025 17:00->	
METAR SBFL 291700Z 14011KT 9999 FEW040 23/11 Q1014=
SA	29/04/2025 16:00->	
METAR SBFL 291600Z 16006KT 110V220 9999 FEW040 24/11 Q1015=
SA	29/04/2025 15:00->	
METAR SBFL 291500Z VRB03KT 9999 FEW040 23/11 Q1016=
SA	29/04/2025 14:00->	
METAR SBFL 291400Z VRB02KT CAVOK 23/11 Q1016=
SA	29/04/2025 13:00->	
METAR SBFL 291300Z 28004KT CAVOK 20/10 Q1016=
SA	29/04/2025 12:00->	
METAR SBFL 291200Z 25006KT CAVOK 19/11 Q1016=
SA	29/04/2025 11:00->	
METAR SBFL 291100Z 27005KT CAVOK 17/12 Q1015=
SA	29/04/2025 10:00->	
METAR SBFL 291000Z 33001KT CAVOK 14/11 Q1014=
SA	29/04/2025 09:00->	
METAR SBFL 290900Z 33004KT CAVOK 15/12 Q1014=
SA	29/04/2025 08:00->	
METAR SBFL 290800Z 25006KT CAVOK 15/12 Q1014=
SA	29/04/2025 07:00->	
METAR SBFL 290700Z 26006KT CAVOK 16/13 Q1014=
SA	29/04/2025 06:00->	
METAR SBFL 290600Z 27005KT CAVOK 15/14 Q1014=
SA	29/04/2025 05:00->	
METAR SBFL 290500Z 30001KT CAVOK 16/13 Q1014=
SA	29/04/2025 04:00->	
METAR SBFL 290400Z 27004KT CAVOK 17/15 Q1014=
SA	29/04/2025 03:00->	
METAR SBFL 290300Z 28002KT CAVOK 18/16 Q1014=
SA	29/04/2025 02:00->	
METAR SBFL 290200Z 25005KT CAVOK 16/15 Q1013=
SA	29/04/2025 01:00->	
METAR SBFL 290100Z 21002KT CAVOK 18/13 Q1013=
SA	29/04/2025 00:00->	
METAR SBFL 290000Z 15005KT CAVOK 19/13 Q1013=
SA	28/04/2025 23:51->	
METAR SBFL 290000Z 15005KT CAVOK 19/13 Q1013=
SA	28/04/2025 23:00->	
METAR SBFL 282300Z 17005KT 130V210 9999 FEW045 20/13 Q1012=
SA	28/04/2025 22:00->	
METAR SBFL 282200Z 16006KT 9999 FEW045 20/13 Q1012=
SA	28/04/2025 21:00->	
METAR SBFL 282100Z 11005KT 9999 FEW045 20/14 Q1011=
SA	28/04/2025 20:00->	
METAR SBFL 282000Z 11007KT 9999 BKN040 21/14 Q1011=
SA	28/04/2025 19:00->	
METAR SBFL 281900Z 13010KT 9999 SCT040 23/14 Q1011=
SA	28/04/2025 18:00->	
METAR SBFL 281800Z 14014KT 9999 SCT040 23/14 Q1011=
SA	28/04/2025 17:00->	
METAR SBFL 281700Z 13011KT 9999 SCT040 24/16 Q1011=
SA	28/04/2025 16:00->	
METAR SBFL 281600Z 14013KT 9999 SCT033 24/16 Q1011=
SA	28/04/2025 15:00->	
METAR SBFL 281500Z 19012KT 9999 FEW025 23/16 Q1012=
SA	28/04/2025 14:00->	
METAR SBFL 281400Z 19010KT 9999 FEW025 23/17 Q1012=
SA	28/04/2025 13:00->	
METAR SBFL 281300Z 18011KT CAVOK 22/16 Q1012=
SA	28/04/2025 12:00->	
METAR SBFL 281200Z 17010KT CAVOK 21/16 Q1012=
SA	28/04/2025 11:00->	
METAR SBFL 281100Z 17012KT 9999 FEW018 SCT070 20/16 Q1011=
SA	28/04/2025 10:00->	
METAR SBFL 281000Z 17007KT 9999 FEW018 BKN070 21/16 Q1010=
SA	28/04/2025 09:00->	
METAR SBFL 280900Z 17004KT 080V240 9999 SCT018 OVC070 21/16 Q1010=
SA	28/04/2025 08:00->	
METAR SBFL 280800Z 18008KT 140V200 9999 SCT017 OVC063 21/17 Q1010=
SA	28/04/2025 07:00->	
METAR SBFL 280700Z VRB02KT 9999 SCT018 OVC060 20/17 Q1009=
SA	28/04/2025 06:00->	
METAR SBFL 280600Z 11006KT 070V150 9999 SCT018 OVC050 20/17 Q1010=
SA	28/04/2025 05:00->	
METAR SBFL 280500Z 19012G22KT 160V270 9999 SCT018 SCT040 OVC047 20/16 Q1010=
SP	28/04/2025 04:12->	
SPECI SBFL 280412Z 18015KT 9999 -RA SCT015 SCT025 OVC040 20/18 Q1010 RERA=
SA	28/04/2025 04:00->	
METAR SBFL 280400Z 18012G22KT 4000 RA BKN015 SCT020 OVC028 20/19 Q1011=
SA	28/04/2025 03:00->	
METAR SBFL 280300Z VRB02KT 9999 SCT013 SCT030 BKN090 22/21 Q1010=
SA	28/04/2025 02:00->	
METAR SBFL 280200Z 26003KT 9999 FEW015 SCT035 BKN090 22/21 Q1009=
SA	28/04/2025 01:00->	
METAR SBFL 280100Z VRB02KT 9000 -RA FEW016 BKN100 22/21 Q1009=
SA	28/04/2025 00:00->	
METAR SBFL 280000Z 33003KT 9999 FEW016 SCT100 23/21 Q1009=
SA	27/04/2025 23:53->	
METAR SBFL 280000Z 33003KT 9999 FEW016 SCT100 23/21 Q1009=
SA	27/04/2025 23:00->	
METAR SBFL 272300Z 34005KT 9999 SCT016 23/21 Q1008=
SA	27/04/2025 22:00->	
METAR SBFL 272200Z 25004KT 9999 FEW016 22/20 Q1008=
SA	27/04/2025 21:00->	
METAR SBFL 272100Z 13003KT CAVOK 22/20 Q1008=
SA	27/04/2025 20:00->	
METAR SBFL 272000Z 14006KT 9999 FEW032 23/20 Q1009=
SA	27/04/2025 19:00->	
METAR SBFL 271900Z 10008KT 9999 FEW032 24/20 Q1009=
SA	27/04/2025 18:00->	
METAR SBFL 271800Z 11009KT 9999 FEW032 25/20 Q1010=
SA	27/04/2025 17:00->	
METAR SBFL 271700Z 12009KT 080V160 9999 FEW032 26/19 Q1010=
SA	27/04/2025 16:00->	
METAR SBFL 271600Z 11009KT 9999 FEW030 26/19 Q1011=
SA	27/04/2025 15:00->	
METAR SBFL 271500Z 09008KT CAVOK 27/19 Q1012=
SA	27/04/2025 14:00->	
METAR SBFL 271400Z 30003KT 240V040 CAVOK 26/18 Q1013=
SA	27/04/2025 13:00->	
METAR SBFL 271300Z VRB02KT CAVOK 24/18 Q1013=
SA	27/04/2025 12:00->	
METAR SBFL 271200Z 28004KT 240V320 CAVOK 22/19 Q1013=
SA	27/04/2025 11:00->	
METAR SBFL 271100Z 27004KT CAVOK 21/19 Q1012=
SA	27/04/2025 10:00->	
METAR SBFL 271000Z 28003KT CAVOK 20/18 Q1012=
SA	27/04/2025 09:00->	
METAR SBFL 270900Z 32004KT CAVOK 20/19 Q1012=
SA	27/04/2025 08:00->	
METAR SBFL 270800Z 30006KT CAVOK 20/19 Q1011=
SA	27/04/2025 07:00->	
METAR SBFL 270700Z 30005KT CAVOK 20/19 Q1012=
SA	27/04/2025 06:00->	
METAR SBFL 270600Z 28004KT CAVOK 21/20 Q1012=
SA	27/04/2025 05:00->	
METAR SBFL 270500Z 28004KT 9999 FEW009 21/20 Q1012=
SA	27/04/2025 04:00->	
METAR SBFL 270400Z 31005KT 9999 FEW009 21/20 Q1012=
SA	27/04/2025 03:00->	
METAR SBFL 270300Z 34003KT CAVOK 22/20 Q1012=
SA	27/04/2025 02:00->	
METAR SBFL 270200Z 34005KT 9999 SCT013 BKN080 23/21 Q1012=
SA	27/04/2025 01:00->	
METAR SBFL 270100Z 36006KT 9999 SCT013 BKN080 23/21 Q1012=
SA	27/04/2025 00:00->	
METAR SBFL 270000Z 01004KT CAVOK 23/20 Q1012=
SA	26/04/2025 23:50->	
METAR SBFL 270000Z 01004KT CAVOK 23/20 Q1012=
SA	26/04/2025 23:00->	
METAR SBFL 262300Z 32003KT 290V360 CAVOK 22/20 Q1012=
SA	26/04/2025 22:00->	
METAR SBFL 262200Z 01007KT 9999 FEW035 23/20 Q1011=
SA	26/04/2025 21:00->	
METAR SBFL 262100Z 01006KT 9999 FEW040 24/20 Q1010=
SA	26/04/2025 20:00->	
METAR SBFL 262000Z 36010KT CAVOK 25/20 Q1010=
SA	26/04/2025 19:00->	
METAR SBFL 261900Z 01011KT 9999 FEW040 BKN100 26/20 Q1010=
SA	26/04/2025 18:00->	
METAR SBFL 261800Z 01012KT 9999 FEW048 27/19 Q1010=
SA	26/04/2025 17:00->	
METAR SBFL 261700Z 35011KT 9999 FEW048 SCT100 28/19 Q1010=
SA	26/04/2025 16:00->	
METAR SBFL 261600Z 35012KT 9999 FEW048 SCT100 27/20 Q1011=
SA	26/04/2025 15:00->	
METAR SBFL 261500Z 35011KT 9999 FEW048 SCT100 25/19 Q1012=
SA	26/04/2025 14:00->	
METAR SBFL 261400Z 33009KT 290V350 9999 BKN048 24/19 Q1013=
SA	26/04/2025 13:00->	
METAR SBFL 261300Z 31009KT 9999 BKN048 23/18 Q1014=
SA	26/04/2025 12:00->	
METAR SBFL 261200Z 32006KT 9999 BKN036 22/19 Q1013=
SA	26/04/2025 11:00->	
METAR SBFL 261100Z 28002KT 9999 BKN030 21/18 Q1013=
SA	26/04/2025 10:00->	
METAR SBFL 261000Z 32003KT 9999 BKN040 19/18 Q1012=
SA	26/04/2025 09:00->	
METAR SBFL 260900Z 35005KT 310V040 9999 FEW015 20/18 Q1011=
SA	26/04/2025 08:00->	
METAR SBFL 260800Z 31006KT 9999 FEW020 19/17 Q1011=
SA	26/04/2025 07:00->	
METAR SBFL 260700Z 34005KT 9999 SCT020 19/18 Q1011=
SA	26/04/2025 06:00->	
METAR SBFL 260600Z 29005KT 9999 FEW015 BKN018 19/17 Q1012=
SA	26/04/2025 05:00->	
METAR SBFL 260500Z 25006KT 9000 SCT008 BKN015 19/17 Q1012=
SA	26/04/2025 04:00->	
METAR SBFL 260400Z 24003KT 9999 SCT011 19/18 Q1013=
SA	26/04/2025 03:00->	
METAR SBFL 260300Z 32002KT 9999 SCT011 20/18 Q1012=
SA	26/04/2025 02:00->	
METAR SBFL 260200Z 26004KT 9999 SCT015 19/18 Q1013=
SA	26/04/2025 01:06->	
METAR SBFL 260106Z 32002KT 9000 BKN015 19/18 Q1013=
SP	26/04/2025 01:06->	
SPECI SBFL 260106Z 32002KT 9000 BKN015 19/18 Q1013=
SA	26/04/2025 01:00->	
METAR SBFL 260100Z 26002KT 9000 BKN011 19/18 Q1013=
SA	26/04/2025 00:00->	
METAR SBFL 260000Z 30001KT 9999 FEW012 20/19 Q1013=
SA	25/04/2025 23:55->	
METAR SBFL 260000Z 30001KT 9999 FEW012 20/19 Q1013=
SA	25/04/2025 23:00->	
METAR SBFL 252300Z 11002KT 9999 FEW012 21/19 Q1012=
SA	25/04/2025 22:00->	
METAR SBFL 252200Z 15005KT CAVOK 22/19 Q1012=
SA	25/04/2025 21:00->	
METAR SBFL 252100Z 13006KT 9999 FEW016 22/20 Q1011=
SA	25/04/2025 20:00->	
METAR SBFL 252000Z 12009KT 9999 FEW033 23/20 Q1011=
SA	25/04/2025 19:00->	
METAR SBFL 251900Z 12011KT 9999 FEW040 24/20 Q1011=
SA	25/04/2025 18:00->	
METAR SBFL 251800Z 11013KT 9999 FEW040 25/19 Q1011=
SA	25/04/2025 17:00->	
METAR SBFL 251700Z 11012KT 9999 FEW030 27/18 Q1011=
SA	25/04/2025 16:00->	
METAR SBFL 251600Z 11008KT 9999 FEW030 27/17 Q1011=
SA	25/04/2025 15:00->	
METAR SBFL 251500Z 13007KT 9999 FEW015 26/17 Q1012=
SA	25/04/2025 14:00->	
METAR SBFL 251400Z 34003KT 9999 FEW012 25/18 Q1012=
SA	25/04/2025 13:00->	
METAR SBFL 251300Z 31004KT 270V350 CAVOK 24/18 Q1012=
SA	25/04/2025 12:00->	
METAR SBFL 251200Z 27003KT CAVOK 22/17 Q1012=
SA	25/04/2025 11:00->	
METAR SBFL 251100Z 28004KT CAVOK 20/17 Q1012=
SA	25/04/2025 10:00->	
METAR SBFL 251000Z VRB01KT CAVOK 19/16 Q1011=
SA	25/04/2025 09:00->	
METAR SBFL 250900Z 22002KT CAVOK 19/16 Q1011=
SA	25/04/2025 08:00->	
METAR SBFL 250800Z 22005KT CAVOK 20/17 Q1011=
SA	25/04/2025 07:00->	
METAR SBFL 250700Z 18001KT CAVOK 20/17 Q1010=
SA	25/04/2025 06:00->	
METAR SBFL 250600Z 00000KT CAVOK 20/17 Q1011=
SA	25/04/2025 05:00->	
METAR SBFL 250500Z 13001KT CAVOK 21/17 Q1011=
SA	25/04/2025 04:00->	
METAR SBFL 250400Z 15005KT CAVOK 23/15 Q1011=
SA	25/04/2025 03:00->	
METAR SBFL 250300Z 11004KT CAVOK 22/16 Q1011=
SA	25/04/2025 02:00->	
METAR SBFL 250200Z 08006KT CAVOK 23/17 Q1011=
SA	25/04/2025 01:00->	
METAR SBFL 250100Z 15004KT 070V240 CAVOK 23/18 Q1011=
SA	25/04/2025 00:00->	
METAR SBFL 250000Z VRB05KT CAVOK 23/18 Q1011=
SA	24/04/2025 23:55->	
METAR SBFL 250000Z VRB05KT CAVOK 23/18 Q1011=
SA	24/04/2025 23:00->	
METAR SBFL 242300Z VRB01KT CAVOK 21/18 Q1010=
SA	24/04/2025 22:00->	
METAR SBFL 242200Z 19003KT CAVOK 21/19 Q1009=
SA	24/04/2025 21:00->	
METAR SBFL 242100Z VRB02KT CAVOK 23/19 Q1010=
SA	24/04/2025 20:00->	
METAR SBFL 242000Z 32003KT 300V010 CAVOK 24/18 Q1010=
SA	24/04/2025 19:00->	
METAR SBFL 241900Z 34005KT CAVOK 24/18 Q1010=
SA	24/04/2025 18:00->	
METAR SBFL 241800Z 33004KT CAVOK 25/18 Q1011=
SA	24/04/2025 17:00->	
METAR SBFL 241700Z 34006KT CAVOK 25/18 Q1011=
SA	24/04/2025 16:00->	
METAR SBFL 241600Z 34008KT CAVOK 25/18 Q1011=
SA	24/04/2025 15:00->	
METAR SBFL 241500Z 34007KT CAVOK 24/18 Q1012=
SA	24/04/2025 14:00->	
METAR SBFL 241400Z 31005KT CAVOK 23/17 Q1013=
SA	24/04/2025 13:00->	
METAR SBFL 241300Z 30006KT CAVOK 22/17 Q1013=
SA	24/04/2025 12:00->	
METAR SBFL 241200Z 28005KT CAVOK 21/17 Q1013=
SA	24/04/2025 11:00->	
METAR SBFL 241100Z 30005KT CAVOK 21/18 Q1013=
SA	24/04/2025 10:00->	
METAR SBFL 241000Z 35004KT CAVOK 19/17 Q1013=
SA	24/04/2025 09:00->	
METAR SBFL 240900Z 33007KT CAVOK 20/17 Q1013=
SA	24/04/2025 08:00->	
METAR SBFL 240800Z 30007KT CAVOK 20/17 Q1012=
SA	24/04/2025 07:00->	
METAR SBFL 240700Z 33007KT CAVOK 19/17 Q1013=
SA	24/04/2025 06:00->	
METAR SBFL 240600Z 32006KT CAVOK 19/18 Q1013=
SA	24/04/2025 05:00->	
METAR SBFL 240500Z 31008KT CAVOK 19/18 Q1014=
SA	24/04/2025 04:00->	
METAR SBFL 240400Z 30007KT CAVOK 20/18 Q1015=
SA	24/04/2025 03:00->	
METAR SBFL 240300Z 30006KT CAVOK 20/18 Q1015=
SA	24/04/2025 02:00->	
METAR SBFL 240200Z 32007KT CAVOK 21/18 Q1015=
SA	24/04/2025 01:00->	
METAR SBFL 240100Z 33006KT CAVOK 21/19 Q1015=
SA	24/04/2025 00:00->	
METAR SBFL 240000Z 35006KT CAVOK 22/18 Q1014=
SA	23/04/2025 23:51->	
METAR SBFL 240000Z 35006KT CAVOK 22/18 Q1014=
SA	23/04/2025 23:00->	
METAR SBFL 232300Z 34005KT 230V010 CAVOK 22/18 Q1014=
SA	23/04/2025 22:00->	
METAR SBFL 232200Z 35009KT 9999 FEW025 22/17 Q1014=
SA	23/04/2025 21:00->	
METAR SBFL 232100Z 36010KT 9999 FEW025 23/17 Q1014=
SA	23/04/2025 20:00->	
METAR SBFL 232000Z 36011KT CAVOK 24/16 Q1014=
SA	23/04/2025 19:00->	
METAR SBFL 231900Z 01011KT 9999 FEW030 25/16 Q1013=
SA	23/04/2025 18:00->	
METAR SBFL 231800Z 36011KT 9999 FEW030 26/17 Q1013=
SA	23/04/2025 17:00->	
METAR SBFL 231700Z 36011KT 9999 FEW030 26/17 Q1013=
SA	23/04/2025 16:00->	
METAR SBFL 231600Z 35011KT CAVOK 26/17 Q1014=
SA	23/04/2025 15:00->	
METAR SBFL 231500Z 35012KT CAVOK 25/16 Q1015=
SA	23/04/2025 14:00->	
METAR SBFL 231400Z 35009KT CAVOK 24/17 Q1016=
SA	23/04/2025 13:00->	
METAR SBFL 231300Z 33008KT CAVOK 23/18 Q1017=
SA	23/04/2025 12:00->	
METAR SBFL 231200Z 35009KT CAVOK 22/17 Q1017=
SA	23/04/2025 11:00->	
METAR SBFL 231100Z 36006KT CAVOK 20/18 Q1016=
SA	23/04/2025 10:00->	
METAR SBFL 231000Z 31005KT CAVOK 18/16 Q1016=
SA	23/04/2025 09:00->	
METAR SBFL 230900Z 34006KT CAVOK 18/16 Q1016=
SA	23/04/2025 08:00->	
METAR SBFL 230800Z 32005KT 9999 FEW020 18/17 Q1015=
SA	23/04/2025 07:00->	
METAR SBFL 230700Z 33005KT 9999 SCT020 18/17 Q1015=
SA	23/04/2025 06:00->	
METAR SBFL 230600Z 28004KT 9999 FEW015 SCT022 19/17 Q1015=
SA	23/04/2025 05:00->	
METAR SBFL 230500Z VRB01KT 9999 FEW022 19/17 Q1016=
SA	23/04/2025 04:00->	
METAR SBFL 230400Z 26003KT 210V280 9999 SCT022 18/17 Q1016=
SA	23/04/2025 03:00->	
METAR SBFL 230300Z 34003KT 9999 FEW048 18/16 Q1016=
SA	23/04/2025 02:00->	
METAR SBFL 230200Z VRB01KT 9999 SCT047 18/17 Q1017=
SA	23/04/2025 01:00->	
METAR SBFL 230100Z 11003KT 9999 SCT047 20/17 Q1017=
SA	23/04/2025 00:00->	
METAR SBFL 230000Z 11004KT 9999 FEW035 SCT045 20/17 Q1016=
SA	22/04/2025 23:51->	
METAR SBFL 230000Z 11004KT 9999 FEW035 SCT045 20/17 Q1016=
SA	22/04/2025 23:00->	
METAR SBFL 222300Z 12004KT 9999 SCT033 20/17 Q1016=
SA	22/04/2025 22:00->	
METAR SBFL 222200Z 12007KT 9999 SCT033 20/17 Q1016=
SA	22/04/2025 21:00->	
METAR SBFL 222100Z 10007KT 9999 SCT033 21/17 Q1015=
SA	22/04/2025 20:00->	
METAR SBFL 222000Z 09009KT 9999 SCT033 22/17 Q1015=
SA	22/04/2025 19:00->	
METAR SBFL 221900Z 11010KT 9999 SCT033 23/17 Q1016=
SA	22/04/2025 18:00->	
METAR SBFL 221800Z 12009KT 9999 SCT033 23/17 Q1016=
SA	22/04/2025 17:00->	
METAR SBFL 221700Z 12007KT 9999 FEW033 24/17 Q1016=
SA	22/04/2025 16:00->	
METAR SBFL 221600Z 11007KT 060V150 9999 FEW033 23/15 Q1017=
SA	22/04/2025 15:00->	
METAR SBFL 221500Z 14006KT 080V210 9999 FEW025 24/16 Q1018=
SA	22/04/2025 14:00->	
METAR SBFL 221400Z 18002KT 9999 FEW025 23/15 Q1018=
SA	22/04/2025 13:00->	
METAR SBFL 221300Z 31004KT 270V350 CAVOK 21/14 Q1019=
SA	22/04/2025 12:00->	
METAR SBFL 221200Z 32004KT 210V010 CAVOK 19/14 Q1018=
SA	22/04/2025 11:00->	
METAR SBFL 221100Z 32003KT 270V020 CAVOK 18/14 Q1018=
SA	22/04/2025 10:00->	
METAR SBFL 221000Z 30006KT CAVOK 15/12 Q1017=
SA	22/04/2025 09:00->	
METAR SBFL 220900Z 29006KT CAVOK 15/12 Q1017=
SA	22/04/2025 08:00->	
METAR SBFL 220800Z 29007KT CAVOK 16/13 Q1017=
SA	22/04/2025 07:00->	
METAR SBFL 220700Z 28008KT CAVOK 17/13 Q1016=
SA	22/04/2025 06:00->	
METAR SBFL 220600Z 28006KT CAVOK 17/14 Q1017=
SA	22/04/2025 05:00->	
METAR SBFL 220500Z 28007KT CAVOK 17/14 Q1017=
SA	22/04/2025 04:00->	
METAR SBFL 220400Z 25006KT CAVOK 17/14 Q1017=
SA	22/04/2025 03:00->	
METAR SBFL 220300Z 25007KT CAVOK 17/15 Q1017=
SA	22/04/2025 02:00->	
METAR SBFL 220200Z 21006KT CAVOK 18/14 Q1017=
SA	22/04/2025 01:00->	
METAR SBFL 220100Z 20006KT CAVOK 18/13 Q1017=
SA	22/04/2025 00:00->	
METAR SBFL 220000Z 18007KT CAVOK 18/14 Q1017=
SA	21/04/2025 23:56->	
METAR SBFL 220000Z 18007KT CAVOK 18/14 Q1017=
SA	21/04/2025 23:00->	
METAR SBFL 212300Z 21006KT 9999 FEW036 18/15 Q1017=
SA	21/04/2025 22:00->	
METAR SBFL 212200Z 16003KT 120V220 9999 FEW048 18/15 Q1016=
SA	21/04/2025 21:00->	
METAR SBFL 212100Z 15005KT 9999 FEW040 SCT060 20/15 Q1015=
SA	21/04/2025 20:00->	
METAR SBFL 212000Z 16006KT 9999 BKN048 22/15 Q1016=
SA	21/04/2025 19:00->	
METAR SBFL 211900Z 18003KT 9999 BKN040 22/15 Q1015=
SA	21/04/2025 18:00->	
METAR SBFL 211800Z VRB02KT 9999 BKN037 22/14 Q1016=
SA	21/04/2025 17:00->	
METAR SBFL 211700Z VRB02KT 9999 FEW025 BKN035 22/14 Q1015=
SA	21/04/2025 16:00->	
METAR SBFL 211600Z 20005KT 160V220 9999 FEW025 BKN033 21/14 Q1016=
SA	21/04/2025 15:00->	
METAR SBFL 211500Z 19007KT 9999 OVC036 21/13 Q1017=
SA	21/04/2025 14:00->	
METAR SBFL 211400Z 17004KT 9999 OVC036 21/13 Q1017=
SA	21/04/2025 13:00->	
METAR SBFL 211300Z 27003KT 9999 OVC040 21/15 Q1018=
SA	21/04/2025 12:00->	
METAR SBFL 211200Z 25003KT 220V280 9999 OVC040 20/14 Q1018=
SA	21/04/2025 11:00->	
METAR SBFL 211100Z 25004KT 9999 OVC040 19/14 Q1017=
SA	21/04/2025 10:00->	
METAR SBFL 211000Z 26003KT 9999 OVC040 18/14 Q1016=
SA	21/04/2025 09:00->	
METAR SBFL 210900Z VRB02KT 9999 OVC040 19/14 Q1016=
SA	21/04/2025 08:00->	
METAR SBFL 210800Z VRB02KT 9999 OVC043 19/14 Q1015=
SA	21/04/2025 07:00->	
METAR SBFL 210700Z 19003KT 160V230 9999 OVC040 20/12 Q1015=
SA	21/04/2025 06:00->	
METAR SBFL 210600Z 21004KT 9999 OVC043 19/13 Q1015=
SA	21/04/2025 05:00->	
METAR SBFL 210500Z 19003KT 9999 OVC043 19/12 Q1016=
SA	21/04/2025 04:00->	
METAR SBFL 210400Z 20003KT 9999 OVC043 19/12 Q1016=
SA	21/04/2025 03:00->	
METAR SBFL 210300Z 17004KT 9999 OVC036 20/12 Q1016=
SA	21/04/2025 02:00->	
METAR SBFL 210200Z 19007KT 9999 OVC036 20/12 Q1017=
SA	21/04/2025 01:00->	
METAR SBFL 210100Z 17006KT 130V200 9999 OVC040 20/13 Q1017=
SA	21/04/2025 00:00->	
METAR SBFL 210000Z 16006KT 130V200 9999 OVC036 20/13 Q1017=
SA	20/04/2025 23:57->	
METAR SBFL 210000Z 16006KT 130V200 9999 OVC036 20/13 Q1017=
SA	20/04/2025 23:00->	
METAR SBFL 202300Z 18009KT 9999 OVC040 20/13 Q1016=
SA	20/04/2025 22:00->	
METAR SBFL 202200Z 16007KT 9999 BKN048 20/13 Q1016=
SA	20/04/2025 21:00->	
METAR SBFL 202100Z 15009KT 9999 BKN043 21/14 Q1015=
SA	20/04/2025 20:00->	
METAR SBFL 202000Z 20011KT 9999 BKN043 21/14 Q1015=
SA	20/04/2025 19:00->	
METAR SBFL 201900Z 14013KT 9999 BKN043 21/13 Q1015=
SA	20/04/2025 18:00->	
METAR SBFL 201800Z 14012KT 9999 BKN043 22/12 Q1015=
SA	20/04/2025 17:00->	
METAR SBFL 201700Z 14011KT 9999 BKN043 22/12 Q1015=
SA	20/04/2025 16:00->	
METAR SBFL 201600Z 13010KT 100V160 9999 FEW045 24/13 Q1015=
SA	20/04/2025 15:00->	
METAR SBFL 201500Z 20010KT 9999 SCT035 23/12 Q1016=
SA	20/04/2025 14:00->	
METAR SBFL 201400Z 19010KT 150V220 9999 SCT045 22/10 Q1017=
SA	20/04/2025 13:00->	
METAR SBFL 201300Z 19012KT 9999 FEW025 SCT050 21/11 Q1017=
SA	20/04/2025 12:00->	
METAR SBFL 201200Z 18009KT 150V210 9999 FEW020 SCT050 20/11 Q1017=
SA	20/04/2025 11:00->	
METAR SBFL 201100Z 18008KT 150V210 9999 FEW025 SCT060 20/13 Q1017=
SA	20/04/2025 10:00->	
METAR SBFL 201000Z 19006KT 9999 FEW030 SCT055 19/14 Q1016=
SA	20/04/2025 09:00->	
METAR SBFL 200900Z 19008KT 9999 FEW030 BKN055 19/14 Q1016=
SA	20/04/2025 08:00->	
METAR SBFL 200800Z 20006KT 150V250 9999 FEW030 BKN055 19/14 Q1016=
SA	20/04/2025 07:00->	
METAR SBFL 200700Z VRB01KT 9999 FEW040 BKN055 20/14 Q1016=
SA	20/04/2025 06:00->	
METAR SBFL 200600Z 17005KT 9999 FEW045 BKN060 20/14 Q1016=
SA	20/04/2025 05:00->	
METAR SBFL 200500Z 18009KT 9999 FEW045 BKN060 20/15 Q1016=
SA	20/04/2025 04:00->	
METAR SBFL 200400Z 19012KT 9999 FEW045 BKN070 20/15 Q1016=
SA	20/04/2025 03:00->	
METAR SBFL 200300Z 19013G23KT 9999 FEW015 BKN070 20/16 Q1016=
SP	20/04/2025 02:12->	
SPECI SBFL 200212Z 19015G25KT 9999 FEW015 BKN070 20/16 Q1016=
SA	20/04/2025 02:00->	
METAR SBFL 200200Z 19014KT 9999 FEW015 BKN070 20/17 Q1016=
SA	20/04/2025 01:00->	
METAR SBFL 200100Z 19013KT 9999 FEW015 SCT035 BKN060 20/17 Q1016=
SA	20/04/2025 00:00->	
METAR SBFL 200000Z 19013G23KT 9999 SCT030 BKN050 21/17 Q1015=