SA	21/11/2024 00:00->	
METAR SBFL 210000Z 13010KT 6000 -DZ BKN014 OVC025 19/17 Q1018=
SA	20/11/2024 23:54->	
METAR SBFL 210000Z 13010KT 6000 -DZ BKN014 OVC025 19/17 Q1018=
SA	20/11/2024 23:00->	
METAR SBFL 202300Z 12017KT 5000 -RA BKN007 OVC074 18/17 Q1018=
SA	20/11/2024 22:00->	
METAR SBFL 202200Z 15013KT 7000 BKN011 OVC074 18/17 Q1017=
SA	20/11/2024 21:00->	
METAR SBFL 202100Z 15012KT 120V190 3000 -DZ OVC012 19/17 Q1017=
SA	20/11/2024 20:00->	
METAR SBFL 202000Z 16012G23KT 3500 BR BKN008 OVC018 18/16 Q1017=
SA	20/11/2024 19:00->	
METAR SBFL 201900Z 16017G27KT 4000 BR BKN010 OVC050 18/17 Q1017=
SA	20/11/2024 18:00->	
METAR SBFL 201800Z 16014G28KT 3500 -DZ BKN005 BKN014 OVC046 19/17 Q1016=
SP	20/11/2024 17:05->	
SPECI SBFL 201705Z 18016G28KT 150V210 3500 -DZ FEW005 SCT015 OVC036 19/18 Q1016=
SA	20/11/2024 17:00->	
METAR SBFL 201700Z 19024G35KT 3500 -RA BR BKN005 OVC030 19/18 Q1015 RERA=
SA	20/11/2024 16:00->	
METAR SBFL 201600Z 20022G32KT 1500 R14/P2000 R32/2000 RA BR BKN006 OVC020 20/19 Q1014=
SP	20/11/2024 15:26->	
SPECI SBFL 201526Z 22016G26KT 180V250 1500 R32/P2000 R14/P2000 RA BR BKN004 OVC014 21/19 Q1014=
SA	20/11/2024 15:00->	
METAR SBFL 201500Z 23004KT 4000 -RA BR SCT004 BKN006 OVC030 21/21 Q1014=
SA	20/11/2024 14:00->	
METAR SBFL 201400Z 23006KT 3500 -RA BR BKN006 OVC021 22/21 Q1014=
SA	20/11/2024 13:06->	
METAR SBFL 201306Z 32003KT 4000 -RA BKN007 OVC027 22/21 Q1014=
SP	20/11/2024 13:06->	
SPECI SBFL 201306Z 32003KT 4000 -RA BKN007 OVC027 22/21 Q1014=
SA	20/11/2024 13:00->	
METAR SBFL 201300Z 27003KT 240V310 9000 -DZ BKN007 OVC027 22/21 Q1014=
SA	20/11/2024 12:00->	
METAR SBFL 201200Z 23005KT 190V270 6000 -RA BKN005 BKN016 OVC025 21/21 Q1014=
SA	20/11/2024 11:00->	
METAR SBFL 201100Z 21007KT 6000 -RA BKN010 OVC016 21/21 Q1014 RERA=
SP	20/11/2024 10:41->	
SPECI SBFL 201041Z 21007KT 170V290 6000 -RA BKN010 OVC016 21/21 Q1014 RERA=
SA	20/11/2024 10:00->	
METAR SBFL 201000Z 21008KT 1500 RA BR BKN010 OVC015 21/21 Q1013=
SP	20/11/2024 09:42->	
SPECI SBFL 200942Z 20007KT 1500 RA BR BKN010 OVC015 21/21 Q1013 RERA=
SP	20/11/2024 09:10->	
SPECI SBFL 200910Z 21007KT 0600 +RA FG BKN007 OVC015 21/21 Q1013 RERA=
SA	20/11/2024 09:05->	
METAR SBFL 200905Z 21008KT 0800 RA FG BKN007 OVC015 21/21 Q1013=
SP	20/11/2024 09:05->	
SPECI SBFL 200905Z 21008KT 0800 RA FG BKN007 OVC015 21/21 Q1013=
SA	20/11/2024 09:00->	
METAR SBFL 200900Z 20009KT 2000 -RA BR BKN007 OVC015 21/21 Q1013=
SA	20/11/2024 08:00->	
METAR SBFL 200800Z 19009KT 4000 -RA BR BKN005 OVC010 21/21 Q1013=
SA	20/11/2024 07:00->	
METAR SBFL 200700Z 16008KT 4500 -RA BR BKN005 OVC010 21/21 Q1013=
SA	20/11/2024 06:00->	
METAR SBFL 200600Z 13010KT 4000 -RA BR BKN005 OVC014 21/21 Q1013=
SA	20/11/2024 05:00->	
METAR SBFL 200500Z 11009KT 4000 -RA BR BKN008 OVC014 21/20 Q1013=
SA	20/11/2024 04:00->	
METAR SBFL 200400Z 11007KT 4000 -RA BR BKN008 OVC014 22/21 Q1014=
SA	20/11/2024 03:00->	
METAR SBFL 200300Z 12005KT 4000 -RA BR BKN008 OVC014 22/20 Q1015=
SA	20/11/2024 02:00->	
METAR SBFL 200200Z 12007KT 4500 -RA BR BKN008 OVC014 21/21 Q1015=
SA	20/11/2024 01:00->	
METAR SBFL 200100Z 12011KT 4000 -RA BR BKN009 OVC014 22/21 Q1015=
SA	20/11/2024 00:00->	
METAR SBFL 200000Z 12011KT 8000 -RA SCT010 OVC014 22/21 Q1014=
SA	19/11/2024 23:51->	
METAR SBFL 200000Z 12011KT 8000 -RA SCT010 OVC014 22/21 Q1014=
SA	19/11/2024 23:00->	
METAR SBFL 192300Z 12007KT 4000 -RA BKN012 OVC015 22/21 Q1014 RERA=
SP	19/11/2024 22:26->	
SPECI SBFL 192226Z 16005KT 100V210 3500 -RA BR OVC005 22/21 Q1014 RERA=
SA	19/11/2024 22:00->	
METAR SBFL 192200Z 14008KT 2000 RA OVC005 22/20 Q1014=
SP	19/11/2024 21:31->	
SPECI SBFL 192131Z 13008KT 2000 RA BR OVC005 22/21 Q1014=
SA	19/11/2024 21:00->	
METAR SBFL 192100Z 16006KT 4000 -RA BR BKN006 OVC013 22/21 Q1013=
SP	19/11/2024 20:32->	
SPECI SBFL 192032Z 17006KT 130V240 5000 -RA BKN006 OVC013 22/21 Q1013=
SP	19/11/2024 20:20->	
SPECI SBFL 192020Z 17007KT 120V210 3500 -RA BKN012 OVC015 22/21 Q1013=
SA	19/11/2024 20:00->	
METAR SBFL 192000Z 15006KT 9999 BKN014 BKN020 23/20 Q1013=
SA	19/11/2024 19:00->	
METAR SBFL 191900Z 14011KT 110V170 9999 BKN011 BKN020 23/21 Q1013=
SP	19/11/2024 18:36->	
SPECI SBFL 191836Z 15011KT 120V180 9999 BKN014 BKN020 23/20 Q1013=
SA	19/11/2024 18:00->	
METAR SBFL 191800Z 14010KT 120V180 9999 SCT020 BKN060 24/22 Q1014=
SA	19/11/2024 17:00->	
METAR SBFL 191700Z 15012KT 9999 FEW033 BKN050 25/21 Q1014=
SA	19/11/2024 16:00->	
METAR SBFL 191600Z 14015KT 110V170 9999 FEW033 BKN050 26/21 Q1014=
SA	19/11/2024 15:00->	
METAR SBFL 191500Z 14013KT 9999 FEW033 BKN050 27/21 Q1014=
SA	19/11/2024 14:00->	
METAR SBFL 191400Z 19012KT 9999 SCT033 BKN050 27/20 Q1014=
SA	19/11/2024 13:00->	
METAR SBFL 191300Z 18010KT 9999 SCT033 BKN050 25/20 Q1015=
SA	19/11/2024 12:00->	
METAR SBFL 191200Z 18011KT 9999 SCT033 BKN050 25/20 Q1014=
SA	19/11/2024 11:00->	
METAR SBFL 191100Z 20012KT 9999 SCT033 24/21 Q1014=
SA	19/11/2024 10:00->	
METAR SBFL 191000Z 19010KT 9999 BKN033 23/21 Q1014=
SA	19/11/2024 09:00->	
METAR SBFL 190900Z 19007KT 9999 SCT027 BKN036 24/20 Q1013=
SA	19/11/2024 08:00->	
METAR SBFL 190800Z 18006KT 140V220 9999 OVC030 24/20 Q1013=
SA	19/11/2024 07:00->	
METAR SBFL 190700Z 16008KT 9999 OVC030 24/20 Q1012=
SA	19/11/2024 06:00->	
METAR SBFL 190600Z 15007KT 130V190 9999 OVC034 24/20 Q1012=
SA	19/11/2024 05:00->	
METAR SBFL 190500Z 12009KT 9999 OVC033 23/20 Q1012=
SA	19/11/2024 04:00->	
METAR SBFL 190400Z 11011KT 9999 FEW035 BKN056 24/20 Q1012=
SA	19/11/2024 03:00->	
METAR SBFL 190300Z 11008KT 9999 SCT048 23/20 Q1013=
SA	19/11/2024 02:00->	
METAR SBFL 190200Z 18007KT 9999 SCT044 25/20 Q1013=
SA	19/11/2024 01:00->	
METAR SBFL 190100Z 08003KT 030V150 9999 FEW035 25/20 Q1013=
SA	19/11/2024 00:00->	
METAR SBFL 190000Z 09010KT 9999 FEW025 23/20 Q1012=
SA	18/11/2024 23:55->	
METAR SBFL 190000Z 09010KT 9999 FEW025 23/20 Q1012=
SA	18/11/2024 23:00->	
METAR SBFL 182300Z 10010KT 9999 FEW025 BKN050 23/21 Q1011=
SA	18/11/2024 22:00->	
METAR SBFL 182200Z 12011KT 9999 FEW035 FEW040TCU BKN050 24/21 Q1011=
SA	18/11/2024 21:00->	
METAR SBFL 182100Z 12009KT 9999 FEW035 FEW040TCU 24/21 Q1011=
SA	18/11/2024 20:00->	
METAR SBFL 182000Z 12011KT 9999 FEW035 FEW040TCU 25/21 Q1009=
SA	18/11/2024 19:00->	
METAR SBFL 181900Z VRB02KT 9999 FEW040 28/22 Q1010=
SA	18/11/2024 18:00->	
METAR SBFL 181800Z 33009KT 9999 FEW040 28/23 Q1009=
SA	18/11/2024 17:00->	
METAR SBFL 181700Z 34009KT 300V360 9999 FEW040 29/23 Q1010=
SA	18/11/2024 16:00->	
METAR SBFL 181600Z 33008KT 9999 FEW040 29/22 Q1010=
SA	18/11/2024 15:00->	
METAR SBFL 181500Z 32007KT 290V360 CAVOK 29/22 Q1010=
SA	18/11/2024 14:00->	
METAR SBFL 181400Z 35007KT 300V030 CAVOK 29/20 Q1011=
SA	18/11/2024 13:00->	
METAR SBFL 181300Z 34008KT CAVOK 27/20 Q1011=
SA	18/11/2024 12:00->	
METAR SBFL 181200Z 34009G19KT CAVOK 26/21 Q1011=
SA	18/11/2024 11:00->	
METAR SBFL 181100Z 34013KT CAVOK 25/21 Q1011=
SA	18/11/2024 10:00->	
METAR SBFL 181000Z 35010KT 280V010 CAVOK 24/21 Q1011=
SP	18/11/2024 09:00->	
METAR SBFL 180900Z 33009KT 9999 FEW015 23/21 Q1011=
SA	18/11/2024 09:00->	
METAR SBFL 180900Z 33009KT 9999 FEW015 23/21 Q1011=
SA	18/11/2024 08:00->	
METAR SBFL 180800Z 33011KT 9999 FEW020 23/21 Q1011=
SA	18/11/2024 07:00->	
METAR SBFL 180700Z 35010KT 9999 SCT020 23/21 Q1011=
SA	18/11/2024 06:00->	
METAR SBFL 180600Z 33010KT 9999 SCT020 BKN040 23/21 Q1011=
SA	18/11/2024 05:00->	
METAR SBFL 180500Z 33010KT 9999 BKN014 BKN040 23/21 Q1012=
SA	18/11/2024 04:00->	
METAR SBFL 180400Z 33010KT 9999 BKN014 BKN040 24/21 Q1013=
SA	18/11/2024 03:00->	
METAR SBFL 180300Z 35012KT 9999 BKN014 BKN035 24/22 Q1013=
SA	18/11/2024 02:00->	
METAR SBFL 180200Z 36009KT 9999 SCT013 BKN030 24/21 Q1014=
SA	18/11/2024 01:00->	
METAR SBFL 180100Z 35008KT 9999 SCT014 SCT020 24/21 Q1014=
SA	18/11/2024 00:00->	
METAR SBFL 180000Z 35010KT 9999 SCT014 24/21 Q1014=
SA	17/11/2024 23:54->	
METAR SBFL 180000Z 35010KT 9999 SCT014 24/21 Q1014=
SA	17/11/2024 23:00->	
METAR SBFL 172300Z VRB07G17KT 9999 SCT014 24/21 Q1013=
SA	17/11/2024 22:00->	
METAR SBFL 172200Z 35009KT 9999 FEW037 25/21 Q1012=
SA	17/11/2024 21:00->	
METAR SBFL 172100Z 35011KT 9999 FEW036 26/20 Q1012=
SA	17/11/2024 20:00->	
METAR SBFL 172000Z 35014KT 9999 FEW035 27/20 Q1011=
SA	17/11/2024 19:00->	
METAR SBFL 171900Z 10015KT 9999 FEW033 28/20 Q1011=
SA	17/11/2024 18:00->	
METAR SBFL 171800Z 10014KT 9999 FEW033 29/20 Q1012=
SA	17/11/2024 17:00->	
METAR SBFL 171700Z 36013KT 9999 FEW030 SCT060 28/21 Q1013=
SA	17/11/2024 16:00->	
METAR SBFL 171600Z 36015KT 9999 FEW030 BKN050 27/21 Q1014=
SA	17/11/2024 15:00->	
METAR SBFL 171500Z 36015KT 9999 FEW020 BKN040 27/20 Q1014=
SA	17/11/2024 14:00->	
METAR SBFL 171400Z 01015KT 9999 FEW015 BKN040 25/20 Q1015=
SA	17/11/2024 13:00->	
METAR SBFL 171300Z 02009KT 9999 BKN045 26/20 Q1015=
SA	17/11/2024 12:00->	
METAR SBFL 171200Z 35009KT 9999 BKN045 25/21 Q1016=
SA	17/11/2024 11:00->	
METAR SBFL 171100Z 34008KT 9999 FEW015 BKN035 24/21 Q1016=
SA	17/11/2024 10:00->	
METAR SBFL 171000Z 35009KT 9999 FEW015 BKN036 23/21 Q1015=
SA	17/11/2024 09:00->	
METAR SBFL 170900Z 33006KT 9999 FEW015 SCT036 22/21 Q1015=
SA	17/11/2024 08:00->	
METAR SBFL 170800Z 36004KT 9999 FEW003 22/21 Q1014=
SA	17/11/2024 07:00->	
METAR SBFL 170700Z 31005KT 9999 BKN040 22/21 Q1014=
SA	17/11/2024 06:00->	
METAR SBFL 170600Z 01005KT 9999 BKN009 22/21 Q1015=
SA	17/11/2024 05:00->	
METAR SBFL 170500Z 02007KT 9999 BKN011 22/21 Q1015=
SA	17/11/2024 04:00->	
METAR SBFL 170400Z 36004KT 9999 BKN014 FEW050TCU 22/21 Q1016=
SA	17/11/2024 03:00->	
METAR SBFL 170300Z 36004KT CAVOK 23/21 Q1016=
SA	17/11/2024 02:00->	
METAR SBFL 170200Z 35004KT CAVOK 23/21 Q1017=
SA	17/11/2024 01:00->	
METAR SBFL 170100Z 01006KT CAVOK 23/21 Q1017=
SA	17/11/2024 00:00->	
METAR SBFL 170000Z VRB02KT 9999 SCT020 BKN040 23/22 Q1016=
SA	16/11/2024 23:55->	
METAR SBFL 170000Z VRB02KT 9999 SCT020 BKN040 23/22 Q1016=
SA	16/11/2024 23:00->	
METAR SBFL 162300Z 11002KT 9999 SCT020 SCT045 23/21 Q1016=
SA	16/11/2024 22:00->	
METAR SBFL 162200Z 06005KT 9999 BKN014 BKN040 24/21 Q1016=
SA	16/11/2024 21:00->	
METAR SBFL 162100Z 06007KT 9999 BKN014 BKN040 24/22 Q1015=
SA	16/11/2024 20:00->	
METAR SBFL 162000Z 07011KT 9999 BKN014 BKN030 BKN080 25/22 Q1015=
SA	16/11/2024 19:00->	
METAR SBFL 161900Z 07010KT 030V100 9999 BKN014 BKN020 BKN056 25/21 Q1015=
SA	16/11/2024 18:00->	
METAR SBFL 161800Z 07009KT 9999 SCT014 BKN020 BKN056 25/22 Q1015=
SA	16/11/2024 17:00->	
METAR SBFL 161700Z 06007KT 360V090 9999 SCT017 SCT023 BKN056 26/22 Q1016=
SA	16/11/2024 16:00->	
METAR SBFL 161600Z 02005KT 330V060 9999 BKN017 BKN066 25/22 Q1016=
SA	16/11/2024 15:00->	
METAR SBFL 161500Z 03007KT 320V070 5000 BR FEW008 OVC014 24/22 Q1017=
SA	16/11/2024 14:00->	
METAR SBFL 161400Z VRB02KT 3000 BR OVC010 23/22 Q1017=
SP	16/11/2024 13:27->	
SPECI SBFL 161327Z 13002KT 2000 BR FEW005 BKN012 OVC020 23/22 Q1017=
SA	16/11/2024 13:00->	
METAR SBFL 161300Z 28004KT 1000 R32/P2000 -DZ -RA BKN011 OVC016 22/21 Q1017=
SP	16/11/2024 12:50->	
SPECI SBFL 161250Z 28004KT 1000 -DZ -RA BKN011 OVC016 22/21 Q1017=
SA	16/11/2024 12:00->	
METAR SBFL 161200Z 27004KT 8000 OVC010 22/21 Q1017 REDZ=
SA	16/11/2024 11:00->	
METAR SBFL 161100Z VRB02KT 4000 -DZ BKN008 OVC014 22/21 Q1017=
SP	16/11/2024 10:27->	
SPECI SBFL 161027Z 29003KT 270V350 3500 -DZ BKN007 OVC014 22/21 Q1017=
SA	16/11/2024 10:00->	
METAR SBFL 161000Z VRB03KT 9999 -DZ BKN010 OVC015 22/21 Q1016=
SA	16/11/2024 09:00->	
METAR SBFL 160900Z 25003KT 6000 -DZ BKN012 OVC014 21/21 Q1016=
SA	16/11/2024 08:00->	
METAR SBFL 160800Z 21003KT 6000 -DZ BKN004 BKN010 OVC015 21/21 Q1015=
SA	16/11/2024 07:00->	
METAR SBFL 160700Z VRB02KT 9000 -DZ BKN006 BKN011 OVC015 21/20 Q1015=
SA	16/11/2024 06:00->	
METAR SBFL 160600Z 02002KT 4000 -DZ BKN004 OVC008 21/20 Q1015=
SP	16/11/2024 05:19->	
SPECI SBFL 160519Z VRB02KT 4000 -DZ BKN004 OVC008 21/20 Q1015=
SA	16/11/2024 05:00->	
METAR SBFL 160500Z VRB02KT 6000 BKN014 OVC022 21/20 Q1016=
SA	16/11/2024 04:00->	
METAR SBFL 160400Z 05002KT 9000 BKN014 OVC022 21/19 Q1016=
SA	16/11/2024 03:00->	
METAR SBFL 160300Z 05008KT 020V080 9000 -DZ OVC009 21/19 Q1017=
SP	16/11/2024 02:17->	
SPECI SBFL 160217Z 05005G15KT 3500 -DZ BKN013 OVC020 22/20 Q1017=
SA	16/11/2024 02:00->	
METAR SBFL 160200Z VRB02KT 9999 -DZ BKN016 OVC020 22/20 Q1016=
SA	16/11/2024 01:00->	
METAR SBFL 160100Z VRB02KT 9999 SCT025 OVC040 22/20 Q1017=
SA	16/11/2024 00:00->	
METAR SBFL 160000Z 36003KT 310V050 9999 FEW007 OVC017 21/20 Q1017=
SA	15/11/2024 23:50->	
METAR SBFL 160000Z 36003KT 310V050 9999 FEW007 OVC017 21/20 Q1017=
SA	15/11/2024 23:00->	
METAR SBFL 152300Z 31003KT 280V350 9999 -DZ BKN006 OVC026 21/20 Q1016=
SP	15/11/2024 22:28->	
SPECI SBFL 152228Z VRB02KT 4000 -DZ OVC007 21/20 Q1016=
SP	15/11/2024 22:08->	
SPECI SBFL 152208Z 09003KT 050V140 9999 -DZ OVC013 21/19 Q1016=
SA	15/11/2024 22:00->	
METAR SBFL 152200Z 08004KT 030V110 9000 BKN016 OVC022 21/19 Q1016=
SA	15/11/2024 21:00->	
METAR SBFL 152100Z 07009KT 9999 FEW013 SCT022 OVC046 22/19 Q1016=
SA	15/11/2024 20:00->	
METAR SBFL 152000Z 06011KT 9999 FEW033 BKN056 24/18 Q1015=
SA	15/11/2024 19:00->	
METAR SBFL 151900Z 06011KT 9999 FEW033 BKN046 24/18 Q1015=
SA	15/11/2024 18:00->	
METAR SBFL 151800Z 05012KT CAVOK 25/17 Q1015=
SA	15/11/2024 17:00->	
METAR SBFL 151700Z 02008KT 350V050 9999 SCT040 26/13 Q1016=
SA	15/11/2024 16:00->	
METAR SBFL 151600Z 35009KT 320V030 CAVOK 27/12 Q1017=
SA	15/11/2024 15:00->	
METAR SBFL 151500Z 33010KT CAVOK 26/14 Q1017=
SA	15/11/2024 14:00->	
METAR SBFL 151400Z 33008KT 300V360 CAVOK 26/15 Q1018=
SA	15/11/2024 13:00->	
METAR SBFL 151300Z 33008KT CAVOK 24/16 Q1018=
SA	15/11/2024 12:00->	
METAR SBFL 151200Z 31006KT 280V350 CAVOK 24/17 Q1018=
SA	15/11/2024 11:00->	
METAR SBFL 151100Z 31004KT 280V040 CAVOK 22/17 Q1018=
SA	15/11/2024 10:00->	
METAR SBFL 151000Z 26004KT 230V300 9999 FEW030 21/18 Q1018=
SA	15/11/2024 09:00->	
METAR SBFL 150900Z 00000KT 9999 FEW030 18/16 Q1017=
SA	15/11/2024 08:00->	
METAR SBFL 150800Z 21001KT 9999 FEW037 16/15 Q1016=
SA	15/11/2024 07:00->	
METAR SBFL 150700Z 00000KT 9999 SCT038 17/15 Q1016=
SA	15/11/2024 06:00->	
METAR SBFL 150600Z 00000KT 9999 SCT040 18/15 Q1016=
SA	15/11/2024 05:00->	
METAR SBFL 150500Z 08003KT 050V110 9999 SCT042 20/15 Q1016=
SA	15/11/2024 04:00->	
METAR SBFL 150400Z 07003KT 040V100 9999 SCT042 21/15 Q1017=
SA	15/11/2024 03:00->	
METAR SBFL 150300Z VRB01KT 9999 SCT045 19/16 Q1017=
SA	15/11/2024 02:00->	
METAR SBFL 150200Z 11003KT 070V160 CAVOK 20/16 Q1017=
SA	15/11/2024 01:00->	
METAR SBFL 150100Z 08003KT CAVOK 19/16 Q1017=
SA	15/11/2024 00:00->	
METAR SBFL 150000Z 09003KT CAVOK 21/16 Q1017=
SA	14/11/2024 23:51->	
METAR SBFL 150000Z 09003KT CAVOK 21/16 Q1017=
SA	14/11/2024 23:00->	
METAR SBFL 142300Z 06004KT 030V090 CAVOK 21/16 Q1016=
SA	14/11/2024 22:00->	
METAR SBFL 142200Z 04007KT CAVOK 22/15 Q1016=
SA	14/11/2024 21:00->	
METAR SBFL 142100Z 05008KT 020V080 CAVOK 24/15 Q1015=
SA	14/11/2024 20:00->	
METAR SBFL 142000Z 06011KT CAVOK 24/15 Q1015=
SA	14/11/2024 19:00->	
METAR SBFL 141900Z 08012KT CAVOK 25/14 Q1015=
SA	14/11/2024 18:00->	
METAR SBFL 141800Z 07012KT CAVOK 26/14 Q1015=
SA	14/11/2024 17:00->	
METAR SBFL 141700Z 09014KT 9999 FEW042 26/16 Q1015=
SA	14/11/2024 16:00->	
METAR SBFL 141600Z 10004KT 9999 FEW035 27/15 Q1016=
SA	14/11/2024 15:00->	
METAR SBFL 141500Z 35006KT 310V120 9999 SCT033 25/14 Q1016=
SA	14/11/2024 14:00->	
METAR SBFL 141400Z 36007KT 320V030 9999 FEW032 24/14 Q1017=
SA	14/11/2024 13:00->	
METAR SBFL 141300Z 35006KT 310V030 9999 FEW030 24/14 Q1017=
SA	14/11/2024 12:00->	
METAR SBFL 141200Z 32005KT 260V360 CAVOK 22/13 Q1017=
SA	14/11/2024 11:00->	
METAR SBFL 141100Z 30004KT 260V340 CAVOK 21/13 Q1017=
SA	14/11/2024 10:00->	
METAR SBFL 141000Z 29005KT CAVOK 19/12 Q1017=
SA	14/11/2024 09:00->	
METAR SBFL 140900Z 28005KT CAVOK 18/11 Q1016=
SA	14/11/2024 08:00->	
METAR SBFL 140800Z 26004KT CAVOK 17/12 Q1015=
SA	14/11/2024 07:00->	
METAR SBFL 140700Z 28005KT CAVOK 17/11 Q1015=
SA	14/11/2024 06:00->	
METAR SBFL 140600Z 27006KT CAVOK 18/13 Q1015=
SA	14/11/2024 05:00->	
METAR SBFL 140500Z 26005KT CAVOK 18/13 Q1015=
SA	14/11/2024 04:00->	
METAR SBFL 140400Z 26005KT CAVOK 18/13 Q1016=
SA	14/11/2024 03:00->	
METAR SBFL 140300Z 23004KT CAVOK 18/12 Q1016=
SA	14/11/2024 02:00->	
METAR SBFL 140200Z 21004KT CAVOK 19/12 Q1016=
SA	14/11/2024 01:00->	
METAR SBFL 140100Z 19006KT CAVOK 19/11 Q1016=
SA	14/11/2024 00:00->	
METAR SBFL 140000Z 19005KT 160V230 CAVOK 20/11 Q1016=
SA	13/11/2024 23:51->	
METAR SBFL 140000Z 19005KT 160V230 CAVOK 20/11 Q1016=
SA	13/11/2024 23:00->	
METAR SBFL 132300Z 17003G13KT CAVOK 20/10 Q1015=
SA	13/11/2024 22:00->	
METAR SBFL 132200Z 15007KT CAVOK 21/10 Q1014=
SA	13/11/2024 21:00->	
METAR SBFL 132100Z 15009KT CAVOK 21/10 Q1014=
SA	13/11/2024 20:00->	
METAR SBFL 132000Z 15009KT CAVOK 21/10 Q1013=
SA	13/11/2024 19:00->	
METAR SBFL 131900Z 16010KT CAVOK 22/10 Q1013=
SA	13/11/2024 18:00->	
METAR SBFL 131800Z 16012KT 130V190 CAVOK 23/10 Q1013=
SA	13/11/2024 17:00->	
METAR SBFL 131700Z 14010KT 110V180 9999 FEW035 24/12 Q1013=
SA	13/11/2024 16:00->	
METAR SBFL 131600Z 13012KT 090V170 9999 FEW035 24/11 Q1013=
SA	13/11/2024 15:00->	
METAR SBFL 131500Z 13010KT 9999 FEW035 23/10 Q1013=
SA	13/11/2024 14:00->	
METAR SBFL 131400Z 12008KT 090V170 9999 FEW035 23/12 Q1014=
SA	13/11/2024 13:00->	
METAR SBFL 131300Z 11007KT 060V180 9999 FEW030 23/11 Q1014=
SA	13/11/2024 12:00->	
METAR SBFL 131200Z 22006KT 170V260 9999 FEW025 21/11 Q1014=
SA	13/11/2024 11:00->	
METAR SBFL 131100Z 21004KT 170V270 9999 FEW025 20/11 Q1014=
SA	13/11/2024 10:00->	
METAR SBFL 131000Z 27005KT CAVOK 18/13 Q1013=
SA	13/11/2024 09:00->	
METAR SBFL 130900Z 27004KT CAVOK 16/12 Q1013=
SA	13/11/2024 08:00->	
METAR SBFL 130800Z 23007KT CAVOK 15/11 Q1012=
SA	13/11/2024 07:00->	
METAR SBFL 130700Z 22005KT 9999 FEW045 15/11 Q1012=
SA	13/11/2024 06:00->	
METAR SBFL 130600Z 26004KT 9999 SCT045 16/13 Q1012=
SA	13/11/2024 05:00->	
METAR SBFL 130500Z 25005KT 9999 BKN045 17/12 Q1012=
SA	13/11/2024 04:00->	
METAR SBFL 130400Z 27004KT 9999 BKN045 17/12 Q1012=
SA	13/11/2024 03:00->	
METAR SBFL 130300Z VRB01KT 9999 BKN045 18/11 Q1013=
SA	13/11/2024 02:00->	
METAR SBFL 130200Z 18005KT 9999 FEW045 17/11 Q1013=
SA	13/11/2024 01:00->	
METAR SBFL 130100Z 18006KT 9999 FEW045 18/10 Q1013=
SA	13/11/2024 00:00->	
METAR SBFL 130000Z 16008KT 9999 FEW048 19/09 Q1013=
SA	12/11/2024 23:55->	
METAR SBFL 130000Z 16008KT 9999 FEW048 19/09 Q1013=
SA	12/11/2024 23:00->	
METAR SBFL 122300Z 18009KT 9999 SCT048 19/09 Q1012=
SA	12/11/2024 22:00->	
METAR SBFL 122200Z 17008KT 140V200 9999 BKN049 BKN090 19/10 Q1011=
SA	12/11/2024 21:00->	
METAR SBFL 122100Z 17012KT 140V200 9999 BKN039 BKN086 20/10 Q1010=
SA	12/11/2024 20:00->	
METAR SBFL 122000Z 15013KT 9999 BKN039 BKN086 20/11 Q1010=
SA	12/11/2024 19:00->	
METAR SBFL 121900Z 14010KT 080V190 9999 FEW040 BKN070 21/13 Q1010=
SA	12/11/2024 18:00->	
METAR SBFL 121800Z 13009KT 110V180 9999 FEW030 BKN080 20/14 Q1009=
SA	12/11/2024 17:00->	
METAR SBFL 121700Z 16007KT 100V220 9999 FEW030 BKN080 21/14 Q1009=
SA	12/11/2024 16:00->	
METAR SBFL 121600Z 18013KT 150V220 9999 SCT030 BKN050 21/14 Q1010=
SA	12/11/2024 15:00->	
METAR SBFL 121500Z 18012G22KT 140V200 9999 BKN030 BKN035 20/14 Q1010=
SA	12/11/2024 14:00->	
METAR SBFL 121400Z 14013G25KT 9999 SCT025 BKN035 BKN100 21/15 Q1010=
SA	12/11/2024 13:00->	
METAR SBFL 121300Z 14012G22KT 110V170 9999 SCT035 BKN050 BKN100 22/15 Q1010=
SA	12/11/2024 12:00->	
METAR SBFL 121200Z 17009KT 9999 SCT035 BKN050 BKN100 23/16 Q1010=
SA	12/11/2024 11:00->	
METAR SBFL 121100Z 16010KT 130V190 9999 FEW045 BKN100 22/16 Q1009=
SA	12/11/2024 10:00->	
METAR SBFL 121000Z 19004KT 130V240 9999 FEW033 BKN100 22/18 Q1008=
SA	12/11/2024 09:00->	
METAR SBFL 120900Z VRB05KT CAVOK 21/17 Q1007=
SA	12/11/2024 08:00->	
METAR SBFL 120800Z 17005KT 120V200 CAVOK 21/17 Q1007=
SA	12/11/2024 07:00->	
METAR SBFL 120700Z 18012KT 9999 OVC043 20/17 Q1008=
SA	12/11/2024 06:00->	
METAR SBFL 120600Z 19013G23KT 9999 OVC033 20/17 Q1008=
SA	12/11/2024 05:00->	
METAR SBFL 120500Z 19016G27KT 150V210 9999 OVC046 21/18 Q1007=
SA	12/11/2024 04:00->	
METAR SBFL 120400Z 18012KT 9999 OVC043 24/18 Q1007=
SA	12/11/2024 03:00->	
METAR SBFL 120300Z 09008KT 9999 OVC043 22/19 Q1008=
SA	12/11/2024 02:00->	
METAR SBFL 120200Z 12008KT 9999 BKN023 23/20 Q1008=
SA	12/11/2024 01:00->	
METAR SBFL 120100Z 34005KT 9999 FEW017 23/20 Q1007=
SA	12/11/2024 00:00->	
METAR SBFL 120000Z 35012KT CAVOK 24/19 Q1006=
SA	11/11/2024 23:51->	
METAR SBFL 120000Z 35012KT CAVOK 24/19 Q1006=
SA	11/11/2024 23:00->	
METAR SBFL 112300Z 36011KT CAVOK 24/19 Q1005=
SA	11/11/2024 22:00->	
METAR SBFL 112200Z 36011KT CAVOK 24/19 Q1005=
SA	11/11/2024 21:00->	
METAR SBFL 112100Z 35012G22KT CAVOK 26/19 Q1004=
SA	11/11/2024 20:00->	
METAR SBFL 112000Z 35013KT CAVOK 28/20 Q1004=
SA	11/11/2024 19:00->	
METAR SBFL 111900Z 36001KT CAVOK 29/20 Q1004=
SA	11/11/2024 18:00->	
METAR SBFL 111800Z 36014KT CAVOK 29/20 Q1005=
SA	11/11/2024 17:00->	
METAR SBFL 111700Z 36012KT 9999 FEW048 29/20 Q1005=
SA	11/11/2024 16:00->	
METAR SBFL 111600Z 36013KT 9999 FEW048 29/20 Q1006=
SA	11/11/2024 15:00->	
METAR SBFL 111500Z 35015KT 9999 FEW048 28/19 Q1008=
SA	11/11/2024 14:00->	
METAR SBFL 111400Z 35015KT 9999 FEW048 27/18 Q1009=
SA	11/11/2024 13:00->	
METAR SBFL 111300Z 35017KT 9999 FEW040 26/18 Q1010=
SA	11/11/2024 12:00->	
METAR SBFL 111200Z 35017KT 9999 FEW040 25/19 Q1011=
SA	11/11/2024 11:00->	
METAR SBFL 111100Z 34017KT 9999 FEW040 24/19 Q1011=
SA	11/11/2024 10:00->	
METAR SBFL 111000Z 34013KT 9999 BKN035 23/19 Q1011=
SA	11/11/2024 09:00->	
METAR SBFL 110900Z 34012KT 9999 BKN043 22/19 Q1011=
SA	11/11/2024 08:00->	
METAR SBFL 110800Z 33011KT 9999 FEW020 BKN035 22/18 Q1011=
SA	11/11/2024 07:00->	
METAR SBFL 110700Z 33012KT 9999 BKN035 22/18 Q1011=
SA	11/11/2024 06:00->	
METAR SBFL 110600Z 34012KT 9999 BKN035 22/18 Q1010=
SA	11/11/2024 05:00->	
METAR SBFL 110500Z 34012KT 9999 BKN030 22/18 Q1011=
SA	11/11/2024 04:00->	
METAR SBFL 110400Z 36009KT 9999 BKN023 22/18 Q1012=
SA	11/11/2024 03:00->	
METAR SBFL 110300Z 36012KT 9999 BKN025 22/17 Q1013=
SA	11/11/2024 02:00->	
METAR SBFL 110200Z 36010KT 9999 BKN030 22/17 Q1013=
SA	11/11/2024 01:00->	
METAR SBFL 110100Z 01008KT 290V030 9999 BKN030 23/17 Q1013=
SA	11/11/2024 00:00->	
METAR SBFL 110000Z 01010KT 9999 OVC040 23/17 Q1013=
SA	10/11/2024 23:57->	
METAR SBFL 110000Z 01010KT 9999 OVC040 23/17 Q1013=
SA	10/11/2024 23:00->	
METAR SBFL 102300Z 01008KT CAVOK 22/17 Q1013=
SA	10/11/2024 22:00->	
METAR SBFL 102200Z 03008KT 9999 BKN033 BKN050 23/16 Q1013=
SA	10/11/2024 21:00->	
METAR SBFL 102100Z 04007KT 9999 BKN033 23/16 Q1013=
SA	10/11/2024 20:00->	
METAR SBFL 102000Z 05009KT 9999 SCT043 27/16 Q1012=
SA	10/11/2024 19:00->	
METAR SBFL 101900Z 06012KT 030V090 9999 FEW046 24/16 Q1012=
SA	10/11/2024 18:00->	
METAR SBFL 101800Z 06012KT 020V090 9999 FEW046 26/16 Q1013=
SA	10/11/2024 17:00->	
METAR SBFL 101700Z 06011KT 9999 SCT045 26/16 Q1014=
SA	10/11/2024 16:00->	
METAR SBFL 101600Z 03008KT 310V070 9999 SCT045 26/16 Q1014=
SA	10/11/2024 15:00->	
METAR SBFL 101500Z 34008KT 9999 FEW040 26/17 Q1014=
SA	10/11/2024 14:00->	
METAR SBFL 101400Z 35007KT 9999 FEW040 25/16 Q1015=
SA	10/11/2024 13:00->	
METAR SBFL 101300Z 33007KT 9999 BKN040 24/14 Q1016=
SA	10/11/2024 12:00->	
METAR SBFL 101200Z 29006KT 9999 FEW040 22/15 Q1016=
SA	10/11/2024 11:00->	
METAR SBFL 101100Z 29005KT 260V320 9999 FEW040 21/15 Q1016=
SA	10/11/2024 10:00->	
METAR SBFL 101000Z 30005KT 9999 FEW040 19/15 Q1016=
SA	10/11/2024 09:00->	
METAR SBFL 100900Z 28006KT 9999 SCT045 18/15 Q1015=
SA	10/11/2024 08:00->	
METAR SBFL 100800Z 31005KT 9999 SCT045 17/15 Q1015=
SA	10/11/2024 07:00->	
METAR SBFL 100700Z 27007KT 9999 SCT045 18/15 Q1015=
SA	10/11/2024 06:00->	
METAR SBFL 100600Z 24003KT 9999 OVC040 19/15 Q1015=
SA	10/11/2024 05:00->	
METAR SBFL 100500Z 21005KT 9999 OVC040 20/14 Q1015=
SA	10/11/2024 04:00->	
METAR SBFL 100400Z 20006KT 9999 OVC040 20/14 Q1016=
SA	10/11/2024 03:00->	
METAR SBFL 100300Z 21004KT 9999 OVC043 20/14 Q1016=
SA	10/11/2024 02:00->	
METAR SBFL 100200Z 20005KT 9999 OVC044 20/14 Q1016=
SA	10/11/2024 01:00->	
METAR SBFL 100100Z 20007KT 9999 OVC049 20/13 Q1016=
SA	10/11/2024 00:00->	
METAR SBFL 100000Z 20009KT 9999 OVC049 21/13 Q1016=
SA	09/11/2024 23:55->	
METAR SBFL 100000Z 20009KT 9999 OVC049 21/13 Q1016=
SA	09/11/2024 23:00->	
METAR SBFL 092300Z 19008KT 9999 OVC046 21/13 Q1016=
SA	09/11/2024 22:00->	
METAR SBFL 092200Z 16009KT 9999 OVC046 21/13 Q1015=
SA	09/11/2024 21:00->	
METAR SBFL 092100Z 16008KT 9999 BKN046 22/13 Q1015=
SA	09/11/2024 20:00->	
METAR SBFL 092000Z 17008KT 9999 BKN043 22/13 Q1014=
SA	09/11/2024 19:00->	
METAR SBFL 091900Z 17012KT 9999 BKN043 22/13 Q1014=
SA	09/11/2024 18:00->	
METAR SBFL 091800Z 15014KT 9999 BKN043 22/13 Q1014=
SA	09/11/2024 17:00->	
METAR SBFL 091700Z 16016KT 9999 FEW035 OVC050 22/13 Q1014=
SA	09/11/2024 16:00->	
METAR SBFL 091600Z 16016KT 9999 FEW035 BKN050 23/14 Q1014=
SA	09/11/2024 15:00->	
METAR SBFL 091500Z 16010KT 9999 FEW030 BKN050 24/16 Q1014=
SA	09/11/2024 14:00->	
METAR SBFL 091400Z 19013KT 9999 FEW030 BKN055 23/15 Q1014=
SA	09/11/2024 13:00->	
METAR SBFL 091300Z 19013KT 9999 FEW030 BKN070 24/15 Q1014=
SA	09/11/2024 12:00->	
METAR SBFL 091200Z 19012KT CAVOK 23/15 Q1014=
SA	09/11/2024 11:00->	
METAR SBFL 091100Z 20008KT CAVOK 22/15 Q1014=
SA	09/11/2024 10:00->	
METAR SBFL 091000Z 18006KT CAVOK 20/14 Q1013=
SA	09/11/2024 09:00->	
METAR SBFL 090900Z 22003KT 180V250 CAVOK 19/14 Q1013=
SA	09/11/2024 08:00->	
METAR SBFL 090800Z 25004KT 200V260 CAVOK 18/17 Q1012=
SA	09/11/2024 07:00->	
METAR SBFL 090700Z 21005KT CAVOK 18/13 Q1011=
SA	09/11/2024 06:00->	
METAR SBFL 090600Z 20006KT 170V230 CAVOK 19/12 Q1011=
SA	09/11/2024 05:00->	
METAR SBFL 090500Z 20010KT CAVOK 19/13 Q1011=
SA	09/11/2024 04:00->	
METAR SBFL 090400Z 19009KT CAVOK 19/14 Q1011=
SA	09/11/2024 03:00->	
METAR SBFL 090300Z 18012KT 9999 FEW040 20/14 Q1011=
SA	09/11/2024 02:00->	
METAR SBFL 090200Z 18013KT 9999 FEW040 20/14 Q1012 WS R14=
SA	09/11/2024 01:00->	
METAR SBFL 090100Z 19011KT 160V220 9999 FEW045 20/14 Q1012=
SA	09/11/2024 00:00->	
METAR SBFL 090000Z 19013KT 9999 FEW045 21/15 Q1011=
SA	08/11/2024 23:54->	
METAR SBFL 090000Z 19013KT 9999 FEW045 21/15 Q1011=
SA	08/11/2024 23:00->	
METAR SBFL 082300Z 18013KT 9999 FEW045 21/15 Q1010 WS R14=
SP	08/11/2024 22:33->	
SPECI SBFL 082233Z 18015G25KT 9999 FEW045 SCT100 21/16 Q1010 WS R14=
SA	08/11/2024 22:00->	
METAR SBFL 082200Z 18015KT 9999 FEW045 SCT100 22/16 Q1010=
SA	08/11/2024 21:00->	
METAR SBFL 082100Z 18011G21KT 9999 SCT035 22/16 Q1009=
SA	08/11/2024 20:00->	
METAR SBFL 082000Z 19017KT 9999 SCT035 24/17 Q1008=
SA	08/11/2024 19:00->	
METAR SBFL 081900Z 18012KT 9999 SCT035 25/18 Q1008=
SA	08/11/2024 18:00->	
METAR SBFL 081800Z 17013G23KT 9999 BKN035 25/18 Q1008=
SA	08/11/2024 17:00->	
METAR SBFL 081700Z 19015KT 9999 BKN042 24/18 Q1009=
SA	08/11/2024 16:00->	
METAR SBFL 081600Z 18019G29KT 9999 BKN045 26/18 Q1008=
SA	08/11/2024 15:00->	
METAR SBFL 081500Z 19015KT 9999 SCT040 26/18 Q1008=
SA	08/11/2024 14:00->	
METAR SBFL 081400Z 18019G31KT 9999 BKN031 25/18 Q1009 WS R14=
SA	08/11/2024 13:00->	
METAR SBFL 081300Z 19016KT 9999 SCT030 25/19 Q1008=
SA	08/11/2024 12:00->	
METAR SBFL 081200Z 18014KT 150V220 9999 SCT035 25/19 Q1007=
SA	08/11/2024 11:00->	
METAR SBFL 081100Z 18016G26KT 9999 FEW040 23/19 Q1006=
SA	08/11/2024 10:00->	
METAR SBFL 081000Z 18009KT 130V220 9999 FEW040 SCT100 22/19 Q1006=
SA	08/11/2024 09:00->	
METAR SBFL 080900Z 19009KT 9999 SCT040 SCT090 22/18 Q1005=
SA	08/11/2024 08:00->	
METAR SBFL 080800Z 19012KT 9999 SCT030 BKN090 22/19 Q1004=
SA	08/11/2024 07:00->	
METAR SBFL 080700Z 16014G26KT 140V210 9999 SCT030 BKN090 22/19 Q1004=
SA	08/11/2024 06:00->	
METAR SBFL 080600Z 19012KT 150V220 9999 SCT030 BKN080 22/20 Q1004=
SA	08/11/2024 05:00->	
METAR SBFL 080500Z 19010KT 9999 BKN015 22/21 Q1004=
SA	08/11/2024 04:00->	
METAR SBFL 080400Z 20003KT 9999 BKN020 22/21 Q1004=
SA	08/11/2024 03:00->	
METAR SBFL 080300Z 12008KT 9999 SCT020 22/21 Q1003=
SA	08/11/2024 02:00->	
METAR SBFL 080200Z 16003KT 130V210 9999 SCT020 22/21 Q1004=
SA	08/11/2024 01:00->	
METAR SBFL 080100Z 07003KT 9999 FEW015 22/21 Q1004=
SA	08/11/2024 00:00->	
METAR SBFL 080000Z 20003KT 170V230 9999 SCT017 22/21 Q1004=
SA	07/11/2024 23:53->	
METAR SBFL 080000Z 20003KT 170V230 9999 SCT017 22/21 Q1004=
SA	07/11/2024 23:00->	
METAR SBFL 072300Z 15004KT 9999 VCTS SCT020 FEW030CB 22/21 Q1004=
SP	07/11/2024 22:22->	
SPECI SBFL 072222Z 15006KT 9999 VCTS BKN022 FEW030CB 22/21 Q1004=
SA	07/11/2024 22:00->	
METAR SBFL 072200Z 14007KT 120V190 9999 BKN022 22/21 Q1004=
SA	07/11/2024 21:00->	
METAR SBFL 072100Z 12007KT 9999 SCT017 SCT030 23/21 Q1004=
SA	07/11/2024 20:00->	
METAR SBFL 072000Z 08007KT 9999 FEW012 SCT017 25/21 Q1003=
SA	07/11/2024 19:00->	
METAR SBFL 071900Z VRB01KT 9999 FEW009 BKN016 25/22 Q1004=
SA	07/11/2024 18:00->	
METAR SBFL 071800Z 02003KT 330V090 9999 SCT009 BKN016 25/22 Q1004=
SP	07/11/2024 17:12->	
SPECI SBFL 071712Z 14005KT 120V180 9999 VCSH SCT009 BKN014 24/23 Q1005=
SA	07/11/2024 17:00->	
METAR SBFL 071700Z VRB02KT 9999 -RA BKN009 BKN030 BKN060 23/22 Q1006=
SA	07/11/2024 16:00->	
METAR SBFL 071600Z 27004KT 7000 -RA BKN009 OVC030 24/22 Q1007=
SA	07/11/2024 15:00->	
METAR SBFL 071500Z 30004KT 9999 -DZ BKN009 OVC020 24/22 Q1008=
SA	07/11/2024 14:00->	
METAR SBFL 071400Z 35007KT 9999 -RA BKN009 OVC014 23/22 Q1008=
SP	07/11/2024 13:47->	
SPECI SBFL 071347Z 35007KT 9999 -DZ BKN009 OVC014 23/22 Q1008=
SA	07/11/2024 13:00->	
METAR SBFL 071300Z 35005KT 9999 -RA BKN012 BKN020 OVC060 23/22 Q1009=
SA	07/11/2024 12:00->	
METAR SBFL 071200Z 33004KT 9999 -DZ BKN012 BKN020 OVC060 23/22 Q1009 REDZ=
SA	07/11/2024 11:00->	
METAR SBFL 071100Z 36004KT 9999 DZ BKN006 BKN020 OVC060 23/22 Q1009=
SA	07/11/2024 10:00->	
METAR SBFL 071000Z 36006KT 5000 -DZ BKN006 BKN015 OVC060 23/22 Q1009=
SA	07/11/2024 09:00->	
METAR SBFL 070900Z 32010KT 3500 -RA SCT012 BKN040 23/22 Q1009 RETS=
SP	07/11/2024 08:35->	
SPECI SBFL 070835Z 32006KT 3000 -RA FEW004 SCT011 OVC045 23/22 Q1009 RETSRA=
SA	07/11/2024 08:00->	
METAR SBFL 070800Z 02004KT 2000 +TSRA SCT006 BKN011 OVC023 //////CB 23/22 Q1009=
SA	07/11/2024 07:00->	
METAR SBFL 070700Z 35003KT 6000 -DZ FEW006 BKN014 OVC020 23/22 Q1009=
SA	07/11/2024 06:00->	
METAR SBFL 070600Z 00000KT 6000 -DZ FEW006 OVC012 23/22 Q1009=
SA	07/11/2024 05:00->	
METAR SBFL 070500Z VRB02KT 8000 FEW004 BKN014 OVC022 23/22 Q1010 RERA=
SP	07/11/2024 04:08->	
SPECI SBFL 070408Z 15005KT 5000 RA OVC008 23/22 Q1011=
SA	07/11/2024 04:00->	
METAR SBFL 070400Z 14004KT 4000 RA OVC014 23/22 Q1011 RETS=
SA	07/11/2024 03:00->	
METAR SBFL 070300Z 00000KT 9999 TS OVC014 //////CB 23/22 Q1011=
SA	07/11/2024 02:00->	
METAR SBFL 070200Z 19002KT 9999 OVC014 24/22 Q1012=
SA	07/11/2024 01:00->	
METAR SBFL 070100Z 08005KT 9999 OVC014 24/22 Q1012=
SA	07/11/2024 00:00->	
METAR SBFL 070000Z 04003KT 9999 BKN014 OVC025 24/22 Q1012=
SA	06/11/2024 23:55->	
METAR SBFL 070000Z 04003KT 9999 BKN014 OVC025 24/22 Q1012=
SA	06/11/2024 23:00->	
METAR SBFL 062300Z 09005KT 8000 BKN014 OVC025 23/22 Q1012=
SA	06/11/2024 22:00->	
METAR SBFL 062200Z 10007KT 9999 BKN014 OVC022 23/22 Q1011=
SA	06/11/2024 21:00->	
METAR SBFL 062100Z 08006KT 9999 BKN014 OVC025 25/22 Q1011=
SA	06/11/2024 20:00->	
METAR SBFL 062000Z 07007KT 9999 BKN013 OVC030 25/22 Q1011=
SA	06/11/2024 19:00->	
METAR SBFL 061900Z 07007KT 9999 BKN014 OVC025 26/22 Q1011=
SA	06/11/2024 18:00->	
METAR SBFL 061800Z 05007KT 9999 BKN014 OVC030 26/22 Q1011=
SA	06/11/2024 17:00->	
METAR SBFL 061700Z 05008KT 9000 BKN014 OVC035 25/22 Q1012=
SA	06/11/2024 16:00->	
METAR SBFL 061600Z 05009KT 8000 OVC012 25/23 Q1013=
SA	06/11/2024 15:00->	
METAR SBFL 061500Z 06006KT 030V100 4000 -DZ BKN012 BKN020 24/23 Q1013=
SA	06/11/2024 14:00->	
METAR SBFL 061400Z 30003KT 260V040 8000 BKN013 BKN023 24/23 Q1014=
SP	06/11/2024 13:39->	
SPECI SBFL 061339Z 30004KT 3500 -DZ OVC013 24/22 Q1014=
SA	06/11/2024 13:00->	
METAR SBFL 061300Z 27002KT 8000 BKN014 OVC021 24/23 Q1014=
SA	06/11/2024 12:00->	
METAR SBFL 061200Z 29003KT 6000 -DZ BKN013 BKN022 24/22 Q1014=
SP	06/11/2024 11:28->	
SPECI SBFL 061128Z 00000KT 8000 BKN011 BKN046 25/22 Q1014=
SA	06/11/2024 11:00->	
METAR SBFL 061100Z VRB02KT 8000 SCT015 BKN046 24/22 Q1014=
SA	06/11/2024 10:00->	
METAR SBFL 061000Z 10003KT 6000 VCSH SCT015 BKN035 23/22 Q1014=
SA	06/11/2024 09:00->	
METAR SBFL 060900Z 00000KT 9999 FEW015 BKN035 23/22 Q1014=
SA	06/11/2024 08:00->	
METAR SBFL 060800Z 12002KT 9999 SCT015 BKN030 23/22 Q1013=
SA	06/11/2024 07:00->	
METAR SBFL 060700Z 00000KT 9999 SCT015 BKN030 23/22 Q1013=
SA	06/11/2024 06:00->	
METAR SBFL 060600Z 00000KT 9999 SCT015 BKN030 23/22 Q1013=
SA	06/11/2024 05:00->	
METAR SBFL 060500Z 27002KT 9999 SCT015 BKN030 23/22 Q1013=
SA	06/11/2024 04:00->	
METAR SBFL 060400Z 00000KT 9999 FEW015 BKN030 23/22 Q1014=
SA	06/11/2024 03:00->	
METAR SBFL 060300Z 03005KT 9999 FEW015 OVC030 23/22 Q1015=
SA	06/11/2024 02:00->	
METAR SBFL 060200Z 05003KT 9999 FEW015 OVC030 24/22 Q1015=
SA	06/11/2024 01:00->	
METAR SBFL 060100Z 00000KT 9999 FEW015 OVC030 24/22 Q1015=
SA	06/11/2024 00:00->	
METAR SBFL 060000Z 04003KT 360V080 9999 FEW018 OVC033 24/22 Q1015=
SA	05/11/2024 23:52->	
METAR SBFL 060000Z 04003KT 360V080 9999 FEW018 OVC033 24/22 Q1015=
SA	05/11/2024 23:00->	
METAR SBFL 052300Z 08004KT 9999 OVC033 24/22 Q1015=
SA	05/11/2024 22:00->	
METAR SBFL 052200Z 07005KT 9999 FEW014 OVC033 24/22 Q1014=
SA	05/11/2024 21:00->	
METAR SBFL 052100Z VRB02KT 9999 SCT014 BKN033 25/22 Q1013=
SA	05/11/2024 20:00->	
METAR SBFL 052000Z 07007KT 9999 BKN014 BKN025 25/23 Q1013=
SA	05/11/2024 19:00->	
METAR SBFL 051900Z 08006KT 9999 FEW009 BKN014 BKN048 25/23 Q1013=
SA	05/11/2024 18:00->	
METAR SBFL 051800Z 05005KT 010V080 9999 1600S FEW009 BKN014 BKN043 24/24 Q1014=
SP	05/11/2024 17:23->	
SPECI SBFL 051723Z 35008KT 1500 -DZ -RA BKN009 BKN014 BKN035 24/23 Q1014=
SA	05/11/2024 17:00->	
METAR SBFL 051700Z 01005KT 330V060 4000 -RA FEW005 BKN013 OVC025 24/23 Q1014=
SA	05/11/2024 16:00->	
METAR SBFL 051600Z 02006KT 3900 -RA BKN013 BKN035 25/23 Q1014=
SA	05/11/2024 15:00->	
METAR SBFL 051500Z 03005KT 4000 -RA BKN014 BKN035 26/23 Q1015=
SA	05/11/2024 14:00->	
METAR SBFL 051400Z 35009KT 9999 BKN014 BKN035 26/23 Q1014=
SA	05/11/2024 13:00->	
METAR SBFL 051300Z 03008KT 9999 BKN014 BKN035 26/23 Q1014=
SA	05/11/2024 12:00->	
METAR SBFL 051200Z 36006KT 6000 BKN013 BKN028 24/23 Q1015=
SA	05/11/2024 11:00->	
METAR SBFL 051100Z 31005KT 4500 -RA FEW007 BKN013 OVC021 24/23 Q1015=
SA	05/11/2024 10:00->	
METAR SBFL 051000Z VRB01KT 3500 -RA BR FEW007 BKN013 OVC021 23/22 Q1014=
SA	05/11/2024 09:00->	
METAR SBFL 050900Z 06003KT 030V090 3000 -RA BR OVC010 23/22 Q1014=
SA	05/11/2024 08:00->	
METAR SBFL 050800Z VRB02KT 4500 -RA BR BKN012 OVC027 23/22 Q1014=
SA	05/11/2024 07:00->	
METAR SBFL 050700Z 20004KT 3000 -RA BR BKN008 OVC027 23/22 Q1014=
SA	05/11/2024 06:00->	
METAR SBFL 050600Z 36009KT 6000 FEW009 BKN014 OVC027 23/22 Q1014=
SA	05/11/2024 05:00->	
METAR SBFL 050500Z 01007KT 3500 -RA BR BKN012 OVC021 23/22 Q1014=
SA	05/11/2024 04:00->	
METAR SBFL 050400Z 02006KT 9999 BKN014 OVC020 24/22 Q1014=
SA	05/11/2024 03:00->	
METAR SBFL 050300Z 01003KT 330V070 8000 VCSH BKN014 OVC037 24/22 Q1015=
SA	05/11/2024 02:00->	
METAR SBFL 050200Z 02004KT 350V070 8000 BKN014 OVC027 24/22 Q1015=
SA	05/11/2024 01:00->	
METAR SBFL 050100Z 01011KT 010V070 5000 -RA BR BKN013 OVC023 24/22 Q1015=
SA	05/11/2024 00:00->	
METAR SBFL 050000Z 05008KT 4500 BR BKN013 OVC020 24/22 Q1015=
SA	04/11/2024 23:52->	
METAR SBFL 050000Z 05008KT 4500 BR BKN013 OVC020 24/22 Q1015=
SA	04/11/2024 23:00->	
METAR SBFL 042300Z 07011KT 3900 -RA BKN011 OVC014 24/22 Q1014=
SA	04/11/2024 22:00->	
METAR SBFL 042200Z 07011KT 4000 -RA BKN011 OVC014 24/22 Q1014=
SA	04/11/2024 21:00->	
METAR SBFL 042100Z 08009KT 3000 -RA BKN008 OVC014 23/22 Q1013=
SA	04/11/2024 20:00->	
METAR SBFL 042000Z 08015KT 2100 -RA BKN010 BKN014 23/22 Q1013=
SA	04/11/2024 19:00->	
METAR SBFL 041900Z 08011KT 3500 -RA SCT010 BKN014 24/22 Q1013=
SA	04/11/2024 18:00->	
METAR SBFL 041800Z 06009KT 3500 -RA SCT010 BKN014 24/22 Q1013=
SA	04/11/2024 17:00->	
METAR SBFL 041700Z 05010KT 020V080 8000 VCSH BKN014 OVC018 25/22 Q1014=
SA	04/11/2024 16:00->	
METAR SBFL 041600Z 05014KT 020V080 9999 VCSH BKN014 OVC029 25/21 Q1014=
SA	04/11/2024 15:00->	
METAR SBFL 041500Z 05015G25KT 9999 VCSH BKN014 OVC025 25/21 Q1015=
SA	04/11/2024 14:00->	
METAR SBFL 041400Z 04012KT 360V070 9999 BKN014 SCT028 OVC056 26/21 Q1015=
SA	04/11/2024 13:00->	
METAR SBFL 041300Z 05015G26KT 9999 VCSH BKN014 BKN028 OVC085 26/22 Q1015 WS R14=
SA	04/11/2024 12:00->	
METAR SBFL 041200Z 05013G24KT 9000 VCSH BKN013 OVC022 25/22 Q1015 WS R14=
SA	04/11/2024 11:00->	
METAR SBFL 041100Z 06012KT 6000 -RA BKN014 OVC087 25/22 Q1015=
SA	04/11/2024 10:00->	
METAR SBFL 041000Z 07012KT 7000 BKN014 OVC080 24/22 Q1015=
SA	04/11/2024 09:00->	
METAR SBFL 040900Z 06014KT 7000 BKN013 OVC024 24/22 Q1014=
SA	04/11/2024 08:00->	
METAR SBFL 040800Z 06013KT 9999 BKN013 OVC017 24/22 Q1014=
SA	04/11/2024 07:00->	
METAR SBFL 040700Z 07012KT 9999 BKN014 OVC080 24/22 Q1014=
SA	04/11/2024 06:00->	
METAR SBFL 040600Z 07012KT 9999 OVC012 23/22 Q1013=
SA	04/11/2024 05:00->	
METAR SBFL 040500Z 07012KT 8000 -RA OVC011 23/22 Q1014=
SA	04/11/2024 04:00->	
METAR SBFL 040400Z 08012KT 9999 OVC012 23/22 Q1014=
SA	04/11/2024 03:00->	
METAR SBFL 040300Z 07011KT 9999 BKN008 OVC050 23/22 Q1015=
SA	04/11/2024 02:00->	
METAR SBFL 040200Z 06009KT 9999 -RA BKN008 OVC050 23/22 Q1015=
SA	04/11/2024 01:00->	
METAR SBFL 040100Z 08012KT 9999 OVC009 23/22 Q1015=
SA	04/11/2024 00:00->	
METAR SBFL 040000Z 07008KT 040V100 9999 FEW004 OVC010 23/22 Q1015=
SA	03/11/2024 23:54->	
METAR SBFL 040000Z 07008KT 040V100 9999 FEW004 OVC010 23/22 Q1015=
SA	03/11/2024 23:00->	
METAR SBFL 032300Z 09009KT 9999 -RA BKN014 BKN090 23/22 Q1015=
SA	03/11/2024 22:00->	
METAR SBFL 032200Z 07004KT 8000 -RA BKN014 BKN030 BKN045 23/22 Q1014=
SA	03/11/2024 21:00->	
METAR SBFL 032100Z VRB02KT 9999 -RA BKN014 BKN050 OVC070 24/22 Q1014=
SA	03/11/2024 20:00->	
METAR SBFL 032000Z VRB02KT 9000 -RA BKN014 BKN030 FEW033TCU OVC061 24/23 Q1014=
SA	03/11/2024 19:00->	
METAR SBFL 031900Z 33005KT 9999 VCSH BKN014 BKN022 FEW025TCU 24/23 Q1014=
SA	03/11/2024 18:00->	
METAR SBFL 031800Z 35007KT 9999 -RA BKN014 BKN035 OVC050 24/22 Q1014=
SA	03/11/2024 17:00->	
METAR SBFL 031700Z 35007KT 9000 -RA BKN014 BKN040 24/22 Q1015=
SA	03/11/2024 16:00->	
METAR SBFL 031600Z 01005KT 9999 -RA BKN014 BKN060 24/22 Q1015=
SA	03/11/2024 15:00->	
METAR SBFL 031500Z 36006KT 9999 -RA BKN014 BKN036 25/22 Q1016=
SA	03/11/2024 14:00->	
METAR SBFL 031400Z 01006KT 9999 -RA BKN014 BKN036 25/22 Q1016=
SA	03/11/2024 13:00->	
METAR SBFL 031300Z 36004KT 9999 BKN014 BKN070 24/22 Q1016=
SA	03/11/2024 12:00->	
METAR SBFL 031200Z 02006KT 9999 BKN014 BKN080 24/22 Q1016=
SA	03/11/2024 11:00->	
METAR SBFL 031100Z 06006KT 9999 BKN014 OVC060 24/22 Q1016=
SA	03/11/2024 10:00->	
METAR SBFL 031000Z 07007KT 9999 BKN014 OVC050 24/22 Q1016=
SA	03/11/2024 09:00->	
METAR SBFL 030900Z 06008KT 9999 BKN014 OVC080 24/21 Q1015=
SA	03/11/2024 08:00->	
METAR SBFL 030800Z 05009KT 9999 -RA BKN014 OVC060 23/21 Q1014=
SA	03/11/2024 07:00->	
METAR SBFL 030700Z 05008KT 9999 -RA BKN012 OVC040 23/22 Q1014=
SA	03/11/2024 06:00->	
METAR SBFL 030600Z 04004KT 9999 -RA BKN012 OVC030 23/22 Q1014=
SA	03/11/2024 05:00->	
METAR SBFL 030500Z 01004KT 9999 -RA BKN012 OVC020 23/22 Q1014=
SA	03/11/2024 04:00->	
METAR SBFL 030400Z 03003KT 350V060 9999 -RA BKN012 OVC020 23/22 Q1015=
SA	03/11/2024 03:00->	
METAR SBFL 030300Z 36010KT 9999 -RA BKN012 OVC020 23/21 Q1015=
SA	03/11/2024 02:00->	
METAR SBFL 030200Z 01008KT 9999 BKN012 BKN014 23/22 Q1015=
SA	03/11/2024 01:00->	
METAR SBFL 030100Z 03006KT 9999 SCT008 BKN014 24/22 Q1016=
SA	03/11/2024 00:00->	
METAR SBFL 030000Z 01007KT 9999 SCT008 BKN014 24/22 Q1015=
SA	02/11/2024 23:55->	
METAR SBFL 030000Z 01007KT 9999 SCT008 BKN014 24/22 Q1015=
SA	02/11/2024 23:00->	
METAR SBFL 022300Z 35004KT 7000 -RA FEW008 BKN015 23/22 Q1015=
SA	02/11/2024 22:00->	
METAR SBFL 022200Z 01004KT 9999 FEW013 BKN024 OVC048 24/21 Q1015=
SA	02/11/2024 21:00->	
METAR SBFL 022100Z 01005KT 9999 FEW016 BKN026 OVC035 24/21 Q1014=
SA	02/11/2024 20:00->	
METAR SBFL 022000Z 34005KT 9999 SCT015 BKN029 24/22 Q1014=
SA	02/11/2024 19:00->	
METAR SBFL 021900Z 34006KT 9999 SCT015 BKN025 OVC035 23/22 Q1014=
SA	02/11/2024 18:00->	
METAR SBFL 021800Z 02010KT 9999 FEW022 BKN035 25/20 Q1014=
SA	02/11/2024 17:00->	
METAR SBFL 021700Z 01011KT 9999 SCT023 BKN050 27/21 Q1015=
SA	02/11/2024 16:00->	
METAR SBFL 021600Z 36012KT 9999 SCT025 BKN050 27/21 Q1015=
SA	02/11/2024 15:00->	
METAR SBFL 021500Z 36015KT 9999 FEW020 BKN040 BKN100 26/20 Q1016=
SA	02/11/2024 14:00->	
METAR SBFL 021400Z 35012KT 9999 FEW020 SCT040 BKN100 25/21 Q1016=
SA	02/11/2024 13:00->	
METAR SBFL 021300Z 35013KT 9999 FEW020 SCT040 BKN100 25/21 Q1016=
SA	02/11/2024 12:00->	
METAR SBFL 021200Z 34014KT 9999 FEW015 SCT030 BKN100 25/21 Q1016=
SA	02/11/2024 11:00->	
METAR SBFL 021100Z 34012KT 9999 SCT015 BKN100 24/21 Q1016=
SA	02/11/2024 10:00->	
METAR SBFL 021000Z 35006KT 9999 SCT017 24/21 Q1016=
SA	02/11/2024 09:00->	
METAR SBFL 020900Z 35007KT 9999 SCT013 23/21 Q1015=
SA	02/11/2024 08:00->	
METAR SBFL 020800Z 36009KT 9999 SCT015 23/21 Q1014=
SA	02/11/2024 07:00->	
METAR SBFL 020700Z 36009KT CAVOK 23/21 Q1014=
SA	02/11/2024 06:00->	
METAR SBFL 020600Z 01008KT 9999 BKN040 23/20 Q1014=
SA	02/11/2024 05:00->	
METAR SBFL 020500Z 01009KT 9999 SCT014 SCT021 23/21 Q1014=
SA	02/11/2024 04:00->	
METAR SBFL 020400Z 01009KT 9999 BKN014 OVC040 23/21 Q1015=
SA	02/11/2024 03:00->	
METAR SBFL 020300Z 03005KT 9999 BKN014 OVC050 23/21 Q1016=
SA	02/11/2024 02:00->	
METAR SBFL 020200Z 32002KT 9999 BKN012 OVC020 23/22 Q1016 RERA=
SP	02/11/2024 01:25->	
SPECI SBFL 020125Z 36005KT 300V090 3000 RA BKN013 OVC030 23/21 Q1016=
SA	02/11/2024 01:00->	
METAR SBFL 020100Z 35005KT 320V100 9999 OVC023 23/21 Q1016=
SA	02/11/2024 00:00->	
METAR SBFL 020000Z 36005KT 9999 SCT020 BKN050 23/20 Q1016=
SA	01/11/2024 23:54->	
METAR SBFL 020000Z 36005KT 9999 SCT020 BKN050 23/20 Q1016=
SA	01/11/2024 23:00->	
METAR SBFL 012300Z 36006KT 9999 SCT023 BKN060 24/20 Q1016=
SA	01/11/2024 22:00->	
METAR SBFL 012200Z 35007KT 9999 FEW027 BKN060 24/20 Q1015=
SA	01/11/2024 21:00->	
METAR SBFL 012100Z 35010KT 9999 FEW027 BKN060 25/19 Q1015=
SA	01/11/2024 20:00->	
METAR SBFL 012000Z 34012KT 9999 FEW027 SCT050 25/19 Q1014=
SA	01/11/2024 19:00->	
METAR SBFL 011900Z 35013KT 9999 FEW025 26/19 Q1014=
SA	01/11/2024 18:00->	
METAR SBFL 011800Z 01013KT 340V050 9999 FEW025 27/18 Q1015=
SA	01/11/2024 17:00->	
METAR SBFL 011700Z 35013KT 9999 SCT026 BKN050 26/19 Q1015=
SA	01/11/2024 16:00->	
METAR SBFL 011600Z 34014KT 9999 SCT026 BKN060 26/20 Q1016=
SA	01/11/2024 15:00->	
METAR SBFL 011500Z 34012KT 9999 SCT033 27/20 Q1016=
SA	01/11/2024 14:00->	
METAR SBFL 011400Z 34009KT 9999 SCT027 25/20 Q1017=
SA	01/11/2024 13:00->	
METAR SBFL 011300Z 34011KT 9999 SCT023 24/20 Q1018=
SA	01/11/2024 12:00->	
METAR SBFL 011200Z 31006KT 280V350 9999 BKN015 23/19 Q1018=
SA	01/11/2024 11:00->	
METAR SBFL 011100Z 28004KT 4000 -RA OVC013 21/20 Q1018 REDZ=
SP	01/11/2024 10:30->	
SPECI SBFL 011030Z 29004KT 4000 -DZ BKN013 BKN023 22/19 Q1017=
SA	01/11/2024 10:00->	
METAR SBFL 011000Z 27004KT 9999 SCT014 SCT035 22/19 Q1017=
SA	01/11/2024 09:00->	
METAR SBFL 010900Z VRB02KT 9999 SCT014 SCT035 21/19 Q1017=
SA	01/11/2024 08:00->	
METAR SBFL 010800Z 02004KT 9999 FEW023 21/18 Q1016=
SA	01/11/2024 07:00->	
METAR SBFL 010700Z 01003KT 9999 FEW023 22/18 Q1016=
SA	01/11/2024 06:00->	
METAR SBFL 010600Z 03003KT 9999 FEW023 22/19 Q1017=
SA	01/11/2024 05:00->	
METAR SBFL 010500Z 01004KT 9999 FEW023 SCT050 22/19 Q1017=
SA	01/11/2024 04:00->	
METAR SBFL 010400Z 06010KT 9999 FEW023 SCT050 22/19 Q1017=
SA	01/11/2024 03:00->	
METAR SBFL 010300Z 05006KT 9999 SCT020 22/19 Q1018=
SA	01/11/2024 02:00->	
METAR SBFL 010200Z 06006KT 030V100 9999 SCT020 SCT050 22/19 Q1018=
SA	01/11/2024 01:00->	
METAR SBFL 010100Z 06008KT 9999 FEW020 SCT050 22/19 Q1018=
SA	01/11/2024 00:00->	
METAR SBFL 010000Z 07011KT CAVOK 22/18 Q1018=
SA	31/10/2024 23:55->	
METAR SBFL 010000Z 07011KT CAVOK 22/18 Q1018=
SA	31/10/2024 23:00->	
METAR SBFL 312300Z 06006KT 350V110 9999 OVC021 22/18 Q1018=
SA	31/10/2024 22:00->	
METAR SBFL 312200Z 06009KT 9999 BKN021 22/18 Q1017=
SA	31/10/2024 21:00->	
METAR SBFL 312100Z 06007KT 020V090 9999 SCT030 BKN060 23/19 Q1017=
SA	31/10/2024 20:00->	
METAR SBFL 312000Z VRB01KT 9999 SCT030 BKN060 24/18 Q1017=
SA	31/10/2024 19:00->	
METAR SBFL 311900Z 04013KT 9999 SCT030 25/17 Q1016=
SA	31/10/2024 18:00->	
METAR SBFL 311800Z 04014KT 9999 SCT030 25/16 Q1017=
SA	31/10/2024 17:00->	
METAR SBFL 311700Z 07013KT 040V100 9999 SCT030 SCT060 25/17 Q1017=
SA	31/10/2024 16:00->	
METAR SBFL 311600Z 06013KT 030V090 9999 SCT028 BKN060 26/19 Q1018=
SA	31/10/2024 15:00->	
METAR SBFL 311500Z 05006KT 010V100 9999 SCT025 BKN050 25/19 Q1019=
SA	31/10/2024 14:00->	
METAR SBFL 311400Z 08006KT 030V110 9999 FEW015 SCT025 BKN040 24/19 Q1019=
SA	31/10/2024 13:00->	
METAR SBFL 311300Z 09005KT 9999 VCSH FEW015 SCT025 BKN050 23/19 Q1019=
SA	31/10/2024 12:00->	
METAR SBFL 311200Z 28004KT 240V310 9999 VCSH FEW015 SCT028 BKN050 23/19 Q1019=
SA	31/10/2024 11:00->	
METAR SBFL 311100Z 25004KT 9999 FEW020 BKN050 22/19 Q1019=
SA	31/10/2024 10:00->	
METAR SBFL 311000Z 00000KT 9999 FEW030 BKN050 21/19 Q1018=
SA	31/10/2024 09:00->	
METAR SBFL 310900Z 02002KT 9999 FEW030 BKN050 21/18 Q1018=
SA	31/10/2024 08:00->	
METAR SBFL 310800Z 05002KT 9999 FEW030 SCT050 21/17 Q1017=
SA	31/10/2024 07:00->	
METAR SBFL 310700Z 08003KT 9999 FEW025 BKN070 21/17 Q1017=
SA	31/10/2024 06:00->	
METAR SBFL 310600Z 07005KT 9999 BKN025 BKN070 21/17 Q1017=
SA	31/10/2024 05:00->	
METAR SBFL 310500Z 06006KT 9999 BKN025 BKN070 22/18 Q1018=
SA	31/10/2024 04:00->	
METAR SBFL 310400Z 06004KT 9999 BKN020 BKN050 22/18 Q1018=
SA	31/10/2024 03:00->	
METAR SBFL 310300Z 06005KT 9999 BKN020 BKN050 22/18 Q1018=
SA	31/10/2024 02:00->	
METAR SBFL 310200Z 06002KT 9999 BKN020 BKN040 22/18 Q1019=
SA	31/10/2024 01:00->	
METAR SBFL 310100Z 07009KT 9999 BKN020 BKN040 22/18 Q1019=
SA	31/10/2024 00:00->	
METAR SBFL 310000Z 06011KT 9000 BKN019 BKN035 22/19 Q1018=
SA	30/10/2024 23:55->	
METAR SBFL 310000Z 06011KT 9000 BKN019 BKN035 22/19 Q1018=
SA	30/10/2024 23:00->	
METAR SBFL 302300Z 03005KT 9999 BKN019 BKN100 22/19 Q1018=
SA	30/10/2024 22:00->	
METAR SBFL 302200Z 05006KT 9999 BKN020 BKN045 22/19 Q1018=
SA	30/10/2024 21:00->	
METAR SBFL 302100Z 04007KT 360V080 9999 VCSH FEW015 BKN021 FEW035TCU 23/19 Q1017=
SA	30/10/2024 20:00->	
METAR SBFL 302000Z VRB04KT 9999 VCSH BKN017 FEW040TCU 23/19 Q1017=
SA	30/10/2024 19:00->	
METAR SBFL 301900Z 08012KT 9999 VCSH SCT019 BKN035 FEW040TCU 23/20 Q1017=
SA	30/10/2024 18:00->	
METAR SBFL 301800Z 09010KT 9999 VCSH FEW019 BKN035 FEW040TCU 24/20 Q1017=
SA	30/10/2024 17:00->	
METAR SBFL 301700Z 07010KT 9999 SCT017 BKN040 25/20 Q1017=
SP	30/10/2024 16:19->	
SPECI SBFL 301619Z 07010KT 9999 SCT017 BKN040 24/19 Q1017=
SA	30/10/2024 16:00->	
METAR SBFL 301600Z 06007KT 9999 BKN014 BKN035 23/20 Q1017=
SA	30/10/2024 15:00->	
METAR SBFL 301500Z 08009KT 9999 BKN014 BKN025 24/20 Q1018=
SA	30/10/2024 14:00->	
METAR SBFL 301400Z 09009KT 9999 BKN010 BKN040 23/21 Q1018=
SA	30/10/2024 13:00->	
METAR SBFL 301300Z 09010KT 8000 -RA BKN010 BKN035 21/20 Q1018=
SA	30/10/2024 12:00->	
METAR SBFL 301200Z 07008KT 4000 -RA BR BKN010 BKN050 22/20 Q1018=
SP	30/10/2024 11:30->	
SPECI SBFL 301130Z 08008KT 9999 -DZ BKN010 BKN039 23/20 Q1018=
SA	30/10/2024 11:00->	
METAR SBFL 301100Z 36002KT 9999 SCT012 SCT030 BKN048 23/20 Q1017=
SA	30/10/2024 10:00->	
METAR SBFL 301000Z 11003KT 9000 VCSH SCT012 BKN025 BKN040 22/20 Q1017=
SA	30/10/2024 09:00->	
METAR SBFL 300900Z VRB02KT 9999 VCSH SCT018 OVC031 22/20 Q1016=
SA	30/10/2024 08:00->	
METAR SBFL 300800Z 12004KT 080V150 9999 SCT021 OVC033 21/20 Q1016=
SA	30/10/2024 07:00->	
METAR SBFL 300700Z 10003KT 9999 FEW020 BKN070 21/19 Q1016=
SA	30/10/2024 06:00->	
METAR SBFL 300600Z 00000KT 9999 FEW016 BKN098 21/19 Q1015=
SA	30/10/2024 05:00->	
METAR SBFL 300500Z 00000KT 9999 FEW016 BKN070 BKN098 22/20 Q1016=
SA	30/10/2024 04:00->	
METAR SBFL 300400Z 05003KT 9999 FEW016 SCT040 BKN069 22/20 Q1017=
SA	30/10/2024 03:00->	
METAR SBFL 300300Z 03003KT 350V070 9999 FEW020 SCT036 BKN051 23/20 Q1017=
SA	30/10/2024 02:00->	
METAR SBFL 300200Z 03003KT 360V090 9999 FEW018 BKN050 BKN066 23/20 Q1018=
SA	30/10/2024 01:00->	
METAR SBFL 300100Z 02006KT 9999 SCT018 BKN037 BKN053 23/19 Q1018=
SA	30/10/2024 00:00->	
METAR SBFL 300000Z 04003KT 9999 SCT017 BKN050 23/20 Q1017=
SA	29/10/2024 23:55->	
METAR SBFL 300000Z 04003KT 9999 SCT017 BKN050 23/20 Q1017=
SA	29/10/2024 23:00->	
METAR SBFL 292300Z 05003KT 9999 BKN020 BKN045 23/20 Q1016=
SA	29/10/2024 22:00->	
METAR SBFL 292200Z 09005KT 9999 SCT015 BKN040 FEW045TCU 23/20 Q1016=
SA	29/10/2024 21:00->	
METAR SBFL 292100Z 08006KT 9999 FEW015 BKN040 FEW045TCU 24/20 Q1015=
SA	29/10/2024 20:00->	
METAR SBFL 292000Z 02006KT 9999 SCT030 BKN070 25/19 Q1015=
SA	29/10/2024 19:00->	
METAR SBFL 291900Z 01012G22KT 9999 SCT030 26/19 Q1014=
SA	29/10/2024 18:00->	
METAR SBFL 291800Z 02013KT 9999 SCT020 FEW040TCU 27/19 Q1014=
SA	29/10/2024 17:00->	
METAR SBFL 291700Z 36012KT 340V050 9999 SCT049 27/19 Q1015=
SA	29/10/2024 16:00->	
METAR SBFL 291600Z 35012KT 9999 BKN049 27/19 Q1016=
SA	29/10/2024 15:00->	
METAR SBFL 291500Z 35010KT 9999 BKN039 BKN053 26/20 Q1017=
SA	29/10/2024 14:00->	
METAR SBFL 291400Z 35010KT 9999 BKN038 BKN047 25/19 Q1017=
SA	29/10/2024 13:00->	
METAR SBFL 291300Z 35011KT 9999 BKN040 25/19 Q1018=
SA	29/10/2024 12:00->	
METAR SBFL 291200Z 35011KT 9999 SCT025 BKN035 24/19 Q1018=
SA	29/10/2024 11:00->	
METAR SBFL 291100Z 34011KT 9999 BKN030 23/19 Q1018=
SA	29/10/2024 10:00->	
METAR SBFL 291000Z 33008KT 9999 FEW015 BKN030 22/19 Q1018=
SA	29/10/2024 09:00->	
METAR SBFL 290900Z 34008KT 9999 FEW010 BKN030 21/19 Q1017=
SA	29/10/2024 08:00->	
METAR SBFL 290800Z 33009KT 9999 FEW010 BKN020 BKN060 21/19 Q1016=
SA	29/10/2024 07:00->	
METAR SBFL 290700Z 34006KT 9999 FEW010 BKN024 21/20 Q1016=
SA	29/10/2024 06:00->	
METAR SBFL 290600Z 19002KT 9999 FEW020 BKN045 22/19 Q1016=
SA	29/10/2024 05:00->	
METAR SBFL 290500Z 32005KT 9999 FEW020 BKN045 22/19 Q1017=
SA	29/10/2024 04:00->	
METAR SBFL 290400Z 35011KT 9999 FEW022 BKN045 23/19 Q1017=
SA	29/10/2024 03:00->	
METAR SBFL 290300Z 35011KT 9999 FEW022 BKN040 23/18 Q1017=
SA	29/10/2024 02:00->	
METAR SBFL 290200Z 36012KT 9999 FEW020 BKN033 23/18 Q1018=
SA	29/10/2024 01:00->	
METAR SBFL 290100Z 36011KT 9999 FEW020 BKN035 23/19 Q1018=
SA	29/10/2024 00:00->	
METAR SBFL 290000Z 36008KT 9999 FEW018 BKN030 23/18 Q1018=
SA	28/10/2024 23:55->	
METAR SBFL 290000Z 36008KT 9999 FEW018 BKN030 23/18 Q1018=
SA	28/10/2024 23:00->	
METAR SBFL 282300Z 36010KT 9999 FEW018 SCT040 22/18 Q1017=
SA	28/10/2024 22:00->	
METAR SBFL 282200Z 36012KT 9999 SCT018 23/18 Q1017=
SA	28/10/2024 21:00->	
METAR SBFL 282100Z 01010KT 9999 VCSH FEW020 23/18 Q1016=
SA	28/10/2024 20:00->	
METAR SBFL 282000Z 36014KT 9999 FEW035 25/17 Q1016=
SA	28/10/2024 19:00->	
METAR SBFL 281900Z 36015KT 9999 FEW035 25/18 Q1016=
SA	28/10/2024 18:00->	
METAR SBFL 281800Z 36014KT 9999 FEW030 SCT060 25/17 Q1016=
SA	28/10/2024 17:00->	
METAR SBFL 281700Z 35015KT 9999 FEW025 BKN050 26/18 Q1017=
SA	28/10/2024 16:00->	
METAR SBFL 281600Z 35014KT 9999 BKN045 26/18 Q1018=
SA	28/10/2024 15:00->	
METAR SBFL 281500Z 35014KT 9999 BKN045 25/16 Q1019=
SA	28/10/2024 14:00->	
METAR SBFL 281400Z 34011KT 9999 BKN045 25/17 Q1020=
SA	28/10/2024 13:00->	
METAR SBFL 281300Z 35011KT 9999 BKN040 24/17 Q1020=
SA	28/10/2024 12:00->	
METAR SBFL 281200Z 35008KT 9999 FEW030 22/16 Q1021=
SA	28/10/2024 11:00->	
METAR SBFL 281100Z 31005KT 9999 FEW030 21/16 Q1021=
SA	28/10/2024 10:00->	
METAR SBFL 281000Z 28004KT 9999 SCT030 20/16 Q1021=
SA	28/10/2024 09:00->	
METAR SBFL 280900Z 29004KT 9999 SCT026 18/15 Q1020=
SA	28/10/2024 08:00->	
METAR SBFL 280800Z 28003KT 9999 SCT030 18/15 Q1019=
SA	28/10/2024 07:00->	
METAR SBFL 280700Z 26004KT CAVOK 19/15 Q1019=
SA	28/10/2024 06:00->	
METAR SBFL 280600Z 25005KT CAVOK 18/15 Q1019=
SA	28/10/2024 05:00->	
METAR SBFL 280500Z 25003KT CAVOK 18/15 Q1020=
SA	28/10/2024 04:00->	
METAR SBFL 280400Z 25002KT 9999 FEW033 BKN060 18/16 Q1021=
SA	28/10/2024 03:00->	
METAR SBFL 280300Z 00000KT 9999 FEW033 BKN060 19/15 Q1021=
SA	28/10/2024 02:00->	
METAR SBFL 280200Z 01001KT 9999 OVC046 19/15 Q1022=
SA	28/10/2024 01:00->	
METAR SBFL 280100Z 23002KT 9999 OVC046 19/15 Q1022=
SA	28/10/2024 00:00->	
METAR SBFL 280000Z 28003KT 9999 BKN045 19/15 Q1022=
SA	27/10/2024 23:55->	
METAR SBFL 280000Z 28003KT 9999 BKN045 19/15 Q1022=
SA	27/10/2024 23:00->	
METAR SBFL 272300Z 19004KT 170V260 9999 BKN045 20/15 Q1021=
SA	27/10/2024 22:00->	
METAR SBFL 272200Z 18004KT 9999 BKN045 BKN100 20/14 Q1021=
SA	27/10/2024 21:00->	
METAR SBFL 272100Z 14005KT 9999 BKN045 BKN100 20/13 Q1021=
SA	27/10/2024 20:00->	
METAR SBFL 272000Z 12009KT 9999 BKN045 BKN100 21/13 Q1021=
SA	27/10/2024 19:00->	
METAR SBFL 271900Z 12010KT 9999 BKN043 BKN080 21/13 Q1021=
SA	27/10/2024 18:00->	
METAR SBFL 271800Z 13010KT 9999 BKN045 BKN080 22/13 Q1021=
SA	27/10/2024 17:00->	
METAR SBFL 271700Z 12012KT 090V150 9999 BKN046 BKN070 22/12 Q1022=
SA	27/10/2024 16:00->	
METAR SBFL 271600Z 12011KT 9999 SCT048 BKN070 23/13 Q1022=
SA	27/10/2024 15:00->	
METAR SBFL 271500Z 12010KT 9999 FEW046 SCT060 BKN070 22/13 Q1022=
SA	27/10/2024 14:00->	
METAR SBFL 271400Z 12007KT 9999 BKN047 BKN060 21/11 Q1023=
SA	27/10/2024 13:00->	
METAR SBFL 271300Z 13008KT 9999 OVC048 20/12 Q1023=
SA	27/10/2024 12:00->	
METAR SBFL 271200Z VRB02KT 9999 OVC048 21/12 Q1022=
SA	27/10/2024 11:00->	
METAR SBFL 271100Z 18006KT 9999 OVC048 20/11 Q1022=
SA	27/10/2024 10:00->	
METAR SBFL 271000Z 20003KT 9999 OVC040 19/12 Q1021=
SA	27/10/2024 09:00->	
METAR SBFL 270900Z 18005KT 9999 OVC040 18/12 Q1020=
SA	27/10/2024 08:00->	
METAR SBFL 270800Z 18008KT 9999 OVC040 18/12 Q1020=
SA	27/10/2024 07:00->	
METAR SBFL 270700Z 18007KT 9999 OVC040 18/12 Q1019=
SA	27/10/2024 06:00->	
METAR SBFL 270600Z 19008KT 9999 OVC040 18/12 Q1019=
SA	27/10/2024 05:00->	
METAR SBFL 270500Z 18006KT 9999 OVC040 18/12 Q1019=
SA	27/10/2024 04:00->	
METAR SBFL 270400Z 19009KT 9999 OVC040 18/12 Q1019=
SA	27/10/2024 03:00->	
METAR SBFL 270300Z 17008KT 9999 OVC040 19/12 Q1020=
SA	27/10/2024 02:00->	
METAR SBFL 270200Z 18010KT 9999 OVC040 19/12 Q1020=
SA	27/10/2024 01:00->	
METAR SBFL 270100Z 16010KT 130V200 9999 OVC040 19/12 Q1019=
SA	27/10/2024 00:00->	
METAR SBFL 270000Z 15010KT 120V230 9999 OVC046 20/12 Q1018=
SA	26/10/2024 23:51->	
METAR SBFL 270000Z 15010KT 120V230 9999 OVC046 20/12 Q1018=
SA	26/10/2024 23:00->	
METAR SBFL 262300Z 15011KT 9999 BKN048 19/12 Q1017=
SA	26/10/2024 22:00->	
METAR SBFL 262200Z 16016KT 9999 BKN043 20/12 Q1016=
SA	26/10/2024 21:00->	
METAR SBFL 262100Z 18020G32KT 9999 BKN043 20/11 Q1015=
SP	26/10/2024 20:20->	
SPECI SBFL 262020Z 17019G30KT 140V200 9999 BKN043 21/11 Q1014=
SA	26/10/2024 20:00->	
METAR SBFL 262000Z 15019KT CAVOK 21/11 Q1014=
SA	26/10/2024 19:00->	
METAR SBFL 261900Z 15020KT 9999 FEW040 21/10 Q1013=
SA	26/10/2024 18:00->	
METAR SBFL 261800Z 14020KT 9999 FEW040 22/12 Q1012=
SA	26/10/2024 17:00->	
METAR SBFL 261700Z 13016KT 9999 FEW045 23/12 Q1012=
SA	26/10/2024 16:00->	
METAR SBFL 261600Z 13017G28KT 9999 FEW040 23/12 Q1013 WS R14=
SA	26/10/2024 15:00->	
METAR SBFL 261500Z 14018KT 9999 FEW035 23/14 Q1012=
SA	26/10/2024 14:00->	
METAR SBFL 261400Z 15016KT 9999 FEW030 23/15 Q1013=
SA	26/10/2024 13:00->	
METAR SBFL 261300Z 14015G25KT 9999 FEW030 22/15 Q1013 WS R14=
SA	26/10/2024 12:00->	
METAR SBFL 261200Z 15017KT 9999 FEW020 21/15 Q1012=
SA	26/10/2024 11:00->	
METAR SBFL 261100Z 16016KT 9999 SCT020 21/15 Q1011=
SA	26/10/2024 10:00->	
METAR SBFL 261000Z 32004KT 290V020 CAVOK 24/19 Q1010=
SA	26/10/2024 09:00->	
METAR SBFL 260900Z 01005KT CAVOK 22/19 Q1009=
SA	26/10/2024 08:00->	
METAR SBFL 260800Z 01005KT 9999 FEW020 22/19 Q1009=
SA	26/10/2024 07:00->	
METAR SBFL 260700Z 36006KT 9999 FEW020 22/19 Q1008=
SA	26/10/2024 06:00->	
METAR SBFL 260600Z 36007KT 9999 FEW040 22/18 Q1008=
SA	26/10/2024 05:00->	
METAR SBFL 260500Z 32008KT 9999 SCT035 22/19 Q1009=
SA	26/10/2024 04:00->	
METAR SBFL 260400Z 36006KT 310V030 9999 FEW017 BKN030 22/19 Q1009=
SA	26/10/2024 03:00->	
METAR SBFL 260300Z VRB02KT 9999 BKN030 21/19 Q1009=
SA	26/10/2024 02:00->	
METAR SBFL 260200Z 10002KT 9999 FEW027 SCT035 20/18 Q1010=
SA	26/10/2024 01:00->	
METAR SBFL 260100Z 05002KT 9999 FEW030 21/18 Q1010=
SA	26/10/2024 00:00->	
METAR SBFL 260000Z 12004KT 9999 FEW025 21/18 Q1009=
SA	25/10/2024 23:54->	
METAR SBFL 260000Z 12004KT 9999 FEW025 21/18 Q1009=
SA	25/10/2024 23:00->	
METAR SBFL 252300Z 15008KT 9999 FEW025 22/18 Q1008=
SA	25/10/2024 22:00->	
METAR SBFL 252200Z 13008KT 9999 FEW025 21/18 Q1007=
SA	25/10/2024 21:00->	
METAR SBFL 252100Z 12010KT 9999 FEW030 23/18 Q1006=
SA	25/10/2024 20:00->	
METAR SBFL 252000Z 11012KT 9999 FEW030 24/18 Q1005=
SA	25/10/2024 19:00->	
METAR SBFL 251900Z 12013KT 9999 FEW030 25/18 Q1005=
SA	25/10/2024 18:00->	
METAR SBFL 251800Z 13015KT 9999 FEW030 26/20 Q1004=
SA	25/10/2024 17:00->	
METAR SBFL 251700Z 11014KT CAVOK 27/18 Q1004=
SA	25/10/2024 16:00->	
METAR SBFL 251600Z 12017KT 9999 FEW035 27/17 Q1004=
SA	25/10/2024 15:00->	
METAR SBFL 251500Z 12015KT 9999 FEW030 27/19 Q1004=
SA	25/10/2024 14:00->	
METAR SBFL 251400Z 11007KT 9999 FEW030 29/18 Q1003=
SA	25/10/2024 13:00->	
METAR SBFL 251300Z 34006KT CAVOK 29/16 Q1003=
SA	25/10/2024 12:00->	
METAR SBFL 251200Z 34006KT 310V030 CAVOK 28/16 Q1003=
SA	25/10/2024 11:00->	
METAR SBFL 251100Z 34005KT CAVOK 27/17 Q1002=
SA	25/10/2024 10:00->	
METAR SBFL 251000Z 35006KT CAVOK 25/18 Q1002=
SA	25/10/2024 09:00->	
METAR SBFL 250900Z 36006KT CAVOK 24/17 Q1001=
SA	25/10/2024 08:00->	
METAR SBFL 250800Z 29010KT CAVOK 24/17 Q0999=
SA	25/10/2024 07:00->	
METAR SBFL 250700Z 30013KT CAVOK 25/17 Q0999=
SA	25/10/2024 06:00->	
METAR SBFL 250600Z 31012KT CAVOK 24/18 Q0998=
SA	25/10/2024 05:00->	
METAR SBFL 250500Z 33010KT CAVOK 21/18 Q0998=
SA	25/10/2024 04:00->	
METAR SBFL 250400Z 33009KT CAVOK 24/19 Q0999=
SA	25/10/2024 03:00->	
METAR SBFL 250300Z 33012KT CAVOK 23/20 Q0999=
SA	25/10/2024 02:00->	
METAR SBFL 250200Z 34014KT 9999 FEW010 24/21 Q0999=
SA	25/10/2024 01:00->	
METAR SBFL 250100Z 02009KT 360V060 9999 SCT008 BKN100 23/22 Q0999=
SA	25/10/2024 00:00->	
METAR SBFL 250000Z 06004KT 030V090 9999 -RA SCT009 SCT020 BKN100 23/22 Q0999=
SA	24/10/2024 23:55->	
METAR SBFL 250000Z 06004KT 030V090 9999 -RA SCT009 SCT020 BKN100 23/22 Q0999=
SA	24/10/2024 23:00->	
METAR SBFL 242300Z 12004KT 070V150 9999 FEW017 BKN100 21/21 Q1000=
SA	24/10/2024 22:00->	
METAR SBFL 242200Z 10009KT 8000 FEW017 SCT050 BKN100 21/20 Q1000=
SA	24/10/2024 21:00->	
METAR SBFL 242100Z 10011KT 8000 SCT012 FEW025TCU BKN050 21/21 Q1000 RERA=
SP	24/10/2024 20:43->	
SPECI SBFL 242043Z 12013KT 9999 -RA SCT012 FEW025TCU BKN070 22/21 Q1000 RERA=
SP	24/10/2024 20:20->	
SPECI SBFL 242020Z 19012G23KT 2000 RA BR BKN007 FEW025TCU BKN070 24/22 Q0999=
SP	24/10/2024 20:14->	
SPECI SBFL 242014Z 20008G29KT 8000 VCSH BKN017 FEW025TCU BKN070 27/23 Q1000=
SA	24/10/2024 20:00->	
METAR SBFL 242000Z 35007KT 9999 FEW025 SCT050 BKN100 27/23 Q0997=
SA	24/10/2024 19:00->	
METAR SBFL 241900Z 35012KT 9999 FEW025 BKN070 27/23 Q0997=
SA	24/10/2024 18:00->	
METAR SBFL 241800Z 35015KT 9999 SCT027 BKN070 28/23 Q0998=
SA	24/10/2024 17:00->	
METAR SBFL 241700Z 36016KT 9999 SCT027 BKN070 30/23 Q0998=
SA	24/10/2024 16:00->	
METAR SBFL 241600Z 10014KT 9999 FEW027 29/22 Q0999=
SA	24/10/2024 15:00->	
METAR SBFL 241500Z 02015KT 9999 FEW028 30/23 Q1000=
SA	24/10/2024 14:00->	
METAR SBFL 241400Z 01014KT 9999 FEW030 29/21 Q1002=
SA	24/10/2024 13:00->	
METAR SBFL 241300Z 36013KT 9999 SCT030 27/21 Q1002=
SA	24/10/2024 12:00->	
METAR SBFL 241200Z 35012KT 9999 SCT030 25/21 Q1003=
SA	24/10/2024 11:00->	
METAR SBFL 241100Z 35011KT 9999 SCT030 25/21 Q1004=
SA	24/10/2024 10:00->	
METAR SBFL 241000Z 35013KT 9999 SCT035 24/21 Q1004=
SA	24/10/2024 09:00->	
METAR SBFL 240900Z 35012KT 9999 FEW015 SCT060 24/21 Q1005=
SA	24/10/2024 08:00->	
METAR SBFL 240800Z 35011KT 9999 FEW015 SCT030 24/21 Q1005=
SA	24/10/2024 07:00->	
METAR SBFL 240700Z 36009KT 9999 FEW015 SCT030 24/21 Q1005=
SA	24/10/2024 06:00->	
METAR SBFL 240600Z 34009KT 9999 BKN014 OVC030 24/21 Q1007=
SA	24/10/2024 05:00->	
METAR SBFL 240500Z 36008KT 9999 BKN014 OVC030 24/22 Q1007=
SA	24/10/2024 04:00->	
METAR SBFL 240400Z 35007KT 9999 BKN014 OVC030 24/22 Q1008=
SA	24/10/2024 03:00->	
METAR SBFL 240300Z 36008KT 9999 BKN014 OVC025 24/22 Q1009=
SA	24/10/2024 02:00->	
METAR SBFL 240200Z 36006KT 9999 OVC014 24/21 Q1009=
SP	24/10/2024 02:00->	
METAR SBFL 240200Z 36006KT 9999 OVC014 24/21 Q1009=
SA	24/10/2024 01:00->	
METAR SBFL 240100Z 01006KT 310V040 9999 OVC014 24/21 Q1010=
SA	24/10/2024 00:00->	
METAR SBFL 240000Z 36006KT 9999 SCT016 OVC020 24/21 Q1010=
SA	23/10/2024 23:53->	
METAR SBFL 240000Z 36006KT 9999 SCT016 OVC020 24/21 Q1010=
SA	23/10/2024 23:00->	
METAR SBFL 232300Z 01004KT 9999 OVC017 24/21 Q1010=
SA	23/10/2024 22:00->	
METAR SBFL 232200Z 06004KT 030V090 9999 BKN022 OVC027 24/21 Q1010=
SA	23/10/2024 21:00->	
METAR SBFL 232100Z 07007KT 030V100 9999 OVC021 25/21 Q1010=
SA	23/10/2024 20:00->	
METAR SBFL 232000Z 08010KT 9999 BKN023 25/21 Q1009=
SA	23/10/2024 19:00->	
METAR SBFL 231900Z 09009KT 9999 BKN025 26/21 Q1009=
SA	23/10/2024 18:00->	
METAR SBFL 231800Z 08011KT 9999 BKN025 26/21 Q1010=
SA	23/10/2024 17:00->	
METAR SBFL 231700Z 09012KT 9999 FEW025 27/21 Q1011=
SA	23/10/2024 16:00->	
METAR SBFL 231600Z VRB08KT 9999 FEW025 28/22 Q1012=
SA	23/10/2024 15:00->	
METAR SBFL 231500Z 13005KT 080V170 9999 FEW025 27/21 Q1012=
SA	23/10/2024 14:00->	
METAR SBFL 231400Z 09006KT CAVOK 27/22 Q1012=
SA	23/10/2024 13:00->	
METAR SBFL 231300Z 26004KT 200V290 9999 FEW020 SCT100 25/21 Q1013=
SA	23/10/2024 12:00->	
METAR SBFL 231200Z VRB04KT 9999 SCT020 BKN080 26/21 Q1014=
SA	23/10/2024 11:00->	
METAR SBFL 231100Z 12006KT 100V160 9999 FEW014 25/21 Q1014=
SA	23/10/2024 10:00->	
METAR SBFL 231000Z 00000KT 9999 FEW010 24/21 Q1014=
SA	23/10/2024 09:00->	
METAR SBFL 230900Z 12005KT 9999 FEW008 SCT100 22/20 Q1013=
SA	23/10/2024 08:00->	
METAR SBFL 230800Z 12003KT 9999 FEW004 21/20 Q1013=
SP	23/10/2024 07:12->	
SPECI SBFL 230712Z 18002KT 9999 FEW007 21/21 Q1012=
SA	23/10/2024 07:00->	
METAR SBFL 230700Z 20001KT 9999 BKN007 21/20 Q1012=
SA	23/10/2024 06:00->	
METAR SBFL 230600Z 10002KT 9999 BKN007 22/21 Q1013=
SA	23/10/2024 05:00->	
METAR SBFL 230500Z 00000KT 9999 FEW007 22/21 Q1013=
SA	23/10/2024 04:00->	
METAR SBFL 230400Z 00000KT CAVOK 22/21 Q1014=
SA	23/10/2024 03:00->	
METAR SBFL 230300Z 32002KT CAVOK 23/22 Q1014=
SA	23/10/2024 02:00->	
METAR SBFL 230200Z 32004KT CAVOK 23/22 Q1014=
SA	23/10/2024 01:00->	
METAR SBFL 230100Z 33001KT CAVOK 23/22 Q1014=
SA	23/10/2024 00:00->	
METAR SBFL 230000Z VRB02KT 9999 FEW045 SCT100 23/22 Q1014=
SA	22/10/2024 23:55->	
METAR SBFL 230000Z VRB02KT 9999 FEW045 SCT100 23/22 Q1014=
SA	22/10/2024 23:00->	
METAR SBFL 222300Z 12005KT 9999 FEW045 23/22 Q1013=
SA	22/10/2024 22:00->	
METAR SBFL 222200Z 13007KT 9999 FEW040 24/22 Q1013=
SA	22/10/2024 21:00->	
METAR SBFL 222100Z 11004KT 9999 FEW040 25/22 Q1013=
SA	22/10/2024 20:00->	
METAR SBFL 222000Z 13008KT 9999 FEW040 SCT080 26/22 Q1012=
SA	22/10/2024 19:00->	
METAR SBFL 221900Z 33007KT 9999 FEW040 29/22 Q1012=
SA	22/10/2024 18:00->	
METAR SBFL 221800Z 34009KT 9999 SCT040 30/23 Q1012=
SA	22/10/2024 17:00->	
METAR SBFL 221700Z 35011KT 9999 FEW040 30/22 Q1013=
SA	22/10/2024 16:00->	
METAR SBFL 221600Z 35012KT 9999 FEW040 30/22 Q1013=
SA	22/10/2024 15:00->	
METAR SBFL 221500Z 36013KT 9999 FEW040 29/22 Q1014=
SA	22/10/2024 14:00->	
METAR SBFL 221400Z 35012KT 9999 FEW040 28/21 Q1015=
SA	22/10/2024 13:00->	
METAR SBFL 221300Z 35012KT 9999 FEW021 26/21 Q1016=
SA	22/10/2024 12:00->	
METAR SBFL 221200Z 36010KT 290V020 9999 FEW021 SCT100 25/22 Q1017=
SA	22/10/2024 11:00->	
METAR SBFL 221100Z 35010KT 9999 SCT021 BKN040 24/21 Q1017=
SA	22/10/2024 10:00->	
METAR SBFL 221000Z 32007KT 9999 BKN012 BKN030 23/22 Q1017=
SA	22/10/2024 09:00->	
METAR SBFL 220900Z 31008KT 9999 BKN012 BKN030 22/21 Q1016=
SA	22/10/2024 08:00->	
METAR SBFL 220800Z 33009KT 9999 BKN009 BKN025 22/21 Q1016=
SA	22/10/2024 07:00->	
METAR SBFL 220700Z 34008KT 9999 BKN009 BKN025 22/21 Q1016=
SA	22/10/2024 06:00->	
METAR SBFL 220600Z 34009KT 9999 BKN009 BKN025 22/21 Q1016=
SA	22/10/2024 05:00->	
METAR SBFL 220500Z 34008KT 9000 BKN009 BKN025 22/21 Q1017=
SA	22/10/2024 04:00->	
METAR SBFL 220400Z 36007KT 9999 BKN009 BKN025 23/21 Q1018=
SA	22/10/2024 03:00->	
METAR SBFL 220300Z 35008KT 9999 FEW013 BKN025 23/21 Q1018=
SA	22/10/2024 02:00->	
METAR SBFL 220200Z 36005KT 9999 FEW013 BKN040 23/21 Q1019=
SA	22/10/2024 01:00->	
METAR SBFL 220100Z 01006KT 9999 FEW015 SCT022 BKN040 23/20 Q1019=
SA	22/10/2024 00:00->	
METAR SBFL 220000Z 36008KT 9999 SCT031 OVC056 23/20 Q1019=