SA	19/02/2025 00:00->	
METAR SBFL 190000Z 15005KT 120V190 9999 -RA SCT030 BKN050 23/20 Q1015=
SA	18/02/2025 23:53->	
METAR SBFL 190000Z 15005KT 120V190 9999 -RA SCT030 BKN050 23/20 Q1015=
SA	18/02/2025 23:00->	
METAR SBFL 182300Z 18009KT 9000 VCSH FEW010 SCT030 BKN060 23/20 Q1014=
SA	18/02/2025 22:00->	
METAR SBFL 182200Z 20005KT 9000 VCSH FEW010 BKN080 24/21 Q1014=
SA	18/02/2025 21:00->	
METAR SBFL 182100Z 19011KT 9999 FEW015 BKN060 25/19 Q1014=
SA	18/02/2025 20:00->	
METAR SBFL 182000Z 17011KT 100V210 9999 FEW015 BKN050 26/19 Q1013=
SA	18/02/2025 19:00->	
METAR SBFL 181900Z 18012KT 9999 FEW018 BKN060 26/20 Q1013=
SA	18/02/2025 18:00->	
METAR SBFL 181800Z 15007KT 110V210 9999 FEW015 BKN040 27/21 Q1013=
SA	18/02/2025 17:00->	
METAR SBFL 181700Z 16006KT 130V200 9999 SCT040 BKN080 27/21 Q1013=
SA	18/02/2025 16:00->	
METAR SBFL 181600Z 16007KT 9999 FEW013 BKN080 26/19 Q1014=
SA	18/02/2025 15:00->	
METAR SBFL 181500Z 16008G18KT 120V230 9999 FEW013 BKN080 26/20 Q1014=
SA	18/02/2025 14:00->	
METAR SBFL 181400Z 16005KT 130V210 9999 FEW013 BKN080 26/20 Q1014=
SA	18/02/2025 13:00->	
METAR SBFL 181300Z 16004KT 080V210 9999 FEW020 BKN080 25/20 Q1014=
SA	18/02/2025 12:00->	
METAR SBFL 181200Z 14006KT 090V240 9999 SCT015 BKN100 25/20 Q1014=
SA	18/02/2025 11:00->	
METAR SBFL 181100Z 19007KT 9999 FEW015 BKN100 25/21 Q1013=
SA	18/02/2025 10:00->	
METAR SBFL 181000Z 16004KT 120V200 9999 SCT030 BKN070 25/23 Q1012=
SA	18/02/2025 09:00->	
METAR SBFL 180900Z 19004KT 9999 SCT006 BKN015 OVC070 24/23 Q1012=
SA	18/02/2025 08:00->	
METAR SBFL 180800Z 13004KT 9999 BKN006 FEW015TCU OVC070 24/23 Q1011=
SA	18/02/2025 07:00->	
METAR SBFL 180700Z 20004KT 9999 BKN006 FEW015TCU OVC070 24/23 Q1011=
SA	18/02/2025 06:00->	
METAR SBFL 180600Z 31005KT 9999 BKN010 24/23 Q1011=
SA	18/02/2025 05:00->	
METAR SBFL 180500Z 32005KT 9999 OVC010 24/23 Q1011=
SA	18/02/2025 04:00->	
METAR SBFL 180400Z 01004KT 330V060 9999 OVC008 24/23 Q1011=
SA	18/02/2025 03:00->	
METAR SBFL 180300Z VRB03KT 9999 -RA BKN009 BKN030 OVC100 23/23 Q1010 RERA=
SA	18/02/2025 02:00->	
METAR SBFL 180200Z 04004KT 5000 RA BKN009 BKN030 OVC090 23/22 Q1013=
SA	18/02/2025 01:00->	
METAR SBFL 180100Z 04006KT 360V080 5000 RA VCTS BKN008 BKN020 FEW035CB OVC090 24/23 Q1014 RETSRA=
SP	18/02/2025 00:33->	
SPECI SBFL 180033Z 30007KT 260V320 4000 +TSRA BKN008 BKN030 FEW035CB OVC090 24/23 Q1014=
SP	18/02/2025 00:21->	
SPECI SBFL 180021Z 26004KT 160V300 9999 -RA BKN010 BKN030 OVC090 24/23 Q1013 RETSRA=
SA	18/02/2025 00:00->	
METAR SBFL 180000Z 11006KT 9999 TSRA SCT020 BKN035 FEW040CB BKN080 24/22 Q1012=
SA	17/02/2025 23:55->	
METAR SBFL 180000Z 11006KT 9999 TSRA SCT020 BKN035 FEW040CB BKN080 24/22 Q1012=
SP	17/02/2025 23:39->	
SPECI SBFL 172339Z 13004G15KT 9999 TSRA BKN014 BKN035 FEW040CB BKN080 24/22 Q1012=
SA	17/02/2025 23:00->	
METAR SBFL 172300Z 12005KT 9999 -RA VCTS BKN012 BKN030 FEW040CB BKN080 24/23 Q1011=
SP	17/02/2025 22:40->	
SPECI SBFL 172240Z 13007KT 090V160 9999 -RA VCTS BKN012 SCT030 FEW040CB BKN080 24/23 Q1011=
SA	17/02/2025 22:00->	
METAR SBFL 172200Z 13009KT 9999 VCTS FEW010 SCT030 FEW040CB BKN080 24/23 Q1010=
SP	17/02/2025 21:35->	
SPECI SBFL 172135Z 10011KT 8000 -SHRA VCTS FEW008 BKN030 FEW050CB BKN080 24/23 Q1010 RETSRA=
SP	17/02/2025 21:17->	
SPECI SBFL 172117Z 27007KT 1500 +TSRA BKN020 BKN040 FEW050CB BKN080 25/23 Q1011 RERA=
SP	17/02/2025 21:12->	
SPECI SBFL 172112Z 26008KT 3000 TSRA BKN020 BKN040 FEW050CB BKN080 25/23 Q1012=
SA	17/02/2025 21:00->	
METAR SBFL 172100Z 20011G22KT 9999 -SHRA VCTS BKN040 FEW050CB BKN080 25/23 Q1010=
SA	17/02/2025 20:00->	
METAR SBFL 172000Z 14005KT 060V200 9999 VCSH BKN035 FEW040TCU BKN080 26/23 Q1009=
SP	17/02/2025 19:10->	
SPECI SBFL 171910Z 19017G30KT 9999 -SHRA VCTS BKN035 FEW040CB BKN080 25/23 Q1009 RETSRA=
SA	17/02/2025 19:00->	
METAR SBFL 171900Z 18017G30KT 9999 +TSRA BKN035 FEW040CB BKN080 28/22 Q1008=
SP	17/02/2025 18:14->	
SPECI SBFL 171814Z 17017G30KT 9999 VCSH SCT035 FEW040TCU SCT100 30/24 Q1008=
SA	17/02/2025 18:00->	
METAR SBFL 171800Z 15014KT 9999 VCSH SCT035 FEW040TCU SCT100 32/25 Q1007=
SA	17/02/2025 17:00->	
METAR SBFL 171700Z 25005KT 200V310 9999 SCT035 FEW040TCU SCT100 36/23 Q1007=
SA	17/02/2025 16:00->	
METAR SBFL 171600Z 34006G18KT 300V010 9999 SCT035 FEW040TCU BKN100 35/24 Q1007=
SA	17/02/2025 15:00->	
METAR SBFL 171500Z 35012KT 9999 SCT030 BKN100 33/23 Q1008=
SA	17/02/2025 14:00->	
METAR SBFL 171400Z 34016KT 9999 SCT025 SCT090 31/23 Q1007=
SA	17/02/2025 13:00->	
METAR SBFL 171300Z 35011KT 9999 SCT020 BKN070 29/22 Q1007=
SA	17/02/2025 12:00->	
METAR SBFL 171200Z 34014KT 9999 BKN025 BKN090 28/24 Q1008=
SA	17/02/2025 11:00->	
METAR SBFL 171100Z VRB03KT 8000 -SHRA FEW012 BKN025 OVC080 26/25 Q1008=
SA	17/02/2025 10:00->	
METAR SBFL 171000Z VRB02KT 9999 VCSH FEW010 SCT030 26/23 Q1009=
SA	17/02/2025 09:00->	
METAR SBFL 170900Z VRB01KT 9999 FEW010 25/23 Q1009=
SA	17/02/2025 08:00->	
METAR SBFL 170800Z 04004KT 9999 FEW013 25/22 Q1008=
SA	17/02/2025 07:00->	
METAR SBFL 170700Z 10004KT 9999 FEW013 26/22 Q1008=
SA	17/02/2025 06:00->	
METAR SBFL 170600Z 13010KT 9999 FEW013 28/25 Q1008=
SA	17/02/2025 05:00->	
METAR SBFL 170500Z 34011KT 310V010 9999 FEW014 28/26 Q1007=
SA	17/02/2025 04:00->	
METAR SBFL 170400Z 34010KT 9999 FEW013 28/26 Q1008=
SA	17/02/2025 03:00->	
METAR SBFL 170300Z 33011KT 290V350 9999 SCT013 28/26 Q1008=
SA	17/02/2025 02:00->	
METAR SBFL 170200Z 34010KT 9999 SCT020 28/26 Q1008=
SA	17/02/2025 01:00->	
METAR SBFL 170100Z 34012KT 300V360 9999 VCTS SCT025 FEW030CB 28/26 Q1008=
SA	17/02/2025 00:00->	
METAR SBFL 170000Z 35008KT 9999 VCTS SCT025 FEW030CB SCT100 28/26 Q1008=
SA	16/02/2025 23:52->	
METAR SBFL 170000Z 35008KT 9999 VCTS SCT025 FEW030CB SCT100 28/26 Q1008=
SA	16/02/2025 23:00->	
METAR SBFL 162300Z 34013KT 300V360 9999 VCTS FEW012 SCT030 FEW035CB 28/26 Q1007=
SA	16/02/2025 22:00->	
METAR SBFL 162200Z 35017KT 9999 FEW030 BKN080 29/25 Q1006=
SA	16/02/2025 21:00->	
METAR SBFL 162100Z 34012KT 9999 FEW035 SCT080 29/25 Q1006=
SA	16/02/2025 20:00->	
METAR SBFL 162000Z 01012KT 9999 SCT030 FEW035TCU 31/25 Q1006=
SA	16/02/2025 19:00->	
METAR SBFL 161900Z 01013KT 9999 SCT030 FEW035TCU 32/26 Q1006=
SA	16/02/2025 18:00->	
METAR SBFL 161800Z 01014KT 9999 SCT030 32/26 Q1006=
SA	16/02/2025 17:00->	
METAR SBFL 161700Z 01012KT 9999 SCT030 33/25 Q1007=
SA	16/02/2025 16:00->	
METAR SBFL 161600Z 01014KT 9999 SCT030 32/25 Q1008=
SA	16/02/2025 15:00->	
METAR SBFL 161500Z 35013KT 9999 SCT030 32/25 Q1009=
SA	16/02/2025 14:00->	
METAR SBFL 161400Z 34012KT 9999 SCT028 31/25 Q1009=
SA	16/02/2025 13:00->	
METAR SBFL 161300Z 34012KT 9999 FEW014 SCT028 29/25 Q1010=
SA	16/02/2025 12:00->	
METAR SBFL 161200Z 35008KT 9999 FEW014 SCT028 28/25 Q1010=
SA	16/02/2025 11:00->	
METAR SBFL 161100Z 34008KT 9999 FEW014 27/25 Q1011=
SA	16/02/2025 10:00->	
METAR SBFL 161000Z 32009KT 9999 FEW014 SCT066 27/25 Q1010=
SA	16/02/2025 09:00->	
METAR SBFL 160900Z 33010KT 9999 FEW015 SCT030 BKN050 27/24 Q1010=
SA	16/02/2025 08:00->	
METAR SBFL 160800Z 32009KT 9999 BKN010 BKN030 OVC050 26/25 Q1010=
SA	16/02/2025 07:00->	
METAR SBFL 160700Z 34008KT 9999 OVC010 27/25 Q1009=
SA	16/02/2025 06:00->	
METAR SBFL 160600Z 32005KT 290V010 9999 -RA BKN009 BKN017 OVC090 26/25 Q1010=
SA	16/02/2025 05:00->	
METAR SBFL 160500Z 32003KT 9999 -RA BKN009 BKN090 25/25 Q1010 RETS=
SA	16/02/2025 04:00->	
METAR SBFL 160400Z 26006KT 9999 -TSRA BKN007 FEW050CB OVC060 25/25 Q1011=
SP	16/02/2025 03:11->	
SPECI SBFL 160311Z 25002KT 9000 -RA BKN007 OVC060 26/25 Q1012=
SA	16/02/2025 03:00->	
METAR SBFL 160300Z 32003KT 9000 -RA SCT007 SCT020 OVC040 26/25 Q1013=
SA	16/02/2025 02:00->	
METAR SBFL 160200Z 10006KT 9999 SCT040 OVC080 26/25 Q1012=
SA	16/02/2025 01:00->	
METAR SBFL 160100Z 14005KT 110V210 9999 -RA VCTS SCT022 FEW042CB OVC080 27/25 Q1013=
SA	16/02/2025 00:00->	
METAR SBFL 160000Z 07003KT 020V100 9999 VCSH VCTS SCT018 BKN038 FEW042CB 27/25 Q1012=
SA	15/02/2025 23:53->	
METAR SBFL 160000Z 07003KT 020V100 9999 VCSH VCTS SCT018 BKN038 FEW042CB 27/25 Q1012=
SP	15/02/2025 23:16->	
SPECI SBFL 152316Z 08005KT 050V110 9999 VCTS FEW017 BKN030 FEW035CB BKN047 27/25 Q1011=
SA	15/02/2025 23:00->	
METAR SBFL 152300Z 10003KT 040V180 9999 FEW017 SCT030 BKN046 27/25 Q1011=
SA	15/02/2025 22:00->	
METAR SBFL 152200Z 05004KT 030V110 9999 VCSH BKN042 FEW045TCU 28/24 Q1010=
SA	15/02/2025 21:00->	
METAR SBFL 152100Z 05007KT 020V080 9999 VCSH BKN039 FEW043TCU 28/24 Q1009=
SA	15/02/2025 20:00->	
METAR SBFL 152000Z 06008KT 030V090 9999 VCSH BKN037 FEW042TCU 28/24 Q1009=
SA	15/02/2025 19:00->	
METAR SBFL 151900Z 06012KT 030V090 9999 VCSH BKN040 FEW045TCU 30/24 Q1008=
SA	15/02/2025 18:00->	
METAR SBFL 151800Z 06012KT 9999 SCT027 30/24 Q1009=
SA	15/02/2025 17:00->	
METAR SBFL 151700Z 05008KT 340V070 9999 SCT026 31/25 Q1010=
SA	15/02/2025 16:00->	
METAR SBFL 151600Z 02007KT 340V060 9999 SCT026 31/24 Q1011=
SA	15/02/2025 15:00->	
METAR SBFL 151500Z 35006KT 310V040 9999 SCT026 30/25 Q1012=
SA	15/02/2025 14:00->	
METAR SBFL 151400Z 02004KT 320V060 9999 FEW023 28/24 Q1012=
SA	15/02/2025 13:00->	
METAR SBFL 151300Z 33004KT 290V350 9999 FEW023 28/23 Q1012=
SA	15/02/2025 12:00->	
METAR SBFL 151200Z 32003KT 280V070 9999 FEW023 SCT100 26/23 Q1012=
SA	15/02/2025 11:00->	
METAR SBFL 151100Z 33003KT 250V020 9999 SCT021 25/23 Q1012=
SA	15/02/2025 10:00->	
METAR SBFL 151000Z 28003KT 9000 VCSH FEW007 BKN020 BKN050 24/23 Q1012=
SP	15/02/2025 09:20->	
SPECI SBFL 150920Z 27003KT 9999 SCT008 BKN020 BKN050 24/23 Q1012=
SA	15/02/2025 09:00->	
METAR SBFL 150900Z 34003KT 8000 VCSH BKN007 BKN020 OVC040 24/23 Q1012=
SA	15/02/2025 08:00->	
METAR SBFL 150800Z VRB01KT 8000 -SHRA BKN020 BKN060 23/23 Q1011=
SA	15/02/2025 07:00->	
METAR SBFL 150700Z VRB02KT 8000 -SHRA BKN020 BKN060 24/23 Q1011=
SP	15/02/2025 06:23->	
SPECI SBFL 150623Z 20002KT 9000 VCSH BKN020 BKN060 23/22 Q1011 RERA=
SA	15/02/2025 06:00->	
METAR SBFL 150600Z 23004KT 3000 RA BKN015 BKN060 23/22 Q1011=
SA	15/02/2025 05:00->	
METAR SBFL 150500Z 27007KT 9999 VCSH SCT015 BKN060 24/23 Q1012=
SA	15/02/2025 04:00->	
METAR SBFL 150400Z 23005KT 9999 SCT013 BKN060 24/23 Q1012=
SA	15/02/2025 03:00->	
METAR SBFL 150300Z 26004KT 9999 SCT015 BKN060 24/24 Q1013=
SA	15/02/2025 02:00->	
METAR SBFL 150200Z 36003KT 310V040 9000 VCSH SCT011 OVC060 24/23 Q1013=
SA	15/02/2025 01:00->	
METAR SBFL 150100Z 21002KT 9999 SCT015 BKN060 OVC080 25/23 Q1013=
SA	15/02/2025 00:00->	
METAR SBFL 150000Z 14003KT 090V210 9999 FEW019 BKN060 OVC080 25/23 Q1012=
SA	14/02/2025 23:52->	
METAR SBFL 150000Z 14003KT 090V210 9999 FEW019 BKN060 OVC080 25/23 Q1012=
SA	14/02/2025 23:00->	
METAR SBFL 142300Z 16005KT 120V220 9999 SCT019 BKN058 26/23 Q1012=
SA	14/02/2025 22:00->	
METAR SBFL 142200Z 20004KT 160V240 9999 SCT019 BKN040 25/23 Q1012=
SA	14/02/2025 21:00->	
METAR SBFL 142100Z 10006KT 9999 SCT013 BKN019 25/23 Q1011=
SA	14/02/2025 20:00->	
METAR SBFL 142000Z 13007KT 9999 VCSH SCT014 BKN025 FEW027TCU 26/22 Q1012=
SA	14/02/2025 19:00->	
METAR SBFL 141900Z 15010KT 9999 SCT015 BKN028 FEW050TCU 27/23 Q1012=
SA	14/02/2025 18:00->	
METAR SBFL 141800Z 15010KT 9999 SCT015 BKN028 26/23 Q1012=
SA	14/02/2025 17:00->	
METAR SBFL 141700Z 14008KT 8000 VCSH SCT010 BKN015 26/23 Q1013=
SA	14/02/2025 16:00->	
METAR SBFL 141600Z 14009KT 4000 BR BKN010 BKN017 26/23 Q1014=
SP	14/02/2025 15:39->	
SPECI SBFL 141539Z 15010KT 130V200 8000 3000E BKN010 BKN020 26/22 Q1014=
SA	14/02/2025 15:00->	
METAR SBFL 141500Z 20012KT 9999 BKN020 26/22 Q1014=
SA	14/02/2025 14:00->	
METAR SBFL 141400Z 21010KT 9999 SCT020 SCT070 26/23 Q1014=
SA	14/02/2025 13:00->	
METAR SBFL 141300Z 20011KT 9999 SCT020 BKN040 25/23 Q1014=
SA	14/02/2025 12:00->	
METAR SBFL 141200Z 19009KT 9999 SCT019 25/23 Q1014=
SA	14/02/2025 11:00->	
METAR SBFL 141100Z 20007KT 9999 FEW009 BKN015 BKN070 24/22 Q1014=
SA	14/02/2025 10:00->	
METAR SBFL 141000Z 20010KT 9999 FEW010 BKN017 BKN065 24/22 Q1013=
SA	14/02/2025 09:00->	
METAR SBFL 140900Z 17002KT 9999 FEW009 SCT013 BKN040 23/22 Q1013=
SA	14/02/2025 08:00->	
METAR SBFL 140800Z 14003KT 9999 SCT014 OVC023 24/22 Q1013=
SA	14/02/2025 07:00->	
METAR SBFL 140700Z 06001KT 9999 BKN025 BKN045 23/22 Q1013=
SA	14/02/2025 06:00->	
METAR SBFL 140600Z 21003KT 180V250 9999 BKN020 BKN040 23/22 Q1013=
SA	14/02/2025 05:00->	
METAR SBFL 140500Z 03002KT 9999 FEW015 SCT050 23/22 Q1013=
SA	14/02/2025 04:00->	
METAR SBFL 140400Z 19010KT 160V220 9999 FEW015 BKN050 BKN100 24/22 Q1014=
SA	14/02/2025 03:00->	
METAR SBFL 140300Z 19006KT 9999 FEW014 BKN043 BKN080 24/22 Q1014=
SA	14/02/2025 02:00->	
METAR SBFL 140200Z 22006KT 9999 -RA SCT014 SCT035 BKN090 24/22 Q1015=
SA	14/02/2025 01:00->	
METAR SBFL 140100Z 20007KT 9999 -RA BKN014 BKN070 23/22 Q1015=
SA	14/02/2025 00:00->	
METAR SBFL 140000Z 11005KT 040V160 9999 VCSH BKN012 BKN070 23/22 Q1014=
SA	13/02/2025 23:51->	
METAR SBFL 140000Z 11005KT 040V160 9999 VCSH BKN012 BKN070 23/22 Q1014=
SA	13/02/2025 23:00->	
METAR SBFL 132300Z 18004KT 130V200 9999 FEW023 BKN070 27/23 Q1013=
SA	13/02/2025 22:00->	
METAR SBFL 132200Z 20004KT 9999 FEW030TCU BKN100 26/24 Q1012=
SA	13/02/2025 21:00->	
METAR SBFL 132100Z 13006KT 9999 FEW025 FEW030TCU SCT100 27/24 Q1012=
SA	13/02/2025 20:00->	
METAR SBFL 132000Z 14009KT 9999 VCSH FEW030 FEW035TCU SCT080 27/24 Q1011=
SA	13/02/2025 19:00->	
METAR SBFL 131900Z 15010KT 9999 VCSH VCTS FEW030 FEW035CB SCT060 28/24 Q1011=
SA	13/02/2025 18:00->	
METAR SBFL 131800Z 15017KT 9999 VCSH SCT030 FEW035TCU BKN080 29/24 Q1011=
SA	13/02/2025 17:00->	
METAR SBFL 131700Z 16018KT 9999 VCSH SCT030 FEW035TCU 32/22 Q1011=
SA	13/02/2025 16:00->	
METAR SBFL 131600Z 13014KT 110V170 9999 FEW025 31/23 Q1012=
SA	13/02/2025 15:00->	
METAR SBFL 131500Z 14016KT 9999 FEW025 30/23 Q1012=
SA	13/02/2025 14:00->	
METAR SBFL 131400Z 11009KT 9999 FEW025 32/25 Q1011=
SA	13/02/2025 13:00->	
METAR SBFL 131300Z 35006KT 260V020 CAVOK 31/24 Q1011=
SA	13/02/2025 12:00->	
METAR SBFL 131200Z 35009KT CAVOK 29/23 Q1011=
SA	13/02/2025 11:00->	
METAR SBFL 131100Z 35009KT CAVOK 28/22 Q1011=
SA	13/02/2025 10:00->	
METAR SBFL 131000Z 33005KT CAVOK 26/23 Q1011=
SA	13/02/2025 09:00->	
METAR SBFL 130900Z 29007KT CAVOK 25/23 Q1010=
SA	13/02/2025 08:00->	
METAR SBFL 130800Z 28004KT CAVOK 25/23 Q1011=
SA	13/02/2025 07:00->	
METAR SBFL 130700Z 30005KT CAVOK 25/23 Q1011=
SA	13/02/2025 06:00->	
METAR SBFL 130600Z 26004KT CAVOK 26/23 Q1011=
SA	13/02/2025 05:00->	
METAR SBFL 130500Z 34003KT 270V050 9999 FEW045 SCT100 26/23 Q1012=
SA	13/02/2025 04:00->	
METAR SBFL 130400Z 20005KT 9999 FEW045 SCT100 26/23 Q1013=
SA	13/02/2025 03:00->	
METAR SBFL 130300Z 14005KT 090V220 9999 SCT045 BKN100 27/23 Q1014=
SA	13/02/2025 02:00->	
METAR SBFL 130200Z 20007KT 170V230 9999 BKN045 BKN100 27/23 Q1014=
SA	13/02/2025 01:00->	
METAR SBFL 130100Z 19008KT 9999 SCT043 BKN100 27/23 Q1014=
SA	13/02/2025 00:00->	
METAR SBFL 130000Z 17010KT 9999 BKN033 BKN100 27/23 Q1013=
SA	12/02/2025 23:56->	
METAR SBFL 130000Z 17010KT 9999 BKN033 BKN100 27/23 Q1013=
SA	12/02/2025 23:00->	
METAR SBFL 122300Z 19011G21KT 9999 BKN033 BKN100 27/23 Q1012 WS R14=
SA	12/02/2025 22:00->	
METAR SBFL 122200Z 17012KT 140V220 9999 BKN033 BKN100 28/23 Q1011=
SA	12/02/2025 21:00->	
METAR SBFL 122100Z 18012KT 9999 BKN033 FEW037TCU 29/23 Q1009=
SA	12/02/2025 20:00->	
METAR SBFL 122000Z 20008KT 160V240 9999 VCSH BKN034 FEW037TCU 28/22 Q1010=
SA	12/02/2025 19:00->	
METAR SBFL 121900Z 17005KT 110V250 9999 VCSH VCTS BKN034 FEW037CB 28/21 Q1010=
SA	12/02/2025 18:00->	
METAR SBFL 121800Z 17016G28KT 9999 VCSH VCTS BKN035 FEW038CB 30/24 Q1009=
SP	12/02/2025 17:35->	
SPECI SBFL 121735Z 22020G40KT 170V260 9999 VCSH VCTS BKN035 FEW040CB 30/24 Q1009=
SA	12/02/2025 17:00->	
METAR SBFL 121700Z 35010KT 310V030 9999 FEW035 FEW040TCU 34/26 Q1008=
SA	12/02/2025 16:00->	
METAR SBFL 121600Z 34010KT 290V020 9999 FEW035 FEW040TCU 33/26 Q1009=
SA	12/02/2025 15:00->	
METAR SBFL 121500Z 35010KT 320V020 9999 FEW035 32/25 Q1009=
SA	12/02/2025 14:00->	
METAR SBFL 121400Z 34010KT 9999 FEW033 31/26 Q1010=
SA	12/02/2025 13:00->	
METAR SBFL 121300Z 35011KT 320V020 9999 FEW011 SCT033 30/26 Q1010=
SA	12/02/2025 12:00->	
METAR SBFL 121200Z 34009KT 9999 SCT011 BKN030 29/26 Q1010=
SP	12/02/2025 11:15->	
SPECI SBFL 121115Z 33007KT 300V360 9999 SCT010 BKN030 28/26 Q1010=
SA	12/02/2025 11:00->	
METAR SBFL 121100Z 30006KT 9000 BKN011 BKN030 27/25 Q1011=
SA	12/02/2025 10:00->	
METAR SBFL 121000Z VRB02KT 8000 BKN011 BKN040 26/25 Q1010=
SA	12/02/2025 09:00->	
METAR SBFL 120900Z 29003KT 5000 BR BKN011 BKN040 26/25 Q1010=
SP	12/02/2025 08:30->	
SPECI SBFL 120830Z 32003KT 9999 SCT009 BKN040 26/25 Q1010=
SA	12/02/2025 08:00->	
METAR SBFL 120800Z 23004KT 9999 BKN008 25/25 Q1010=
SA	12/02/2025 07:00->	
METAR SBFL 120700Z 00000KT 9999 FEW011 26/25 Q1010=
SA	12/02/2025 06:00->	
METAR SBFL 120600Z 34003KT 9999 FEW020 27/25 Q1010=
SA	12/02/2025 05:00->	
METAR SBFL 120500Z 33005KT 9999 FEW015 27/25 Q1010=
SA	12/02/2025 04:00->	
METAR SBFL 120400Z 36010KT 9999 FEW008 27/25 Q1010=
SA	12/02/2025 03:00->	
METAR SBFL 120300Z 36007KT 9999 FEW009 27/26 Q1010=
SA	12/02/2025 02:00->	
METAR SBFL 120200Z 35009KT 9999 VCTS FEW010 FEW025CB 28/25 Q1010=
SA	12/02/2025 01:00->	
METAR SBFL 120100Z 34007KT 9999 FEW011 27/25 Q1010=
SA	12/02/2025 00:00->	
METAR SBFL 120000Z 35011KT 9999 FEW012 28/25 Q1009=
SA	11/02/2025 23:55->	
METAR SBFL 120000Z 35011KT 9999 FEW012 28/25 Q1009=
SA	11/02/2025 23:00->	
METAR SBFL 112300Z 34011KT 9999 FEW011 28/25 Q1008=
SA	11/02/2025 22:00->	
METAR SBFL 112200Z 34008KT CAVOK 29/24 Q1007=
SA	11/02/2025 21:00->	
METAR SBFL 112100Z 30014KT CAVOK 30/25 Q1007=
SA	11/02/2025 20:00->	
METAR SBFL 112000Z 01011KT 9999 FEW035 32/25 Q1007=
SA	11/02/2025 19:00->	
METAR SBFL 111900Z 35013KT 9999 FEW035 33/25 Q1007=
SA	11/02/2025 18:00->	
METAR SBFL 111800Z 33012KT 9999 FEW035 33/25 Q1007=
SA	11/02/2025 17:00->	
METAR SBFL 111700Z 36013KT 9999 FEW035 33/24 Q1008=
SA	11/02/2025 16:00->	
METAR SBFL 111600Z 35014KT 9999 FEW030 32/24 Q1009=
SA	11/02/2025 15:00->	
METAR SBFL 111500Z 35013KT CAVOK 32/23 Q1010=
SA	11/02/2025 14:00->	
METAR SBFL 111400Z 35014KT CAVOK 31/23 Q1011=
SA	11/02/2025 13:00->	
METAR SBFL 111300Z 34013KT CAVOK 29/23 Q1011=
SA	11/02/2025 12:00->	
METAR SBFL 111200Z 28013KT CAVOK 28/23 Q1011=
SA	11/02/2025 11:00->	
METAR SBFL 111100Z 31009KT CAVOK 27/23 Q1011=
SA	11/02/2025 10:00->	
METAR SBFL 111000Z 31009KT CAVOK 26/22 Q1011=
SA	11/02/2025 09:00->	
METAR SBFL 110900Z 32010KT 300V360 CAVOK 25/23 Q1010=
SA	11/02/2025 08:00->	
METAR SBFL 110800Z 31008KT CAVOK 25/22 Q1010=
SA	11/02/2025 07:00->	
METAR SBFL 110700Z 31008KT CAVOK 25/22 Q1010=
SA	11/02/2025 06:00->	
METAR SBFL 110600Z 31009KT CAVOK 25/23 Q1011=
SA	11/02/2025 05:00->	
METAR SBFL 110500Z 33010KT CAVOK 26/23 Q1011=
SA	11/02/2025 04:00->	
METAR SBFL 110400Z 32010KT 9999 FEW010 26/23 Q1012=
SA	11/02/2025 03:00->	
METAR SBFL 110300Z 33011KT 9999 FEW010 27/23 Q1012=
SA	11/02/2025 02:00->	
METAR SBFL 110200Z 31011KT 9999 SCT010 27/24 Q1012=
SA	11/02/2025 01:00->	
METAR SBFL 110100Z 35011KT 9999 SCT020 27/23 Q1013=
SA	11/02/2025 00:00->	
METAR SBFL 110000Z 35009KT 9999 BKN020 27/23 Q1012=
SA	10/02/2025 23:57->	
METAR SBFL 110000Z 35009KT 9999 BKN020 27/23 Q1012=
SA	10/02/2025 23:00->	
METAR SBFL 102300Z 01009KT 9999 BKN020 28/23 Q1011=
SA	10/02/2025 22:00->	
METAR SBFL 102200Z 36011KT 9999 FEW030 28/22 Q1010=
SA	10/02/2025 21:00->	
METAR SBFL 102100Z 36011KT 9999 FEW030 30/23 Q1010=
SA	10/02/2025 20:00->	
METAR SBFL 102000Z 36010KT 9999 FEW030 31/24 Q1010=
SA	10/02/2025 19:00->	
METAR SBFL 101900Z 35013KT 330V040 9999 FEW030 32/23 Q1011=
SA	10/02/2025 18:00->	
METAR SBFL 101800Z 36011KT 9999 FEW030 33/23 Q1011=
SA	10/02/2025 17:00->	
METAR SBFL 101700Z 36011KT 320V030 9999 FEW030 32/23 Q1012=
SA	10/02/2025 16:00->	
METAR SBFL 101600Z 36010KT 9999 FEW030 32/22 Q1013=
SA	10/02/2025 15:00->	
METAR SBFL 101500Z 35009KT 9999 FEW030 31/22 Q1014=
SA	10/02/2025 14:00->	
METAR SBFL 101400Z 35012KT 9999 FEW027 30/22 Q1014=
SA	10/02/2025 13:00->	
METAR SBFL 101300Z 33006KT 290V020 9999 FEW020 29/22 Q1015=
SA	10/02/2025 12:00->	
METAR SBFL 101200Z 31006KT 270V340 CAVOK 28/22 Q1015=
SA	10/02/2025 11:00->	
METAR SBFL 101100Z 32007KT 300V360 CAVOK 26/23 Q1015=
SA	10/02/2025 10:00->	
METAR SBFL 101000Z 30006KT CAVOK 25/23 Q1014=
SA	10/02/2025 09:00->	
METAR SBFL 100900Z 30004KT CAVOK 24/22 Q1014=
SA	10/02/2025 08:00->	
METAR SBFL 100800Z 32005KT CAVOK 24/22 Q1013=
SA	10/02/2025 07:00->	
METAR SBFL 100700Z 29003KT CAVOK 24/22 Q1013=
SA	10/02/2025 06:00->	
METAR SBFL 100600Z 29003KT 9999 FEW013 24/23 Q1014=
SA	10/02/2025 05:00->	
METAR SBFL 100500Z 28002KT 9999 FEW015 24/22 Q1014=
SA	10/02/2025 04:00->	
METAR SBFL 100400Z 32004KT 9999 FEW015 25/23 Q1014=
SA	10/02/2025 03:00->	
METAR SBFL 100300Z 34003KT 290V020 CAVOK 26/23 Q1015=
SA	10/02/2025 02:00->	
METAR SBFL 100200Z 33003KT 260V010 CAVOK 25/22 Q1015=
SA	10/02/2025 01:00->	
METAR SBFL 100100Z 01005KT CAVOK 26/23 Q1015=
SA	10/02/2025 00:00->	
METAR SBFL 100000Z VRB01KT 9999 FEW020 25/23 Q1015=
SA	09/02/2025 23:57->	
METAR SBFL 100000Z VRB01KT 9999 FEW020 25/23 Q1015=
SA	09/02/2025 23:00->	
METAR SBFL 092300Z 14005KT 9999 FEW020 26/23 Q1014=
SA	09/02/2025 22:00->	
METAR SBFL 092200Z 16004KT 130V190 CAVOK 27/23 Q1013=
SA	09/02/2025 21:00->	
METAR SBFL 092100Z 34004KT CAVOK 30/23 Q1013=
SA	09/02/2025 20:00->	
METAR SBFL 092000Z 33009KT 9999 FEW032 30/23 Q1013=
SA	09/02/2025 19:00->	
METAR SBFL 091900Z 33010KT 9999 FEW030 31/23 Q1013=
SA	09/02/2025 18:00->	
METAR SBFL 091800Z 33009KT 9999 FEW030 31/23 Q1014=
SA	09/02/2025 17:00->	
METAR SBFL 091700Z 33010KT 9999 FEW030 31/22 Q1014=
SA	09/02/2025 16:00->	
METAR SBFL 091600Z 32007KT 9999 FEW030 31/21 Q1015=
SA	09/02/2025 15:00->	
METAR SBFL 091500Z 33007KT 9999 FEW030 30/18 Q1016=
SA	09/02/2025 14:00->	
METAR SBFL 091400Z 32007KT CAVOK 29/20 Q1016=
SA	09/02/2025 13:00->	
METAR SBFL 091300Z 33006KT 280V010 CAVOK 28/21 Q1017=
SA	09/02/2025 12:00->	
METAR SBFL 091200Z 33006KT CAVOK 26/21 Q1017=
SA	09/02/2025 11:00->	
METAR SBFL 091100Z 28007KT CAVOK 25/21 Q1016=
SA	09/02/2025 10:00->	
METAR SBFL 091000Z 33008KT CAVOK 24/22 Q1016=
SA	09/02/2025 09:00->	
METAR SBFL 090900Z 31007KT CAVOK 23/21 Q1015=
SA	09/02/2025 08:00->	
METAR SBFL 090800Z 34009KT CAVOK 24/21 Q1014=
SA	09/02/2025 07:00->	
METAR SBFL 090700Z 31009KT 9999 FEW030 23/21 Q1015=
SA	09/02/2025 06:00->	
METAR SBFL 090600Z 29005KT 9999 SCT030 24/21 Q1015=
SA	09/02/2025 05:00->	
METAR SBFL 090500Z 30004KT 9999 SCT030 23/21 Q1016=
SA	09/02/2025 04:00->	
METAR SBFL 090400Z 19003KT 9999 FEW030 22/20 Q1017=
SA	09/02/2025 03:00->	
METAR SBFL 090300Z 11003KT CAVOK 23/20 Q1017=
SA	09/02/2025 02:00->	
METAR SBFL 090200Z VRB02KT 9999 FEW030 BKN050 24/21 Q1018=
SA	09/02/2025 01:00->	
METAR SBFL 090100Z 09003KT 9999 FEW030 BKN050 25/20 Q1018=
SA	09/02/2025 00:00->	
METAR SBFL 090000Z 10005KT 9999 FEW030 BKN060 25/20 Q1017=
SA	08/02/2025 23:59->	
METAR SBFL 090000Z 10005KT 9999 FEW030 BKN060 25/20 Q1017=
SA	08/02/2025 23:00->	
METAR SBFL 082300Z 10006KT 9999 FEW030 BKN060 26/20 Q1016=
SA	08/02/2025 22:00->	
METAR SBFL 082200Z 10008KT 9999 FEW030 BKN060 26/20 Q1016=
SA	08/02/2025 21:00->	
METAR SBFL 082100Z 09007KT 9999 FEW035 SCT060 26/20 Q1016=
SA	08/02/2025 20:00->	
METAR SBFL 082000Z 10009KT 9999 FEW035 28/19 Q1016=
SA	08/02/2025 19:00->	
METAR SBFL 081900Z 11009KT 9999 FEW035 28/19 Q1016=
SA	08/02/2025 18:00->	
METAR SBFL 081800Z 12010KT 070V150 9999 FEW035 28/20 Q1017=
SA	08/02/2025 17:00->	
METAR SBFL 081700Z 10009KT 9999 FEW035 28/20 Q1017=
SA	08/02/2025 16:00->	
METAR SBFL 081600Z 11010KT 9999 SCT035 28/20 Q1018=
SA	08/02/2025 15:00->	
METAR SBFL 081500Z 10011KT 9999 SCT035 28/20 Q1019=
SA	08/02/2025 14:00->	
METAR SBFL 081400Z 13010KT 9999 SCT030 28/21 Q1019=
SA	08/02/2025 13:00->	
METAR SBFL 081300Z 13011KT 9999 SCT030 27/20 Q1019=
SA	08/02/2025 12:00->	
METAR SBFL 081200Z 15009KT 9999 SCT030 27/21 Q1018=
SA	08/02/2025 11:00->	
METAR SBFL 081100Z 20008KT 9999 FEW020 25/21 Q1017=
SA	08/02/2025 10:00->	
METAR SBFL 081000Z 20005KT 9999 FEW020 24/21 Q1017=
SA	08/02/2025 09:00->	
METAR SBFL 080900Z VRB02KT 9999 FEW020 23/20 Q1017=
SA	08/02/2025 08:00->	
METAR SBFL 080800Z 18005KT 9999 FEW020 23/21 Q1016=
SA	08/02/2025 07:00->	
METAR SBFL 080700Z 17004KT 9999 SCT020 23/21 Q1016=
SA	08/02/2025 06:00->	
METAR SBFL 080600Z 21005KT 9999 SCT020 24/21 Q1016=
SA	08/02/2025 05:00->	
METAR SBFL 080500Z 17002KT 9999 BKN015 24/21 Q1016=
SA	08/02/2025 04:00->	
METAR SBFL 080400Z 19004KT 9999 BKN015 24/21 Q1017=
SA	08/02/2025 03:00->	
METAR SBFL 080300Z 18004KT 130V240 9999 BKN015 BKN050 25/22 Q1017=
SA	08/02/2025 02:00->	
METAR SBFL 080200Z 17006KT 140V230 8000 BKN015 BKN050 25/22 Q1017=
SA	08/02/2025 01:00->	
METAR SBFL 080100Z 15008KT 120V180 8000 -RA BKN015 BKN040 24/22 Q1017=
SA	08/02/2025 00:00->	
METAR SBFL 080000Z 15006KT 9999 FEW019 BKN060 25/22 Q1017=
SA	07/02/2025 23:56->	
METAR SBFL 080000Z 15006KT 9999 FEW019 BKN060 25/22 Q1017=
SA	07/02/2025 23:00->	
METAR SBFL 072300Z 20006KT 9999 FEW020 BKN050 25/22 Q1016=
SA	07/02/2025 22:00->	
METAR SBFL 072200Z 18008KT 150V220 9999 SCT020 OVC050 25/22 Q1015=
SA	07/02/2025 21:00->	
METAR SBFL 072100Z 20011KT 9999 SCT025 OVC045 24/22 Q1015=
SA	07/02/2025 20:00->	
METAR SBFL 072000Z 15011KT 9000 SCT018 OVC050 25/22 Q1015=
SA	07/02/2025 19:00->	
METAR SBFL 071900Z 15011G21KT 8000 FEW010 BKN015 OVC040 25/22 Q1015=
SA	07/02/2025 18:00->	
METAR SBFL 071800Z 14015KT 8000 SCT020 OVC040 26/22 Q1015=
SA	07/02/2025 17:00->	
METAR SBFL 071700Z 14011KT 8000 SCT030 OVC040 27/23 Q1015=
SA	07/02/2025 16:00->	
METAR SBFL 071600Z 13006KT 090V180 8000 BKN025 OVC030 27/22 Q1015=
SA	07/02/2025 15:00->	
METAR SBFL 071500Z 19010KT 9999 VCSH SCT020 OVC040 28/23 Q1015=
SA	07/02/2025 14:00->	
METAR SBFL 071400Z 19008KT 9999 VCSH SCT020 OVC030 28/23 Q1015=
SA	07/02/2025 13:00->	
METAR SBFL 071300Z 20010KT 9999 SCT020 BKN030 27/23 Q1015=
SA	07/02/2025 12:00->	
METAR SBFL 071200Z 16004KT 120V210 9999 SCT020 BKN040 28/23 Q1014=
SA	07/02/2025 11:00->	
METAR SBFL 071100Z 17007KT 140V200 9999 SCT015 BKN020 27/23 Q1014=
SA	07/02/2025 10:00->	
METAR SBFL 071000Z 14009KT 110V180 9999 SCT017 26/23 Q1013=
SA	07/02/2025 09:00->	
METAR SBFL 070900Z 15011KT 9999 SCT016 26/23 Q1012=
SA	07/02/2025 08:00->	
METAR SBFL 070800Z 14009KT 9999 FEW020 27/23 Q1011=
SA	07/02/2025 07:00->	
METAR SBFL 070700Z VRB06KT 9999 FEW040 27/22 Q1010=
SA	07/02/2025 06:00->	
METAR SBFL 070600Z VRB02KT 9999 FEW040 SCT080 27/22 Q1010=
SA	07/02/2025 05:00->	
METAR SBFL 070500Z 04001KT 9999 FEW040 BKN080 25/23 Q1010=
SA	07/02/2025 04:00->	
METAR SBFL 070400Z VRB02KT 9999 FEW040 24/23 Q1011=
SA	07/02/2025 03:00->	
METAR SBFL 070300Z VRB02KT 9999 FEW040 25/22 Q1011=
SA	07/02/2025 02:00->	
METAR SBFL 070200Z 29009KT 9999 FEW030 BKN100 25/22 Q1010=
SA	07/02/2025 01:00->	
METAR SBFL 070100Z 26006KT 9999 VCTS FEW025 FEW030CB BKN100 25/23 Q1010=
SA	07/02/2025 00:00->	
METAR SBFL 070000Z 32004KT 270V040 9999 VCTS SCT020 FEW030CB BKN080 25/23 Q1010=
SA	06/02/2025 23:53->	
METAR SBFL 070000Z 32004KT 270V040 9999 VCTS SCT020 FEW030CB BKN080 25/23 Q1010=
SA	06/02/2025 23:00->	
METAR SBFL 062300Z 13005KT 050V200 9999 -RA VCTS SCT016 FEW030CB OVC060 24/21 Q1009 RETSRA=
SP	06/02/2025 22:45->	
SPECI SBFL 062245Z 12007KT 080V160 9999 -RA VCTS BKN016 FEW035CB OVC046 24/21 Q1009 RETSRA=
SP	06/02/2025 22:24->	
SPECI SBFL 062224Z 07012G29KT 040V100 1500 +TSRA BKN015 FEW035CB OVC046 24/22 Q1009 RERA=
SP	06/02/2025 22:12->	
SPECI SBFL 062212Z 15007G23KT 110V200 9000 4000E TSRA SCT030 FEW035CB OVC046 27/24 Q1010=
SA	06/02/2025 22:03->	
METAR SBFL 062203Z 21005KT 120V260 9000 4000E TSRA SCT030 FEW035CB OVC046 27/24 Q1010=
SP	06/02/2025 22:03->	
SPECI SBFL 062203Z 21005KT 120V260 9000 4000E TSRA SCT030 FEW035CB OVC046 27/24 Q1010=
SA	06/02/2025 22:00->	
METAR SBFL 062200Z 26009KT 9999 VCSH VCTS SCT030 FEW035CB BKN046 BKN070 27/22 Q1009=
SA	06/02/2025 21:00->	
METAR SBFL 062100Z 28008KT 250V310 9999 SCT030 FEW035TCU BKN040 27/21 Q1008=
SA	06/02/2025 20:00->	
METAR SBFL 062000Z 28006KT 220V310 9999 VCSH SCT030 FEW035TCU BKN040 30/22 Q1007=
SA	06/02/2025 19:00->	
METAR SBFL 061900Z VRB07KT 9999 VCSH SCT030 FEW035TCU 33/24 Q1007=
SA	06/02/2025 18:00->	
METAR SBFL 061800Z 02008KT 9999 SCT030 FEW035TCU 33/24 Q1007=
SA	06/02/2025 17:00->	
METAR SBFL 061700Z 36009KT 9999 FEW030 33/24 Q1007=
SA	06/02/2025 16:00->	
METAR SBFL 061600Z 36010KT 9999 FEW030 SCT100 31/24 Q1008=
SA	06/02/2025 15:00->	
METAR SBFL 061500Z 36010KT 9999 FEW030 SCT100 30/24 Q1009=
SA	06/02/2025 14:00->	
METAR SBFL 061400Z 33010KT 9999 VCSH FEW030 FEW035TCU BKN100 28/23 Q1009=
SA	06/02/2025 13:00->	
METAR SBFL 061300Z 34011KT 9999 FEW025 BKN090 27/27 Q1010=
SA	06/02/2025 12:00->	
METAR SBFL 061200Z 34015KT 9999 FEW025 BKN090 27/23 Q1009=
SA	06/02/2025 11:00->	
METAR SBFL 061100Z 35016KT 9999 FEW025 BKN090 27/23 Q1009=
SA	06/02/2025 10:00->	
METAR SBFL 061000Z 35015KT 9999 FEW025 BKN070 26/23 Q1008=
SA	06/02/2025 09:00->	
METAR SBFL 060900Z 34012KT 9999 FEW015 BKN070 27/23 Q1008=
SA	06/02/2025 08:00->	
METAR SBFL 060800Z 34014KT 9999 FEW025 BKN070 27/23 Q1008=
SA	06/02/2025 07:00->	
METAR SBFL 060700Z 35014KT 9999 FEW015 BKN070 26/23 Q1008=
SA	06/02/2025 06:00->	
METAR SBFL 060600Z 35010KT 9999 FEW025 BKN070 26/23 Q1008=
SA	06/02/2025 05:00->	
METAR SBFL 060500Z 35012KT 9999 FEW030 BKN070 27/23 Q1009=
SA	06/02/2025 04:00->	
METAR SBFL 060400Z 35012KT 9999 FEW030 BKN070 27/23 Q1009=
SA	06/02/2025 03:00->	
METAR SBFL 060300Z 34015KT 9999 FEW030 BKN070 27/24 Q1008=
SA	06/02/2025 02:00->	
METAR SBFL 060200Z 35014KT 9999 FEW030 BKN070 27/23 Q1008=
SA	06/02/2025 01:00->	
METAR SBFL 060100Z 34016KT 9999 FEW030 BKN070 27/23 Q1009=
SA	06/02/2025 00:00->	
METAR SBFL 060000Z 34015KT 9999 FEW040 BKN070 28/24 Q1009=
SA	05/02/2025 23:56->	
METAR SBFL 060000Z 34015KT 9999 FEW040 BKN070 28/24 Q1009=
SA	05/02/2025 23:00->	
METAR SBFL 052300Z 33010KT 9999 FEW040 BKN070 28/23 Q1008=
SA	05/02/2025 22:00->	
METAR SBFL 052200Z 34012KT 9999 FEW035 SCT100 28/24 Q1008=
SA	05/02/2025 21:00->	
METAR SBFL 052100Z 35013KT 310V020 9999 FEW035 SCT100 30/24 Q1007=
SA	05/02/2025 20:00->	
METAR SBFL 052000Z 36011KT 9999 SCT035 FEW040TCU SCT100 30/24 Q1007=
SA	05/02/2025 19:00->	
METAR SBFL 051900Z 35014KT 9999 SCT030 FEW035TCU 31/24 Q1007=
SA	05/02/2025 18:00->	
METAR SBFL 051800Z 01015KT 9999 SCT030 FEW035TCU 32/24 Q1007=
SA	05/02/2025 17:00->	
METAR SBFL 051700Z 01014KT 9999 SCT030 32/25 Q1008=
SA	05/02/2025 16:00->	
METAR SBFL 051600Z 01012KT 9999 SCT035 32/24 Q1008=
SA	05/02/2025 15:00->	
METAR SBFL 051500Z 35010KT 9999 SCT035 32/24 Q1009=
SA	05/02/2025 14:00->	
METAR SBFL 051400Z 35011KT 9999 SCT030 31/24 Q1010=
SA	05/02/2025 13:00->	
METAR SBFL 051300Z 35010KT 9999 FEW030 SCT080 30/24 Q1010=
SA	05/02/2025 12:00->	
METAR SBFL 051200Z 34011KT 9999 FEW025 29/24 Q1010=
SA	05/02/2025 11:00->	
METAR SBFL 051100Z 35010KT 9999 FEW025 27/24 Q1010=
SA	05/02/2025 10:00->	
METAR SBFL 051000Z 35007KT 9999 FEW015 26/23 Q1010=
SA	05/02/2025 09:00->	
METAR SBFL 050900Z 36008KT 9999 FEW010 26/23 Q1009=
SA	05/02/2025 08:00->	
METAR SBFL 050800Z 35007KT CAVOK 25/23 Q1008=
SA	05/02/2025 07:00->	
METAR SBFL 050700Z 30006KT 9999 FEW012 25/23 Q1008=
SA	05/02/2025 06:00->	
METAR SBFL 050600Z 36005KT CAVOK 26/23 Q1008=
SA	05/02/2025 05:00->	
METAR SBFL 050500Z 01002KT 9999 FEW046 25/23 Q1009=
SA	05/02/2025 04:00->	
METAR SBFL 050400Z 30004KT CAVOK 25/23 Q1010=
SA	05/02/2025 03:00->	
METAR SBFL 050300Z VRB02KT 9999 FEW033 25/23 Q1010=
SA	05/02/2025 02:00->	
METAR SBFL 050200Z VRB02KT 9999 SCT045 25/23 Q1010=
SA	05/02/2025 01:00->	
METAR SBFL 050100Z VRB02KT 9999 SCT040 25/23 Q1010=
SA	05/02/2025 00:00->	
METAR SBFL 050000Z VRB02KT 9999 BKN040 25/23 Q1009=
SA	04/02/2025 23:53->	
METAR SBFL 050000Z VRB02KT 9999 BKN040 25/23 Q1009=
SA	04/02/2025 23:00->	
METAR SBFL 042300Z 32005KT 290V010 9999 FEW025 BKN070 25/22 Q1009=
SA	04/02/2025 22:00->	
METAR SBFL 042200Z 28007KT 9999 FEW025 BKN060 25/23 Q1008=
SA	04/02/2025 21:00->	
METAR SBFL 042100Z 25007KT 9999 FEW025 BKN040 25/23 Q1008 RETS=
SA	04/02/2025 20:00->	
METAR SBFL 042000Z 15005KT 9999 TS FEW030CB BKN040 28/26 Q1008=
SP	04/02/2025 19:30->	
SPECI SBFL 041930Z 13004KT 080V190 9999 -TSRA FEW030CB BKN040 28/26 Q1008 RERA=
SP	04/02/2025 19:14->	
SPECI SBFL 041914Z 09006KT 9999 TSRA FEW030CB BKN040 28/26 Q1007=
SA	04/02/2025 19:00->	
METAR SBFL 041900Z 34008KT 300V020 9999 FEW030TCU SCT040 32/25 Q1007=
SA	04/02/2025 18:00->	
METAR SBFL 041800Z 02009KT 9999 FEW030TCU SCT040 33/25 Q1007=
SA	04/02/2025 17:00->	
METAR SBFL 041700Z 01007KT 9999 FEW040 FEW050TCU 33/24 Q1008=
SA	04/02/2025 16:00->	
METAR SBFL 041600Z 36008KT 9999 FEW040 32/24 Q1008=
SA	04/02/2025 15:00->	
METAR SBFL 041500Z 01009KT 9999 FEW040 31/23 Q1009=
SA	04/02/2025 14:00->	
METAR SBFL 041400Z 36010KT 9999 FEW040 30/24 Q1009=
SA	04/02/2025 13:00->	
METAR SBFL 041300Z 35008KT 9999 FEW036 29/24 Q1009=
SA	04/02/2025 12:00->	
METAR SBFL 041200Z 34008KT 9999 FEW015 27/25 Q1010=
SA	04/02/2025 11:00->	
METAR SBFL 041100Z 33008KT 9999 FEW015 27/25 Q1009=
SA	04/02/2025 10:00->	
METAR SBFL 041000Z VRB01KT 9999 FEW017 25/24 Q1009=
SA	04/02/2025 09:00->	
METAR SBFL 040900Z VRB01KT 9999 FEW019 24/23 Q1009=
SA	04/02/2025 08:00->	
METAR SBFL 040800Z 06003KT 030V110 9999 FEW020 24/23 Q1008=
SA	04/02/2025 07:00->	
METAR SBFL 040700Z 32005KT 9999 FEW020 25/24 Q1008=
SA	04/02/2025 06:00->	
METAR SBFL 040600Z 31005KT CAVOK 25/24 Q1008=
SA	04/02/2025 05:00->	
METAR SBFL 040500Z 28004KT 9999 FEW020 25/24 Q1009=
SA	04/02/2025 04:00->	
METAR SBFL 040400Z 26004KT 9999 FEW018 SCT090 25/24 Q1010=
SA	04/02/2025 03:00->	
METAR SBFL 040300Z 12003KT 9999 -RA SCT016 BKN049 BKN064 25/23 Q1010=
SA	04/02/2025 02:00->	
METAR SBFL 040200Z 21004KT 9999 -RA SCT016 SCT039 BKN049 25/24 Q1011=
SA	04/02/2025 01:00->	
METAR SBFL 040100Z 21004KT 9999 SCT016 SCT038 25/24 Q1011=
SA	04/02/2025 00:00->	
METAR SBFL 040000Z VRB02KT 9999 SCT016 26/24 Q1010=
SA	03/02/2025 23:00->	
METAR SBFL 032300Z VRB02KT 9999 FEW018 SCT050 26/24 Q1010=
SA	03/02/2025 22:00->	
METAR SBFL 032200Z 10006KT 9999 SCT018 FEW035TCU SCT050 27/24 Q1009=
SA	03/02/2025 21:00->	
METAR SBFL 032100Z 11006KT 9999 SCT018 FEW035TCU SCT050 27/24 Q1009=
SA	03/02/2025 20:00->	
METAR SBFL 032000Z 11008KT 9999 SCT020 FEW035TCU BKN050 28/24 Q1008=
SA	03/02/2025 19:00->	
METAR SBFL 031900Z 10008KT 9999 SCT020 FEW035TCU BKN050 28/24 Q1009=
SA	03/02/2025 18:00->	
METAR SBFL 031800Z 13010KT 9999 VCTS SCT025 FEW040CB BKN050 28/24 Q1009=
SA	03/02/2025 17:00->	
METAR SBFL 031700Z 11013KT 9999 SCT020 FEW040TCU SCT100 30/23 Q1009=
SA	03/02/2025 16:00->	
METAR SBFL 031600Z 11012KT 9999 FEW025 SCT100 30/24 Q1009=
SA	03/02/2025 15:00->	
METAR SBFL 031500Z 07005KT 020V120 9999 FEW020 SCT100 30/22 Q1009=
SA	03/02/2025 14:00->	
METAR SBFL 031400Z VRB02KT 9999 FEW020 SCT100 29/23 Q1010=
SA	03/02/2025 13:00->	
METAR SBFL 031300Z 28004KT 240V320 9999 SCT011 BKN080 27/24 Q1010=
SA	03/02/2025 12:00->	
METAR SBFL 031200Z 29004KT 9999 FEW015 BKN100 26/24 Q1010=
SA	03/02/2025 11:00->	
METAR SBFL 031100Z 27003KT 9999 FEW015 BKN100 25/23 Q1009=
SA	03/02/2025 10:00->	
METAR SBFL 031000Z VRB02KT 9999 FEW015 BKN100 25/23 Q1009=
SA	03/02/2025 09:00->	
METAR SBFL 030900Z 33004KT 300V010 9999 SCT015 BKN040 24/23 Q1008=
SA	03/02/2025 08:00->	
METAR SBFL 030800Z 26004KT 9999 SCT012 BKN020 OVC050 24/23 Q1008=
SA	03/02/2025 07:00->	
METAR SBFL 030700Z 26003KT 6000 SCT010 BKN020 OVC040 24/23 Q1008=
SA	03/02/2025 06:00->	
METAR SBFL 030600Z 24004KT 6000 -SHRA SCT010 BKN020 OVC040 24/24 Q1008=
SA	03/02/2025 05:00->	
METAR SBFL 030500Z 27004KT 6000 SCT008 BKN050 BKN100 24/24 Q1008=
SA	03/02/2025 04:03->	
METAR SBFL 030403Z 25004KT 4000 -SHRA SCT012 BKN020 OVC040 25/24 Q1009=
SP	03/02/2025 04:03->	
SPECI SBFL 030403Z 25004KT 4000 -SHRA SCT012 BKN020 OVC040 25/24 Q1009=
SA	03/02/2025 04:00->	
METAR SBFL 030400Z 25003KT 6000 SCT012 BKN020 BKN040 25/24 Q1009=
SA	03/02/2025 03:00->	
METAR SBFL 030300Z VRB02KT 6000 -RA SCT012 BKN020 OVC035 25/23 Q1009=
SP	03/02/2025 02:16->	
SPECI SBFL 030216Z 06006KT 020V090 4000 -RA SCT012 BKN020 BKN070 25/23 Q1010=
SA	03/02/2025 02:00->	
METAR SBFL 030200Z 10004KT 9999 SCT015 BKN080 25/23 Q1009=
SA	03/02/2025 01:00->	
METAR SBFL 030100Z 12004KT 9999 SCT020 BKN070 26/23 Q1010=
SA	03/02/2025 00:00->	
METAR SBFL 030000Z 10005KT 9999 FEW035 BKN100 26/24 Q1009=
SA	02/02/2025 23:52->	
METAR SBFL 030000Z 10005KT 9999 FEW035 BKN100 26/24 Q1009=
SA	02/02/2025 23:00->	
METAR SBFL 022300Z 10005KT 9999 SCT017 FEW035TCU BKN100 26/24 Q1009=
SA	02/02/2025 22:00->	
METAR SBFL 022200Z 11005KT 080V140 9999 SCT017 FEW035TCU BKN100 26/24 Q1008=
SA	02/02/2025 21:00->	
METAR SBFL 022100Z 11008KT 9999 SCT017 FEW035TCU BKN100 27/23 Q1008=
SA	02/02/2025 20:00->	
METAR SBFL 022000Z 12010KT 9999 SCT017 FEW035TCU BKN100 26/24 Q1008=
SA	02/02/2025 19:00->	
METAR SBFL 021900Z 11010KT 9999 SCT020 FEW035TCU BKN100 28/23 Q1008=
SA	02/02/2025 18:00->	
METAR SBFL 021800Z 11009KT 9999 SCT025 FEW035TCU BKN100 29/23 Q1008=
SA	02/02/2025 17:00->	
METAR SBFL 021700Z 10007KT 9999 SCT025 FEW035TCU BKN100 29/23 Q1008=
SA	02/02/2025 16:00->	
METAR SBFL 021600Z 09007KT 9999 SCT030 FEW035TCU BKN040 28/23 Q1009=
SA	02/02/2025 15:00->	
METAR SBFL 021500Z 10007KT 9999 SCT023 SCT030 BKN040 28/22 Q1010=
SA	02/02/2025 14:00->	
METAR SBFL 021400Z 10005KT 030V130 9999 BKN023 BKN025 29/23 Q1010=
SA	02/02/2025 13:00->	
METAR SBFL 021300Z 10003KT 060V150 9999 FEW020 BKN080 29/23 Q1010=
SA	02/02/2025 12:00->	
METAR SBFL 021200Z VRB02KT 9999 FEW020 BKN080 26/22 Q1009=
SA	02/02/2025 11:00->	
METAR SBFL 021100Z 26003KT 210V310 9999 FEW020 SCT080 25/22 Q1009=
SA	02/02/2025 10:00->	
METAR SBFL 021000Z 29003KT 9999 SCT015 BKN080 24/22 Q1009=
SA	02/02/2025 09:00->	
METAR SBFL 020900Z VRB02KT 9999 FEW025 BKN050 BKN075 23/22 Q1008=
SA	02/02/2025 08:00->	
METAR SBFL 020800Z VRB02KT 9999 FEW020 24/22 Q1008=
SA	02/02/2025 07:00->	
METAR SBFL 020700Z 00000KT 9999 FEW020 24/23 Q1008=
SA	02/02/2025 06:00->	
METAR SBFL 020600Z VRB01KT 9999 FEW020 24/23 Q1008=
SA	02/02/2025 05:00->	
METAR SBFL 020500Z 00000KT 9999 FEW022 24/23 Q1008=
SA	02/02/2025 04:00->	
METAR SBFL 020400Z 18003KT 9999 FEW016 25/23 Q1008=
SA	02/02/2025 03:00->	
METAR SBFL 020300Z 00000KT 9999 FEW018 SCT070 24/23 Q1009=
SA	02/02/2025 02:00->	
METAR SBFL 020200Z VRB01KT 9999 FEW018 SCT070 25/23 Q1009=
SA	02/02/2025 01:00->	
METAR SBFL 020100Z VRB01KT 9999 FEW016 OVC070 25/23 Q1009=
SA	02/02/2025 00:00->	
METAR SBFL 020000Z 20004KT 180V240 9999 SCT015 OVC050 25/23 Q1008=
SA	01/02/2025 23:50->	
METAR SBFL 020000Z 20004KT 180V240 9999 SCT015 OVC050 25/23 Q1008=
SA	01/02/2025 23:00->	
METAR SBFL 012300Z 19004KT 170V230 9999 SCT015 BKN050 25/23 Q1008=
SA	01/02/2025 22:00->	
METAR SBFL 012200Z 14006KT 9999 SCT012 BKN050 26/22 Q1007=
SA	01/02/2025 21:00->	
METAR SBFL 012100Z 13007KT 9999 BKN040 BKN050 26/22 Q1007=
SA	01/02/2025 20:00->	
METAR SBFL 012000Z 12009KT 9999 VCSH BKN030 FEW035TCU BKN050 27/22 Q1007=
SA	01/02/2025 19:00->	
METAR SBFL 011900Z 11009KT 9999 VCSH BKN025 FEW030TCU BKN050 27/22 Q1007=
SA	01/02/2025 18:00->	
METAR SBFL 011800Z 12009KT 090V150 9999 VCSH BKN023 FEW030TCU 29/23 Q1007=
SA	01/02/2025 17:00->	
METAR SBFL 011700Z 12009KT 090V150 9999 VCSH BKN023 28/22 Q1007=
SA	01/02/2025 16:00->	
METAR SBFL 011600Z 13008KT 100V160 9999 SCT025 29/22 Q1008=
SA	01/02/2025 15:00->	
METAR SBFL 011500Z 09004KT 040V160 9999 SCT025 28/22 Q1008=
SA	01/02/2025 14:00->	
METAR SBFL 011400Z VRB04KT 9999 SCT028 27/21 Q1009=
SA	01/02/2025 13:00->	
METAR SBFL 011300Z VRB03KT 9999 FEW025 BKN048 27/22 Q1009=
SA	01/02/2025 12:00->	
METAR SBFL 011200Z 23004KT 200V260 9999 FEW025 BKN045 26/22 Q1009=
SA	01/02/2025 11:00->	
METAR SBFL 011100Z VRB02KT 9999 BKN040 25/23 Q1009=
SA	01/02/2025 10:00->	
METAR SBFL 011000Z 00000KT 9999 OVC040 24/22 Q1008=
SA	01/02/2025 09:00->	
METAR SBFL 010900Z 00000KT 9999 BKN040 24/22 Q1008=
SA	01/02/2025 08:00->	
METAR SBFL 010800Z 24003KT 9999 BKN040 24/22 Q1007=
SA	01/02/2025 07:00->	
METAR SBFL 010700Z 25002KT 9999 BKN040 24/22 Q1007=
SA	01/02/2025 06:00->	
METAR SBFL 010600Z VRB02KT 9999 BKN040 24/22 Q1007=
SA	01/02/2025 05:00->	
METAR SBFL 010500Z VRB02KT 9999 BKN040 24/21 Q1008=
SA	01/02/2025 04:00->	
METAR SBFL 010400Z 23003KT 9999 BKN040 24/22 Q1008=
SA	01/02/2025 03:00->	
METAR SBFL 010300Z 21004KT 9999 BKN040 24/22 Q1008=
SA	01/02/2025 02:00->	
METAR SBFL 010200Z VRB02KT 9999 SCT040 BKN070 25/21 Q1009=
SA	01/02/2025 01:00->	
METAR SBFL 010100Z 15007KT 120V190 9999 BKN040 26/21 Q1008=
SA	01/02/2025 00:00->	
METAR SBFL 010000Z 15005KT 120V180 9999 SCT040 26/21 Q1008=
SA	31/01/2025 23:55->	
METAR SBFL 010000Z 15005KT 120V180 9999 SCT040 26/21 Q1008=
SA	31/01/2025 23:00->	
METAR SBFL 312300Z 14007KT 9999 FEW025 SCT046 26/22 Q1008=
SA	31/01/2025 22:00->	
METAR SBFL 312200Z 15009KT 120V180 9999 SCT026 BKN038 OVC045 26/22 Q1007=
SA	31/01/2025 21:00->	
METAR SBFL 312100Z 14008KT 9999 VCSH BKN030 FEW033TCU 26/21 Q1007=
SA	31/01/2025 20:00->	
METAR SBFL 312000Z 13009KT 110V180 9999 VCSH BKN030 FEW033TCU 27/22 Q1006=
SA	31/01/2025 19:00->	
METAR SBFL 311900Z 14010KT 9999 SCT030 28/22 Q1006=
SA	31/01/2025 18:00->	
METAR SBFL 311800Z 11012KT 9999 FEW035 28/22 Q1006=
SA	31/01/2025 17:00->	
METAR SBFL 311700Z 10010KT 070V140 CAVOK 29/16 Q1007=
SA	31/01/2025 16:00->	
METAR SBFL 311600Z 12009KT 080V150 CAVOK 29/20 Q1008=
SA	31/01/2025 15:00->	
METAR SBFL 311500Z 23003KT 120V280 CAVOK 28/18 Q1008=
SA	31/01/2025 14:00->	
METAR SBFL 311400Z 25004KT 200V310 CAVOK 27/18 Q1009=
SA	31/01/2025 13:00->	
METAR SBFL 311300Z 27003KT 180V340 CAVOK 25/19 Q1009=
SA	31/01/2025 12:00->	
METAR SBFL 311200Z 30003KT 280V340 CAVOK 24/20 Q1009=
SA	31/01/2025 11:00->	
METAR SBFL 311100Z 26003KT 220V280 CAVOK 23/20 Q1009=
SA	31/01/2025 10:00->	
METAR SBFL 311000Z 28005KT CAVOK 23/19 Q1009=
SA	31/01/2025 09:00->	
METAR SBFL 310900Z 28003KT CAVOK 21/19 Q1008=
SA	31/01/2025 08:00->	
METAR SBFL 310800Z 26004KT 9999 FEW040 BKN100 21/19 Q1007=
SA	31/01/2025 07:00->	
METAR SBFL 310700Z 27003KT 9999 FEW040 BKN100 22/20 Q1007=
SA	31/01/2025 06:00->	
METAR SBFL 310600Z 28003KT 9999 FEW040 BKN090 22/19 Q1008=
SA	31/01/2025 05:00->	
METAR SBFL 310500Z 27005KT 9999 FEW045 BKN090 22/20 Q1009=
SA	31/01/2025 04:00->	
METAR SBFL 310400Z 26005KT 9999 SCT045 BKN090 22/19 Q1009=
SA	31/01/2025 03:00->	
METAR SBFL 310300Z 21005KT 9999 SCT040 BKN090 23/19 Q1010=
SA	31/01/2025 02:00->	
METAR SBFL 310200Z 22006KT 9999 SCT040 BKN090 23/19 Q1011=
SA	31/01/2025 01:00->	
METAR SBFL 310100Z 21005KT 9999 FEW030 BKN090 24/20 Q1011=
SA	31/01/2025 00:00->	
METAR SBFL 310000Z 20009KT 9999 SCT030 BKN080 23/20 Q1010=
SA	30/01/2025 23:55->	
METAR SBFL 310000Z 20009KT 9999 SCT030 BKN080 23/20 Q1010=
SA	30/01/2025 23:00->	
METAR SBFL 302300Z 20010KT 9999 SCT030 BKN080 24/21 Q1010=
SA	30/01/2025 22:00->	
METAR SBFL 302200Z 19010KT 9999 FEW015 SCT025 FEW040TCU BKN080 24/21 Q1010=
SA	30/01/2025 21:00->	
METAR SBFL 302100Z 20010KT 9999 FEW015 SCT025 FEW040TCU BKN080 25/21 Q1010=
SA	30/01/2025 20:00->	
METAR SBFL 302000Z 20011KT 9999 SCT025 BKN080 25/21 Q1009=
SA	30/01/2025 19:00->	
METAR SBFL 301900Z 16011KT 9999 SCT025 BKN080 27/20 Q1010=
SA	30/01/2025 18:00->	
METAR SBFL 301800Z 15009KT 130V190 9999 SCT025 BKN080 27/21 Q1010=
SA	30/01/2025 17:00->	
METAR SBFL 301700Z 18010KT 9999 BKN025 BKN050 26/22 Q1011=
SA	30/01/2025 16:00->	
METAR SBFL 301600Z 19009KT 9999 BKN025 BKN050 27/22 Q1011=
SA	30/01/2025 15:00->	
METAR SBFL 301500Z 17010KT 9999 BKN025 27/22 Q1012=
SA	30/01/2025 14:00->	
METAR SBFL 301400Z 17010KT 130V200 9999 BKN022 BKN030 27/21 Q1012=
SA	30/01/2025 13:00->	
METAR SBFL 301300Z 18007KT 9999 SCT030 27/22 Q1012=
SA	30/01/2025 12:00->	
METAR SBFL 301200Z 20009KT 9999 FEW030 26/23 Q1011=
SA	30/01/2025 11:00->	
METAR SBFL 301100Z 20003KT 9999 FEW030 24/22 Q1011=
SA	30/01/2025 10:00->	
METAR SBFL 301000Z 05002KT 9999 FEW020 SCT035 23/23 Q1011=
SA	30/01/2025 09:00->	
METAR SBFL 300900Z 24002KT 9999 SCT014 BKN030 23/22 Q1010=
SA	30/01/2025 08:00->	
METAR SBFL 300800Z 31002KT 9999 SCT014 BKN030 23/22 Q1010=
SA	30/01/2025 07:00->	
METAR SBFL 300700Z 25003KT 9999 SCT014 BKN030 23/22 Q1010=
SA	30/01/2025 06:00->	
METAR SBFL 300600Z 33003KT 9999 BKN014 BKN030 23/22 Q1011=
SA	30/01/2025 05:00->	
METAR SBFL 300500Z 26004KT 9999 BKN014 BKN030 23/22 Q1011=
SA	30/01/2025 04:00->	
METAR SBFL 300400Z 21004KT 9999 BKN014 BKN030 23/22 Q1012=
SA	30/01/2025 03:00->	
METAR SBFL 300300Z 24006KT 9999 BKN014 BKN030 23/22 Q1012=
SA	30/01/2025 02:00->	
METAR SBFL 300200Z 21004KT 9999 BKN014 BKN030 23/22 Q1013=
SA	30/01/2025 01:00->	
METAR SBFL 300100Z 22004KT 9999 BKN014 BKN030 23/22 Q1013=
SP	30/01/2025 00:30->	
SPECI SBFL 300030Z 21004KT 8000 -RA BKN014 BKN030 22/22 Q1013 RERA=
SA	30/01/2025 00:00->	
METAR SBFL 300000Z 21006KT 3000 +RA BR BKN010 BKN020 BKN040 22/22 Q1013 RERA=
SA	29/01/2025 23:54->	
METAR SBFL 300000Z 21006KT 3000 +RA BR BKN010 BKN020 BKN040 22/22 Q1013 RERA=
SP	29/01/2025 23:35->	
SPECI SBFL 292335Z 12002KT 4000 RA BKN010 BKN020 BKN040 23/22 Q1012 RESHRA=
SP	29/01/2025 23:18->	
SPECI SBFL 292318Z 15007KT 3000 +SHRA SCT007 BKN020 BKN040 23/22 Q1012 RESHRA=
SP	29/01/2025 23:14->	
SPECI SBFL 292314Z 14007KT 3000 SHRA BR SCT020 BKN040 23/22 Q1012=
SA	29/01/2025 23:00->	
METAR SBFL 292300Z 19007KT 9999 SCT020 BKN040 24/21 Q1012=
SA	29/01/2025 22:00->	
METAR SBFL 292200Z 20005KT 9999 -RA SCT020 BKN050 24/22 Q1012=
SA	29/01/2025 21:00->	
METAR SBFL 292100Z 18005KT 9999 BKN025 OVC050 25/22 Q1011=
SA	29/01/2025 20:00->	
METAR SBFL 292000Z 21004KT 180V240 9999 FEW015 BKN025 OVC045 25/22 Q1011=
SA	29/01/2025 19:00->	
METAR SBFL 291900Z 12004KT 7000 -RA BKN010 BKN013 OVC045 24/23 Q1012=
SA	29/01/2025 18:00->	
METAR SBFL 291800Z 09006KT 5000 -RA SCT010 BKN013 OVC045 25/22 Q1012=
SP	29/01/2025 17:40->	
SPECI SBFL 291740Z 12005KT 5000 -RA SCT010 BKN013 OVC045 25/22 Q1012=
SA	29/01/2025 17:00->	
METAR SBFL 291700Z 11007KT 6000 SCT010 BKN013 OVC045 25/22 Q1013=
SA	29/01/2025 16:00->	
METAR SBFL 291600Z 15006KT 6000 -DZ SCT008 BKN013 OVC045 25/23 Q1013=
SA	29/01/2025 15:00->	
METAR SBFL 291500Z 13006KT 6000 -DZ SCT008 BKN013 OVC045 25/23 Q1013=
SA	29/01/2025 14:00->	
METAR SBFL 291400Z 20007KT 5000 -DZ SCT008 BKN013 OVC045 25/23 Q1013=
SA	29/01/2025 13:00->	
METAR SBFL 291300Z 21007KT 5000 BR SCT005 BKN013 OVC045 24/23 Q1013 RERA=
SA	29/01/2025 12:00->	
METAR SBFL 291200Z 21007KT 1500 RA BKN010 OVC020 23/23 Q1013=
SA	29/01/2025 11:00->	
METAR SBFL 291100Z 25005KT 3500 RA BKN010 OVC020 23/23 Q1012=
SP	29/01/2025 10:35->	
SPECI SBFL 291035Z 14003KT 3500 RA BKN010 OVC020 23/23 Q1012 RERA=
SA	29/01/2025 10:00->	
METAR SBFL 291000Z 18004KT 130V210 3500 +RA BKN010 OVC025 23/22 Q1012 RERA=
SA	29/01/2025 09:00->	
METAR SBFL 290900Z 17005KT 3500 RA BKN010 OVC020 23/22 Q1011=
SP	29/01/2025 08:31->	
SPECI SBFL 290831Z 19004KT 150V220 3500 RA BKN015 OVC051 23/22 Q1011=
SA	29/01/2025 08:00->	
METAR SBFL 290800Z VRB02KT 9999 -SHRA SCT025 OVC050 24/22 Q1011=
SA	29/01/2025 07:00->	
METAR SBFL 290700Z 22001KT 9999 SCT019 BKN040 24/22 Q1011=
SA	29/01/2025 06:00->	
METAR SBFL 290600Z 10002KT 9999 SCT020 BKN060 24/22 Q1011=
SA	29/01/2025 05:00->	
METAR SBFL 290500Z 15002KT 9999 BKN020 BKN060 24/23 Q1011=
SA	29/01/2025 04:00->	
METAR SBFL 290400Z VRB02KT 9999 FEW015 BKN060 24/23 Q1012=
SA	29/01/2025 03:00->	
METAR SBFL 290300Z VRB02KT 9999 FEW015 BKN060 24/22 Q1013=
SA	29/01/2025 02:00->	
METAR SBFL 290200Z 07003KT 9999 FEW015 BKN050 25/23 Q1013=
SA	29/01/2025 01:00->	
METAR SBFL 290100Z 08003KT 9999 SCT020 SCT030 OVC050 26/22 Q1013=
SA	29/01/2025 00:00->	
METAR SBFL 290000Z 08003KT 9999 SCT030 BKN050 26/23 Q1012=
SA	28/01/2025 23:56->	
METAR SBFL 290000Z 08003KT 9999 SCT030 BKN050 26/23 Q1012=
SA	28/01/2025 23:00->	
METAR SBFL 282300Z 07004KT 9999 VCSH BKN035 BKN050 26/22 Q1012=
SA	28/01/2025 22:00->	
METAR SBFL 282200Z 08006KT 9999 VCSH BKN028 FEW033TCU BKN050 26/22 Q1011=
SA	28/01/2025 21:00->	
METAR SBFL 282100Z 08007KT 9999 BKN028 FEW033TCU BKN050 27/22 Q1010=
SA	28/01/2025 20:00->	
METAR SBFL 282000Z 06008KT 9999 BKN028 FEW033TCU BKN050 27/22 Q1010=
SA	28/01/2025 19:00->	
METAR SBFL 281900Z 06008KT 9999 BKN028 FEW033TCU OVC050 28/23 Q1010=
SA	28/01/2025 18:00->	
METAR SBFL 281800Z 04006KT 9999 BKN028 FEW033TCU OVC050 28/23 Q1011=
SA	28/01/2025 17:00->	
METAR SBFL 281700Z 07006KT 020V110 9999 SCT023 OVC050 28/23 Q1012=
SA	28/01/2025 16:00->	
METAR SBFL 281600Z 34007KT 250V010 9999 VCSH SCT020 OVC050 28/23 Q1012=
SA	28/01/2025 15:00->	
METAR SBFL 281500Z 33008KT 9999 SCT015 OVC050 28/22 Q1012=
SA	28/01/2025 14:00->	
METAR SBFL 281400Z 34008KT 9999 SCT015 BKN030 OVC070 27/22 Q1013=
SA	28/01/2025 13:00->	
METAR SBFL 281300Z 30004KT 260V350 9999 SCT012 BKN025 BKN090 27/23 Q1013=
SA	28/01/2025 12:00->	
METAR SBFL 281200Z 26003KT 170V300 9999 SCT012 BKN025 BKN080 26/23 Q1013=
SA	28/01/2025 11:00->	
METAR SBFL 281100Z 27005KT 9999 FEW010 SCT015 BKN080 25/22 Q1012=
SA	28/01/2025 10:00->	
METAR SBFL 281000Z 29004KT 9999 FEW010 SCT020 24/23 Q1012=
SA	28/01/2025 09:00->	
METAR SBFL 280900Z 28003KT 9999 FEW010 SCT020 23/22 Q1012=
SA	28/01/2025 08:00->	
METAR SBFL 280800Z 28003KT 250V310 9999 SCT015 BKN022 OVC050 23/22 Q1011=
SA	28/01/2025 07:00->	
METAR SBFL 280700Z 29006KT 9999 SCT010 BKN015 OVC020 24/22 Q1011=
SA	28/01/2025 06:00->	
METAR SBFL 280600Z 25004KT 9999 SCT008 BKN015 OVC046 23/22 Q1011=
SA	28/01/2025 05:00->	
METAR SBFL 280500Z 29003KT 250V340 9999 -RA FEW010 BKN026 OVC050 24/23 Q1013=
SA	28/01/2025 04:00->	
METAR SBFL 280400Z 26006KT 240V310 9999 -RA SCT008 BKN025 OVC040 24/23 Q1013=
SA	28/01/2025 03:00->	
METAR SBFL 280300Z 27003KT 190V320 9999 -RA SCT010 BKN023 OVC050 24/23 Q1013=
SA	28/01/2025 02:00->	
METAR SBFL 280200Z 33002KT 9999 SCT017 OVC045 25/23 Q1014=
SA	28/01/2025 01:00->	
METAR SBFL 280100Z 09007KT 9999 -RA SCT017 OVC034 25/22 Q1013=
SA	28/01/2025 00:00->	
METAR SBFL 280000Z 06005KT 030V090 9999 OVC036 26/22 Q1013=
SA	27/01/2025 23:50->	
METAR SBFL 280000Z 06005KT 030V090 9999 OVC036 26/22 Q1013=
SA	27/01/2025 23:00->	
METAR SBFL 272300Z 09007KT 9999 SCT028 OVC040 26/22 Q1012=
SA	27/01/2025 22:00->	
METAR SBFL 272200Z 09009KT 9999 SCT022 OVC040 26/22 Q1012=
SA	27/01/2025 21:00->	
METAR SBFL 272100Z 10010KT 9999 VCSH BKN020 OVC036 26/22 Q1011=
SA	27/01/2025 20:00->	
METAR SBFL 272000Z 09011KT 9999 VCSH BKN020 BKN033 OVC056 27/22 Q1011=
SA	27/01/2025 19:00->	
METAR SBFL 271900Z 09012KT 9999 VCSH SCT025 BKN033 BKN060 27/22 Q1011=
SA	27/01/2025 18:00->	
METAR SBFL 271800Z 10011KT 9999 VCSH BKN033 BKN040 27/22 Q1013=
SA	27/01/2025 17:00->	
METAR SBFL 271700Z 10010KT 9999 VCSH BKN038 BKN050 28/21 Q1013=
SA	27/01/2025 16:00->	
METAR SBFL 271600Z 09010KT 9999 FEW030 BKN045 28/20 Q1013=
SA	27/01/2025 15:00->	
METAR SBFL 271500Z 12009KT 080V150 9999 SCT030 BKN040 28/22 Q1013=
SA	27/01/2025 14:00->	
METAR SBFL 271400Z 10009KT 070V130 9999 FEW025 BKN040 28/22 Q1013=
SA	27/01/2025 13:00->	
METAR SBFL 271300Z 25004KT 9999 SCT025 28/22 Q1013=
SA	27/01/2025 12:00->	
METAR SBFL 271200Z 22003KT 9999 FEW022 27/21 Q1013=
SA	27/01/2025 11:00->	
METAR SBFL 271100Z 26005KT 210V280 9999 FEW022 26/21 Q1013=
SA	27/01/2025 10:00->	
METAR SBFL 271000Z 25004KT 9999 FEW025 BKN035 23/22 Q1013=
SA	27/01/2025 09:00->	
METAR SBFL 270900Z 22002KT 9999 SCT040 22/21 Q1012=
SA	27/01/2025 08:00->	
METAR SBFL 270800Z VRB02KT 9999 BKN040 23/21 Q1012=
SA	27/01/2025 07:00->	
METAR SBFL 270700Z 21004KT 9999 BKN030 23/21 Q1012=
SA	27/01/2025 06:00->	
METAR SBFL 270600Z 22004KT CAVOK 23/21 Q1013=
SA	27/01/2025 05:00->	
METAR SBFL 270500Z 22006KT 200V260 CAVOK 23/21 Q1013=
SA	27/01/2025 04:00->	
METAR SBFL 270400Z 16004KT 9999 FEW035 24/20 Q1014=
SA	27/01/2025 03:00->	
METAR SBFL 270300Z 15006KT 9999 BKN045 25/20 Q1015=
SA	27/01/2025 02:00->	
METAR SBFL 270200Z 14008KT 9999 FEW025 SCT045 25/20 Q1014=
SA	27/01/2025 01:00->	
METAR SBFL 270100Z 15011KT 9999 FEW025 25/20 Q1014=
SA	27/01/2025 00:00->	
METAR SBFL 270000Z 13012KT 9999 FEW025 SCT047 26/21 Q1014=
SA	26/01/2025 23:56->	
METAR SBFL 270000Z 13012KT 9999 FEW025 SCT047 26/21 Q1014=
SA	26/01/2025 23:00->	
METAR SBFL 262300Z 15008KT 9999 SCT025 BKN047 26/21 Q1013=
SA	26/01/2025 22:00->	
METAR SBFL 262200Z 14009KT 9999 VCSH BKN023 FEW030TCU BKN038 26/21 Q1013=
SA	26/01/2025 21:00->	
METAR SBFL 262100Z 16011KT 9999 VCSH BKN023 FEW030TCU BKN038 26/21 Q1012=
SA	26/01/2025 20:00->	
METAR SBFL 262000Z 15012KT 120V190 9999 VCSH SCT023 FEW030TCU BKN038 26/22 Q1012=
SA	26/01/2025 19:00->	
METAR SBFL 261900Z 16014KT 130V190 9999 VCSH FEW025 BKN040 27/21 Q1013=
SA	26/01/2025 18:00->	
METAR SBFL 261800Z 15013KT 130V190 9999 SCT025 BKN040 27/22 Q1013=
SA	26/01/2025 17:00->	
METAR SBFL 261700Z 14011KT 9999 VCSH BKN025 27/22 Q1013=
SA	26/01/2025 16:00->	
METAR SBFL 261600Z 16012KT 9999 BKN020 27/23 Q1014=
SA	26/01/2025 15:00->	
METAR SBFL 261500Z 15014KT 9999 SCT020 SCT100 27/22 Q1014=
SA	26/01/2025 14:00->	
METAR SBFL 261400Z 19011KT 170V230 9999 SCT030 SCT100 28/22 Q1014=
SA	26/01/2025 13:00->	
METAR SBFL 261300Z 19011KT 9999 FEW045 28/23 Q1013=
SA	26/01/2025 12:00->	
METAR SBFL 261200Z 19012KT 9999 FEW045 28/22 Q1013=
SA	26/01/2025 11:00->	
METAR SBFL 261100Z 17012KT 140V210 9999 FEW030 27/21 Q1012=
SA	26/01/2025 10:00->	
METAR SBFL 261000Z 20004KT 9999 FEW015 26/21 Q1012=
SA	26/01/2025 09:00->	
METAR SBFL 260900Z 20007KT 9999 SCT030 SCT070 24/21 Q1011=
SA	26/01/2025 08:00->	
METAR SBFL 260800Z 19006KT 9999 SCT030 SCT070 24/21 Q1010=
SA	26/01/2025 07:00->	
METAR SBFL 260700Z 26003KT 9999 SCT030 SCT070 23/22 Q1010=
SA	26/01/2025 06:00->	
METAR SBFL 260600Z 20004KT 9999 SCT030 SCT070 23/22 Q1010=
SA	26/01/2025 05:00->	
METAR SBFL 260500Z 19003KT 9999 SCT030 SCT070 24/22 Q1011=
SA	26/01/2025 04:00->	
METAR SBFL 260400Z 32002KT 9999 SCT030 SCT070 24/22 Q1011=
SA	26/01/2025 03:00->	
METAR SBFL 260300Z 21002KT 9999 SCT030 SCT070 24/23 Q1011 RETS=
SA	26/01/2025 02:00->	
METAR SBFL 260200Z 22001KT 9000 TS FEW015 SCT030 FEW040CB OVC070 25/23 Q1011=
SA	26/01/2025 01:00->	
METAR SBFL 260100Z 24005KT 9000 TS VCSH FEW015 SCT030 FEW040CB OVC070 25/23 Q1012=
SA	26/01/2025 00:00->	
METAR SBFL 260000Z 21005KT 9000 TS VCSH FEW015 SCT030 FEW040CB OVC070 25/23 Q1011=
SA	25/01/2025 23:55->	
METAR SBFL 260000Z 21005KT 9000 TS VCSH FEW015 SCT030 FEW040CB OVC070 25/23 Q1011=
SA	25/01/2025 23:00->	
METAR SBFL 252300Z 19007KT 170V230 9000 TS VCSH FEW015 SCT030 FEW040CB OVC070 24/23 Q1011 RERA=
SA	25/01/2025 22:00->	
METAR SBFL 252200Z 19014KT 3000 TSRA SCT015 BKN030 FEW040CB OVC100 25/23 Q1011=
SP	25/01/2025 21:39->	
SPECI SBFL 252139Z 17012G26KT 140V200 4000 -TSRA SCT015 BKN030 FEW040CB BKN100 26/23 Q1010=
SP	25/01/2025 21:10->	
SPECI SBFL 252110Z 20008KT 170V230 8000 TS VCSH SCT015 BKN030 FEW040CB BKN100 26/24 Q1010 RERA=
SA	25/01/2025 21:00->	
METAR SBFL 252100Z 24005KT 180V270 3500 TSRA SCT015 BKN030 FEW040CB BKN100 26/25 Q1009=
SP	25/01/2025 20:32->	
SPECI SBFL 252032Z 18007KT 3500 TSRA SCT030 FEW040CB BKN100 27/25 Q1009=
SP	25/01/2025 20:21->	
SPECI SBFL 252021Z 17008KT 3500 -TSRA SCT030 FEW040CB BKN100 28/25 Q1009=
SA	25/01/2025 20:00->	
METAR SBFL 252000Z 14009KT 120V190 9999 TS VCSH SCT030 FEW040CB BKN100 29/24 Q1008=
SP	25/01/2025 19:41->	
SPECI SBFL 251941Z 33003KT 290V100 9999 TS VCSH SCT030 FEW040CB BKN100 30/25 Q1008=
SA	25/01/2025 19:00->	
METAR SBFL 251900Z 33009KT 9999 SCT030 30/25 Q1008=
SA	25/01/2025 18:00->	
METAR SBFL 251800Z 35009KT 320V020 9999 FEW030 31/25 Q1008=
SA	25/01/2025 17:00->	
METAR SBFL 251700Z 35007KT 9999 FEW030 31/24 Q1009=
SA	25/01/2025 16:00->	
METAR SBFL 251600Z 36009KT 9999 FEW030 31/25 Q1009=
SA	25/01/2025 15:00->	
METAR SBFL 251500Z 34006KT 9999 FEW030 29/24 Q1010=
SA	25/01/2025 14:00->	
METAR SBFL 251400Z 35010KT 9999 FEW030 29/24 Q1011=
SA	25/01/2025 13:00->	
METAR SBFL 251300Z 33010KT 9999 FEW027 28/24 Q1011=
SA	25/01/2025 12:00->	
METAR SBFL 251200Z 32013KT 9999 FEW027 27/23 Q1011=
SA	25/01/2025 11:00->	
METAR SBFL 251100Z 34010KT 9999 FEW027 26/23 Q1011=
SA	25/01/2025 10:00->	
METAR SBFL 251000Z 33007KT 9999 FEW027 25/23 Q1011=
SA	25/01/2025 09:00->	
METAR SBFL 250900Z 34008KT 9999 FEW027 25/22 Q1011=
SA	25/01/2025 08:00->	
METAR SBFL 250800Z 34006KT CAVOK 24/22 Q1011=
SA	25/01/2025 07:00->	
METAR SBFL 250700Z 30008KT CAVOK 24/22 Q1011=
SA	25/01/2025 06:00->	
METAR SBFL 250600Z 31006KT CAVOK 24/22 Q1012=
SA	25/01/2025 05:00->	
METAR SBFL 250500Z 33008KT 9999 FEW015 SCT066 24/22 Q1012=
SA	25/01/2025 04:00->	
METAR SBFL 250400Z 33007KT 9999 SCT021 23/22 Q1013=
SA	25/01/2025 03:00->	
METAR SBFL 250300Z 31006KT 9999 SCT010 23/22 Q1014=
SA	25/01/2025 02:00->	
METAR SBFL 250200Z 31008KT 9999 -RA BKN007 BKN050 OVC100 23/23 Q1015=
SA	25/01/2025 01:00->	
METAR SBFL 250100Z 31008KT 9999 -RA BKN005 BKN050 OVC100 23/23 Q1015=
SP	25/01/2025 00:25->	
SPECI SBFL 250025Z 31007KT 5000 -RA BKN005 OVC050 23/23 Q1014=
SA	25/01/2025 00:00->	
METAR SBFL 250000Z 04001KT 9000 -RA SCT008 BKN013 23/22 Q1014 RETS=
SA	24/01/2025 23:55->	
METAR SBFL 250000Z 04001KT 9000 -RA SCT008 BKN013 23/22 Q1014 RETS=
SA	24/01/2025 23:00->	
METAR SBFL 242300Z 26008KT 8000 -TSRA BKN010 FEW020CB 23/22 Q1013=
SP	24/01/2025 22:13->	
SPECI SBFL 242213Z 16005KT 8000 -TSRA BKN030 FEW035CB 23/22 Q1013 RERA=
SA	24/01/2025 22:00->	
METAR SBFL 242200Z 13009KT 1500 TSRA BKN010 FEW020CB 22/22 Q1013 RERA=
SP	24/01/2025 21:30->	
SPECI SBFL 242130Z 15014KT 1500 +TSRA BKN009 FEW020CB 22/22 Q1013=
SA	24/01/2025 21:00->	
METAR SBFL 242100Z 26008KT 0900 +TSRA BKN009 FEW020CB 22/22 Q1013=
SP	24/01/2025 20:33->	
SPECI SBFL 242033Z 22013G23KT 0900 +TSRA BKN009 FEW020CB 22/21 Q1012=
SP	24/01/2025 20:23->	
SPECI SBFL 242023Z 22014G24KT 8000 2000S -TSRA BKN010 FEW020CB 23/21 Q1012=
SP	24/01/2025 20:12->	
SPECI SBFL 242012Z 22016G26KT 9999 -TSRA BKN020 FEW030CB 24/21 Q1013=
SA	24/01/2025 20:00->	
METAR SBFL 242000Z 07008KT 9999 TS VCSH BKN020 FEW030CB 28/25 Q1012=
SP	24/01/2025 19:45->	
SPECI SBFL 241945Z 07010KT 9999 TS VCSH BKN020 FEW030CB 28/25 Q1012=
SA	24/01/2025 19:00->	
METAR SBFL 241900Z 04010KT 9999 BKN020 FEW030TCU 29/24 Q1011=
SA	24/01/2025 18:00->	
METAR SBFL 241800Z 04007KT 9999 BKN025 FEW035TCU 30/25 Q1012=
SA	24/01/2025 17:00->	
METAR SBFL 241700Z 01010KT 9999 BKN025 FEW035TCU 30/24 Q1013=
SA	24/01/2025 16:00->	
METAR SBFL 241600Z 01011KT 9999 BKN025 31/25 Q1013=
SA	24/01/2025 15:00->	
METAR SBFL 241500Z 01009KT 9999 FEW015 BKN025 30/25 Q1014=
SA	24/01/2025 14:00->	
METAR SBFL 241400Z 36011KT 9999 BKN025 30/25 Q1014=
SA	24/01/2025 13:00->	
METAR SBFL 241300Z 36008KT 9999 BKN020 29/25 Q1014=
SA	24/01/2025 12:00->	
METAR SBFL 241200Z 01008KT 9999 FEW020 29/25 Q1014=
SA	24/01/2025 11:00->	
METAR SBFL 241100Z 36008KT 9999 FEW015 SCT025 28/25 Q1014=
SA	24/01/2025 10:00->	
METAR SBFL 241000Z 35005KT 9999 FEW015 SCT025 27/25 Q1013=
SA	24/01/2025 09:00->	
METAR SBFL 240900Z 32005KT 9999 FEW010 BKN030 26/24 Q1013=
SA	24/01/2025 08:00->	
METAR SBFL 240800Z 30006KT 9999 FEW015 BKN030 25/24 Q1013=
SA	24/01/2025 07:00->	
METAR SBFL 240700Z 29007KT 9999 FEW015 BKN030 26/24 Q1014=
SA	24/01/2025 06:00->	
METAR SBFL 240600Z 35004KT 9999 BKN030 26/23 Q1014=
SA	24/01/2025 05:00->	
METAR SBFL 240500Z 36004KT 9999 SCT030 26/23 Q1015=
SA	24/01/2025 04:00->	
METAR SBFL 240400Z 04002KT 9999 SCT030 26/23 Q1015=
SA	24/01/2025 03:00->	
METAR SBFL 240300Z 03002KT 9999 SCT030 26/23 Q1015=
SA	24/01/2025 02:00->	
METAR SBFL 240200Z 03002KT 9999 SCT020 SCT040 27/23 Q1016=
SA	24/01/2025 01:00->	
METAR SBFL 240100Z 04006KT 9999 SCT020 BKN040 27/23 Q1016=
SA	24/01/2025 00:00->	
METAR SBFL 240000Z 04006KT 9999 SCT015 BKN020 27/24 Q1015=
SA	23/01/2025 23:56->	
METAR SBFL 240000Z 04006KT 9999 SCT015 BKN020 27/24 Q1015=
SA	23/01/2025 23:00->	
METAR SBFL 232300Z 05006KT 010V080 9999 SCT015 OVC025 27/23 Q1014=
SA	23/01/2025 22:00->	
METAR SBFL 232200Z 04007KT 010V080 9999 SCT015 OVC025 27/23 Q1014=
SA	23/01/2025 21:00->	
METAR SBFL 232100Z 07007KT 040V100 9999 SCT015 BKN020 28/24 Q1012=
SA	23/01/2025 20:00->	
METAR SBFL 232000Z 08009KT 9999 SCT015 BKN020 FEW035TCU 28/24 Q1013=
SA	23/01/2025 19:00->	
METAR SBFL 231900Z 07009KT 9999 SCT015 BKN035 FEW035TCU 28/24 Q1013=
SA	23/01/2025 18:00->	
METAR SBFL 231800Z 08014KT 9999 BKN035 FEW035TCU 30/25 Q1013=
SA	23/01/2025 17:00->	
METAR SBFL 231700Z 06008G18KT 9999 FEW035 31/25 Q1014=
SA	23/01/2025 16:00->	
METAR SBFL 231600Z 01009KT 330V040 9999 FEW035 32/23 Q1014=
SA	23/01/2025 15:00->	
METAR SBFL 231500Z 34007KT 300V020 9999 FEW035 31/23 Q1014=
SA	23/01/2025 14:00->	
METAR SBFL 231400Z 35007KT 330V040 9999 FEW030 31/23 Q1015=
SA	23/01/2025 13:00->	
METAR SBFL 231300Z 34009KT 320V020 CAVOK 30/23 Q1015=
SA	23/01/2025 12:00->	
METAR SBFL 231200Z 36008KT CAVOK 29/23 Q1015=
SA	23/01/2025 11:00->	
METAR SBFL 231100Z 34007KT 270V020 CAVOK 28/24 Q1015=
SA	23/01/2025 10:00->	
METAR SBFL 231000Z 31006KT CAVOK 26/23 Q1015=
SA	23/01/2025 09:00->	
METAR SBFL 230900Z 28005KT 9999 BKN016 BKN030 25/22 Q1015=
SA	23/01/2025 08:00->	
METAR SBFL 230800Z VRB02KT 9999 SCT016 24/22 Q1014=
SA	23/01/2025 07:00->	
METAR SBFL 230700Z 27004KT 9999 SCT016 24/22 Q1014=
SA	23/01/2025 06:00->	
METAR SBFL 230600Z 27006KT 9999 FEW019 24/22 Q1014=
SA	23/01/2025 05:00->	
METAR SBFL 230500Z 25004KT CAVOK 24/22 Q1014=
SA	23/01/2025 04:00->	
METAR SBFL 230400Z 16002KT 9999 FEW040 24/22 Q1015=
SA	23/01/2025 03:00->	
METAR SBFL 230300Z 12005KT 9999 FEW042 24/23 Q1015=
SA	23/01/2025 02:00->	
METAR SBFL 230200Z 13004KT 9999 FEW042 25/23 Q1016=
SA	23/01/2025 01:00->	
METAR SBFL 230100Z 10005KT 9999 FEW040 SCT100 25/23 Q1015=
SA	23/01/2025 00:00->	
METAR SBFL 230000Z 12004KT 9999 FEW040 SCT100 26/23 Q1015=
SA	22/01/2025 23:51->	
METAR SBFL 230000Z 12004KT 9999 FEW040 SCT100 26/23 Q1015=
SA	22/01/2025 23:00->	
METAR SBFL 222300Z 10004KT 9999 FEW040 BKN090 27/22 Q1015=
SA	22/01/2025 22:00->	
METAR SBFL 222200Z 08006KT 9999 SCT040 BKN080 28/22 Q1014=
SA	22/01/2025 21:00->	
METAR SBFL 222100Z 08007KT 9999 SCT035 SCT080 29/22 Q1013=
SA	22/01/2025 20:00->	
METAR SBFL 222000Z 09010KT 9999 SCT035 SCT070 29/22 Q1013=
SA	22/01/2025 19:00->	
METAR SBFL 221900Z 11011KT 9999 SCT035 SCT070 29/23 Q1013=
SA	22/01/2025 18:00->	
METAR SBFL 221800Z 10011KT 9999 FEW035 31/23 Q1012=
SA	22/01/2025 17:00->	
METAR SBFL 221700Z 10012KT 9999 FEW035 30/23 Q1012=
SA	22/01/2025 16:00->	
METAR SBFL 221600Z 10011KT 9999 FEW035 31/24 Q1013=
SA	22/01/2025 15:00->	
METAR SBFL 221500Z 03004KT 9999 FEW030 31/22 Q1013=
SA	22/01/2025 14:00->	
METAR SBFL 221400Z 34007KT 300V050 9999 FEW030 31/22 Q1014=
SA	22/01/2025 13:00->	
METAR SBFL 221300Z 34004KT 300V030 CAVOK 30/22 Q1014=
SA	22/01/2025 12:00->	
METAR SBFL 221200Z 01004KT 250V050 CAVOK 28/22 Q1014=
SA	22/01/2025 11:00->	
METAR SBFL 221100Z 30004KT 260V350 9999 FEW045 SCT100 26/21 Q1014=
SA	22/01/2025 10:00->	
METAR SBFL 221000Z 27003KT 240V300 9999 SCT045 24/21 Q1013=
SA	22/01/2025 09:00->	
METAR SBFL 220900Z 28003KT CAVOK 22/20 Q1012=
SA	22/01/2025 08:00->	
METAR SBFL 220800Z 28006KT CAVOK 23/20 Q1012=
SA	22/01/2025 07:00->	
METAR SBFL 220700Z 29006KT 9999 FEW025 SCT080 23/20 Q1012=
SA	22/01/2025 06:00->	
METAR SBFL 220600Z 27006KT 9999 FEW020 SCT080 23/21 Q1011=
SA	22/01/2025 05:00->	
METAR SBFL 220500Z 27005KT 9999 FEW020 SCT080 23/21 Q1012=
SA	22/01/2025 04:00->	
METAR SBFL 220400Z 24003KT 9999 FEW020 23/21 Q1012=
SA	22/01/2025 03:00->	
METAR SBFL 220300Z VRB01KT 9999 FEW025 22/21 Q1012=
SA	22/01/2025 02:00->	
METAR SBFL 220200Z VRB02KT 9999 FEW025 24/20 Q1012=
SA	22/01/2025 01:00->	
METAR SBFL 220100Z VRB01KT 9999 FEW025 25/21 Q1011=
SA	22/01/2025 00:00->	
METAR SBFL 220000Z 20004KT 9999 FEW030 24/21 Q1011=
SA	21/01/2025 23:52->	
METAR SBFL 220000Z 20004KT 9999 FEW030 24/21 Q1011=
SA	21/01/2025 23:00->	
METAR SBFL 212300Z 21003KT 200V260 9999 FEW030 25/22 Q1010=
SA	21/01/2025 22:00->	
METAR SBFL 212200Z 10005KT 9999 FEW037 27/21 Q1009=
SA	21/01/2025 21:00->	
METAR SBFL 212100Z 08008KT 9999 FEW038 29/22 Q1008=
SA	21/01/2025 20:00->	
METAR SBFL 212000Z 10011KT 9999 FEW036 29/22 Q1008=
SA	21/01/2025 19:00->	
METAR SBFL 211900Z 13011KT 9999 FEW036 29/23 Q1008=
SA	21/01/2025 18:00->	
METAR SBFL 211800Z 13012KT 9999 SCT035 30/23 Q1008=
SA	21/01/2025 17:00->	
METAR SBFL 211700Z 12012KT 9999 FEW035 30/22 Q1008=
SA	21/01/2025 16:00->	
METAR SBFL 211600Z 08005KT 040V130 9999 FEW035 SCT100 30/23 Q1008=
SA	21/01/2025 15:00->	
METAR SBFL 211500Z 07006KT 9999 FEW030 BKN080 29/24 Q1008=
SA	21/01/2025 14:00->	
METAR SBFL 211400Z VRB01KT 9999 FEW030 BKN080 28/23 Q1009=
SA	21/01/2025 13:00->	
METAR SBFL 211300Z VRB02KT 9999 FEW025 BKN100 28/24 Q1008=
SA	21/01/2025 12:00->	
METAR SBFL 211200Z 28004KT 240V310 9999 FEW020 BKN100 27/23 Q1008=
SP	21/01/2025 11:00->	
METAR SBFL 211100Z 29003KT 9999 FEW010 BKN100 26/23 Q1007=
SA	21/01/2025 11:00->	
METAR SBFL 211100Z 29003KT 9999 FEW010 BKN100 26/23 Q1007=
SA	21/01/2025 10:00->	
METAR SBFL 211000Z 27006KT 9999 FEW008 BKN100 26/22 Q1007=
SA	21/01/2025 09:00->	
METAR SBFL 210900Z 30002KT 9999 FEW008 BKN100 25/23 Q1006=
SA	21/01/2025 08:00->	
METAR SBFL 210800Z 24004KT 9999 SCT010 BKN100 25/23 Q1005=
SA	21/01/2025 07:00->	
METAR SBFL 210700Z 30004KT 9999 SCT010 BKN100 25/24 Q1005=
SA	21/01/2025 06:00->	
METAR SBFL 210600Z 31008KT 9999 SCT010 BKN100 25/24 Q1005=
SA	21/01/2025 05:00->	
METAR SBFL 210500Z 32008KT 9999 SCT010 BKN100 25/24 Q1005=
SA	21/01/2025 04:00->	
METAR SBFL 210400Z 31006KT 9999 SCT010 BKN100 25/24 Q1004=
SA	21/01/2025 03:00->	
METAR SBFL 210300Z 32006KT 9999 SCT010 BKN100 25/24 Q1005=
SA	21/01/2025 02:00->	
METAR SBFL 210200Z 33008KT 9999 SCT010 SCT050 BKN100 25/24 Q1006=
SA	21/01/2025 01:00->	
METAR SBFL 210100Z 36003KT 9999 SCT010 SCT050 BKN100 25/24 Q1006=
SA	21/01/2025 00:00->	
METAR SBFL 210000Z 01004KT 9999 SCT010 SCT050 BKN100 25/24 Q1006=
SA	20/01/2025 23:56->	
METAR SBFL 210000Z 01004KT 9999 SCT010 SCT050 BKN100 25/24 Q1006=
SA	20/01/2025 23:00->	
METAR SBFL 202300Z VRB02KT 9999 FEW011 SCT050 BKN100 25/23 Q1005 RERA=
SA	20/01/2025 22:00->	
METAR SBFL 202200Z 06005KT 030V100 4500 -RA FEW009 FEW030TCU BKN050 BKN100 25/23 Q1005=
SA	20/01/2025 21:00->	
METAR SBFL 202100Z 09004KT 050V150 4000 -RA FEW010 FEW030TCU BKN060 OVC100 25/24 Q1004=
SA	20/01/2025 20:00->	
METAR SBFL 202000Z 12008KT 9999 VCTS FEW010 FEW035CB SCT060 BKN100 25/24 Q1003 RETS=
SP	20/01/2025 19:30->	
SPECI SBFL 201930Z 11007KT 070V150 9000 TS VCSH FEW008 FEW035CB SCT060 BKN100 25/24 Q1003=
SA	20/01/2025 19:00->	
METAR SBFL 201900Z 20015KT 170V240 4000 -TSRA FEW007 FEW035CB SCT050 BKN100 24/23 Q1004 RERA=
SP	20/01/2025 18:41->	
SPECI SBFL 201841Z 19023G38KT 4000 TSRA FEW030 FEW035CB SCT100 26/23 Q1003=
SA	20/01/2025 18:00->	
METAR SBFL 201800Z 35010KT 9999 TS VCSH FEW030 FEW035CB SCT100 33/24 Q1001=
SP	20/01/2025 17:40->	
SPECI SBFL 201740Z 34010KT 9999 TS VCSH SCT030 FEW035CB 33/25 Q1001=
SA	20/01/2025 17:00->	
METAR SBFL 201700Z 36012KT 9999 SCT030 34/24 Q1002=
SA	20/01/2025 16:00->	
METAR SBFL 201600Z 35014KT 9999 SCT024 32/23 Q1002=
SA	20/01/2025 15:00->	
METAR SBFL 201500Z 35015KT 9999 SCT024 31/24 Q1003=
SA	20/01/2025 14:00->	
METAR SBFL 201400Z 35017KT 9999 SCT024 31/24 Q1003=
SA	20/01/2025 13:00->	
METAR SBFL 201300Z 35016KT 9999 SCT025 29/24 Q1004=
SA	20/01/2025 12:00->	
METAR SBFL 201200Z 35012KT 9999 SCT015 29/24 Q1004=
SA	20/01/2025 11:00->	
METAR SBFL 201100Z 34007KT 9999 SCT015 27/24 Q1004=
SA	20/01/2025 10:00->	
METAR SBFL 201000Z 30004KT 9999 SCT010 26/24 Q1004=
SA	20/01/2025 09:00->	
METAR SBFL 200900Z 34005KT 300V010 9999 FEW015 25/24 Q1005=
SA	20/01/2025 08:00->	
METAR SBFL 200800Z 35006KT 9999 SCT015 25/24 Q1005=
SA	20/01/2025 07:00->	
METAR SBFL 200700Z 32006KT 9999 BKN013 25/24 Q1005=
SA	20/01/2025 06:00->	
METAR SBFL 200600Z 29004KT 9999 BKN013 25/24 Q1006=
SA	20/01/2025 05:00->	
METAR SBFL 200500Z 25002KT 9999 BKN010 BKN030 25/25 Q1006=
SA	20/01/2025 04:00->	
METAR SBFL 200400Z 35005KT 9999 BKN011 BKN030 26/25 Q1007=
SA	20/01/2025 03:00->	
METAR SBFL 200300Z 16001KT 9999 BKN011 BKN030 25/25 Q1008=
SA	20/01/2025 02:00->	
METAR SBFL 200200Z 09003KT 040V110 9999 -RA BKN014 BKN030 25/25 Q1008=
SA	20/01/2025 01:00->	
METAR SBFL 200100Z 28003KT 9999 -RA BKN014 BKN020 25/25 Q1008 RETS=
SA	20/01/2025 00:00->	
METAR SBFL 200000Z 28003KT 8000 -TSRA BKN010 BKN020 FEW025CB 25/24 Q1008=